{"version": 0.6, "generator": "Overpass API 0.7.62.1 084b4234", "osm3s": {"timestamp_osm_base": "2024-11-07T07:13:19Z", "copyright": "The data included in this document is from www.openstreetmap.org. The data is made available under ODbL."}, "elements": [{"type": "node", "id": 289607434, "lat": 11.2297832, "lon": 75.8502839, "tags": {"name": "Pantheerankave", "name:en": "Pantheerankave", "name:ml": "\u0d2a\u0d28\u0d4d\u0d24\u0d40\u0d30\u0d3e\u0d19\u0d4d\u0d15\u0d3e\u0d35\u0d4d", "place": "village"}}, {"type": "node", "id": 289607444, "lat": 11.4321025, "lon": 76.0056646, "tags": {"name": "Kodencherry", "name:ml": "\u0d15\u0d4b\u0d1f\u0d1e\u0d4d\u0d1a\u0d47\u0d30\u0d3f", "place": "village"}}, {"type": "node", "id": 391794760, "lat": 11.2625089, "lon": 75.9243239, "tags": {"name": "Cherooppa", "name:ml": "\u0d1a\u0d46\u0d31\u0d42\u0d2a\u0d4d\u0d2a", "place": "village"}}, {"type": "node", "id": 405226821, "lat": 11.2179307, "lon": 76.1409069, "tags": {"name": "Edavanna", "name:ml": "\u0d0e\u0d1f\u0d35\u0d23\u0d4d\u0d23", "place": "village", "wikidata": "Q5335721"}}, {"type": "node", "id": 430553259, "lat": 11.3095232, "lon": 75.8249531, "tags": {"name": "Parambil Bazar", "place": "village"}}, {"type": "node", "id": 1160654370, "lat": 11.3186605, "lon": 75.9395139, "tags": {"name": "Kattangal", "name:ml": "\u0d15\u0d1f\u0d4d\u0d1f\u0d3e\u0d19\u0d4d\u0d15\u0d7d", "place": "village"}}, {"type": "node", "id": 1683145417, "lat": 11.1559577, "lon": 75.8095217, "tags": {"name": "Chaliyam", "name:ml": "\u0d1a\u0d3e\u0d32\u0d3f\u0d2f\u0d02", "name:te": "\u0c1a\u0c3e\u0c32\u0c40\u0c2f\u0c02", "place": "village", "wikidata": "Q15208881"}}, {"type": "node", "id": 1753666642, "lat": 11.3046779, "lon": 75.8785617, "tags": {"name": "Kunnamangalam", "name:ml": "\u0d15\u0d41\u0d28\u0d4d\u0d26\u0d2e\u0d02\u0d17\u0d32\u0d02", "place": "village"}}, {"type": "node", "id": 1769515845, "lat": 11.0602204, "lon": 75.9356334, "tags": {"name": "Kolappuram", "name:ml": "\u0d15\u0d4a\u0d33\u0d2a\u0d4d\u0d2a\u0d41\u0d31\u0d02", "place": "village"}}, {"type": "node", "id": 1770364151, "lat": 11.1534294, "lon": 75.8927018, "tags": {"name": "Kakkancheri", "name:ml": "\u0d15\u0d3e\u0d15\u0d4d\u0d15\u0d1e\u0d4d\u0d1a\u0d47\u0d30\u0d3f", "place": "village"}}, {"type": "node", "id": 1770386637, "lat": 11.15013, "lon": 75.9131673, "tags": {"name": "Pallikkal Bazar", "place": "village"}}, {"type": "node", "id": 1770386639, "lat": 11.1648386, "lon": 75.9340929, "tags": {"name": "Kottappuram", "name:ml": "\u0d15\u0d4b\u0d1f\u0d4d\u0d1f\u0d2a\u0d4d\u0d2a\u0d41\u0d31\u0d02", "place": "village"}}, {"type": "node", "id": 1770460252, "lat": 11.1209333, "lon": 75.8460689, "tags": {"name": "Athanikkal", "name:ml": "\u0d05\u0d24\u0d4d\u0d24\u0d3e\u0d28\u0d3f\u0d15\u0d4d\u0d15\u0d7d", "place": "village"}}, {"type": "node", "id": 1770465934, "lat": 11.154137, "lon": 75.8467225, "tags": {"name": "Mannoor Valavu", "name:ml": "\u0d2e\u0d23\u0d4d\u0d23\u0d42\u0d30\u0d4d\u200d \u0d35\u0d33\u0d35\u0d4d", "place": "village"}}, {"type": "node", "id": 1770482957, "lat": 11.1333181, "lon": 75.873084, "tags": {"name": "Komarappady", "name:ml": "\u0d15\u0d4b\u0d2e\u0d30\u0d2a\u0d4d\u0d2a\u0d1f\u0d3f", "place": "village"}}, {"type": "node", "id": 1771491047, "lat": 11.1064126, "lon": 75.8717048, "tags": {"name": "Chenakkalangadi", "name:ml": "\u0d05\u0d24\u0d4d\u0d24\u0d3e\u0d28\u0d3f\u0d15\u0d4d\u0d15\u0d7d", "place": "village"}}, {"type": "node", "id": 1784657848, "lat": 11.0366863, "lon": 75.9370753, "tags": {"name": "Kakkad", "name:ml": "\u0d15\u0d15\u0d4d\u0d15\u0d3e\u0d1f\u0d4d", "place": "village"}}, {"type": "node", "id": 1784665853, "lat": 11.0459953, "lon": 75.9404786, "tags": {"name": "Kooriyad", "name:ml": "\u0d15\u0d42\u0d30\u0d3f\u0d2f\u0d3e\u0d1f\u0d4d", "place": "village"}}, {"type": "node", "id": 1784673173, "lat": 11.0724084, "lon": 75.9028587, "tags": {"alt_name": "Thalappara", "name": "Talappara", "name:ml": "\u0d24\u0d32\u0d2a\u0d4d\u0d2a\u0d3e\u0d31", "place": "village", "wikidata": "Q7678900"}}, {"type": "node", "id": 1784674536, "lat": 11.0976305, "lon": 75.8969678, "tags": {"name": "Padikkal", "name:ml": "\u0d2a\u0d3e\u0d1f\u0d3f\u0d15\u0d4d\u0d15\u0d32\u0d4d\u200d", "place": "village"}}, {"type": "node", "id": 1850157227, "lat": 11.2712725, "lon": 75.9777543, "tags": {"name": "Koolimadu", "name:ml": "\u0d15\u0d42\u0d32\u0d3f\u0d2e\u0d3e\u0d1f\u0d4d", "place": "village"}}, {"type": "node", "id": 1863236752, "lat": 11.2591409, "lon": 75.9661681, "tags": {"name": "Elamaram", "name:ml": "\u0d0e\u0d33\u0d2e\u0d30\u0d02", "place": "village"}}, {"type": "node", "id": 1993612153, "lat": 11.3208963, "lon": 75.9673966, "tags": {"name": "Manassery", "name:ml": "\u0d2e\u0d23\u0d3e\u0d36\u0d4d\u0d36\u0d47\u0d30\u0d3f", "place": "village"}}, {"type": "node", "id": 1993714940, "lat": 11.2871158, "lon": 75.9872671, "tags": {"name": "Kodiyathur", "name:ml": "\u0d15\u0d4a\u0d1f\u0d3f\u0d2f\u0d24\u0d4d\u0d24\u0d42\u0d30\u0d4d\u200d", "place": "village"}}, {"type": "node", "id": 2297014862, "lat": 11.1053656, "lon": 75.926221, "tags": {"name": "Parambil Peedika", "name:ml": "\u0d2a\u0d31\u0d2e\u0d4d\u0d2a\u0d3f\u0d7d \u0d2a\u0d40\u0d1f\u0d3f\u0d15", "place": "village"}}, {"type": "node", "id": 2329582091, "lat": 11.4216322, "lon": 75.8315622, "tags": {"name": "Nanminda 13th Mile", "name:ml": "\u0d28\u0d28\u0d4d\u0d2e\u0d23\u0d4d\u0d1f 13--\u0d3e\u0d02 \u0d2e\u0d48\u0d32\u0d4d\u200d", "place": "village"}}, {"type": "node", "id": 2446789434, "lat": 10.9989279, "lon": 76.0901709, "tags": {"name": "Chattiparambu", "name:ml": "\u0d1a\u0d1f\u0d4d\u0d1f\u0d3f\u0d2a\u0d4d\u0d2a\u0d31\u0d2e\u0d4d\u0d2a\u0d4d", "place": "village"}}, {"type": "node", "id": 2695036066, "lat": 11.0333548, "lon": 76.1037631, "tags": {"name": "Kootilangadi", "name:ml": "\u0d15\u0d42\u0d1f\u0d4d\u0d1f\u0d3f\u0d32\u0d19\u0d4d\u0d19\u0d3e\u0d1f\u0d3f", "place": "village", "wikidata": "Q6430867", "wikipedia": "en:Koottilangadi"}}, {"type": "node", "id": 2727072107, "lat": 11.175654, "lon": 75.9986286, "tags": {"name": "Kizhissery", "name:ml": "\u0d15\u0d3f\u0d34\u0d3f\u0d36\u0d4d\u0d36\u0d47\u0d30\u0d3f", "place": "village", "wikidata": "Q6449213", "wikipedia": "en:Kuzhimanna Gramapanchayat"}}, {"type": "node", "id": 2728391574, "lat": 11.1946428, "lon": 76.064549, "tags": {"name": "Kavanoor", "name:ml": "\u0d15\u0d3e\u0d35\u0d28\u0d42\u0d7c", "place": "village", "wikidata": "Q6379106"}}, {"type": "node", "id": 2749931062, "lat": 11.1112248, "lon": 75.8355249, "tags": {"name": "Anangadi", "name:ml": "\u0d06\u0d28\u0d19\u0d4d\u0d19\u0d3e\u0d1f\u0d3f", "place": "village"}}, {"type": "node", "id": 2749978561, "lat": 11.1352684, "lon": 75.8436843, "tags": {"name": "Anayarangadi", "place": "village"}}, {"type": "node", "id": 2833370201, "lat": 11.0694012, "lon": 76.1354703, "tags": {"name": "Vallikkapatta", "name:ml": "\u0d35\u0d33\u0d4d\u0d33\u0d3f\u0d15\u0d4d\u0d15\u0d3e\u0d2a\u0d4d\u0d2a\u0d31\u0d4d\u0d31", "place": "village"}}, {"type": "node", "id": 2833375712, "lat": 11.0891491, "lon": 76.1209271, "tags": {"name": "Anakkayam", "name:ml": "\u0d06\u0d28\u0d15\u0d4d\u0d15\u0d2f\u0d02", "place": "village", "wikidata": "Q4750982"}}, {"type": "node", "id": 2854025361, "lat": 11.3670609, "lon": 75.8635766, "tags": {"name": "Narikkuni", "name:ml": "\u0d28\u0d30\u0d3f\u0d15\u0d4d\u0d15\u0d41\u0d28\u0d3f", "place": "village", "survey:date": "2014-05-08"}}, {"type": "node", "id": 2894889279, "lat": 11.2967764, "lon": 75.7927158, "tags": {"name": "Thadambattuthazham", "name:ml": "\u0d24\u0d3e\u0d1f\u0d2e\u0d4d\u0d2a\u0d3e\u0d1f\u0d4d\u0d1f\u0d41\u0d24\u0d3e\u0d34\u0d02", "place": "village"}}, {"type": "node", "id": 3027581412, "lat": 11.1393612, "lon": 75.8393601, "tags": {"name": "Kottakkadavu", "name:ml": "\u0d15\u0d4b\u0d1f\u0d4d\u0d1f\u0d15\u0d4d\u0d15\u0d1f\u0d35\u0d4d", "place": "village"}}, {"type": "node", "id": 3414533198, "lat": 11.3588555, "lon": 76.0952191, "tags": {"name": "Nayadampoyil", "name:ml": "\u0d28\u0d3e\u0d2f\u0d3e\u0d1f\u0d02\u0d2a\u0d4a\u0d2f\u0d3f\u0d7d", "place": "village", "wikidata": "Q6349509"}}, {"type": "node", "id": 3678929914, "lat": 10.9979302, "lon": 76.1430868, "tags": {"name": "Ramapuram", "name:ml": "\u0d30\u0d3e\u0d2e\u0d2a\u0d41\u0d30\u0d02", "place": "village", "wikidata": "Q7289032"}}, {"type": "node", "id": 3708958772, "lat": 11.1335631, "lon": 75.9485758, "tags": {"name": "Karipur", "name:hi": "\u0915\u0930\u093f\u092a\u0941\u0930", "name:kn": "\u0c95\u0cb0\u0cbf\u0caa\u0ccd\u0caa\u0cc2\u0cb0\u0ccd", "name:ml": "\u0d15\u0d30\u0d3f\u0d2a\u0d4d\u0d2a\u0d42\u0d7c", "name:te": "\u0c15\u0c30\u0c3f\u0c2a\u0c4d\u0c2a\u0c42\u0c30\u0c4d", "place": "village", "wikidata": "Q6371066", "wikipedia": "en:Karipur"}}, {"type": "node", "id": 3757468812, "lat": 11.3340681, "lon": 75.8926888, "tags": {"name": "Padanilam", "name:ml": "\u0d2a\u0d1f\u0d28\u0d3f\u0d32\u0d02", "place": "village"}}, {"type": "node", "id": 3757479679, "lat": 11.398888, "lon": 75.8659988, "tags": {"name": "Palangad", "name:ml": "\u0d2a\u0d3e\u0d32\u0d19\u0d4d\u0d19\u0d3e\u0d1f\u0d4d", "place": "village"}}, {"type": "node", "id": 3757483568, "lat": 11.3774703, "lon": 75.8673424, "tags": {"name": "Nellerithazham", "name:ml": "\u0d28\u0d46\u0d32\u0d4d\u0d32\u0d3f\u0d2f\u0d47\u0d30\u0d3f\u0d24\u0d4d\u0d24\u0d3e\u0d34\u0d02", "place": "village"}}, {"type": "node", "id": 3757502986, "lat": 11.3500546, "lon": 75.877117, "tags": {"name": "Paimpalasseri", "place": "village"}}, {"type": "node", "id": 3757544981, "lat": 11.3140148, "lon": 75.8839472, "tags": {"name": "Pantheerpadam", "name:ml": "\u0d2a\u0d28\u0d4d\u0d24\u0d40\u0d7c\u0d2a\u0d4d\u0d2a\u0d3e\u0d1f\u0d02", "place": "village"}}, {"type": "node", "id": 3757545542, "lat": 11.3429351, "lon": 75.8871753, "tags": {"name": "Chakkalakkal", "place": "village"}}, {"type": "node", "id": 3757580154, "lat": 11.3017302, "lon": 75.8614793, "tags": {"name": "Karanthur", "name:ml": "\u0d15\u0d3e\u0d30\u0d28\u0d4d\u0d24\u0d42\u0d30\u0d4d\u200d", "place": "village"}}, {"type": "node", "id": 3757588563, "lat": 11.2650299, "lon": 75.8116611, "tags": {"name": "Thondayad", "name:ml": "\u0d24\u0d4a\u0d23\u0d4d\u0d1f\u0d2f\u0d3e\u0d1f\u0d4d", "place": "village"}}, {"type": "node", "id": 3760299250, "lat": 11.4362386, "lon": 75.9021735, "tags": {"name": "Poonoor", "name:ml": "\u0d2a\u0d42\u0d28\u0d42\u0d30\u0d4d\u200d", "place": "village"}}, {"type": "node", "id": 3760302959, "lat": 11.4422377, "lon": 75.8890399, "tags": {"name": "Estate Mukku", "name:ml": "\u0d0e\u0d38\u0d4d\u0d31\u0d4d\u0d31\u0d47\u0d31\u0d4d\u0d31\u0d4d \u0d2e\u0d41\u0d15\u0d4d\u0d15\u0d4d", "place": "village"}}, {"type": "node", "id": 3760344375, "lat": 11.2454211, "lon": 75.9550474, "tags": {"name": "Vazhakkad", "name:ml": "\u0d35\u0d3e\u0d34\u0d15\u0d4d\u0d15\u0d3e\u0d1f\u0d4d", "place": "village"}}, {"type": "node", "id": 3760346926, "lat": 11.2135869, "lon": 75.8941814, "tags": {"name": "Kakkov", "name:ml": "\u0d15\u0d15\u0d4d\u0d15\u0d4b\u0d35\u0d4d", "place": "village"}}, {"type": "node", "id": 3763514678, "lat": 11.4100027, "lon": 75.7636452, "tags": {"name": "Kodassery", "name:ml": "\u0d15\u0d4b\u0d1f\u0d36\u0d4d\u0d36\u0d47\u0d30\u0d3f", "place": "village"}}, {"type": "node", "id": 3763514688, "lat": 11.4334567, "lon": 75.7734365, "tags": {"name": "Modakkallur", "name:ml": "\u0d2e\u0d4a\u0d1f\u0d15\u0d4d\u0d15\u0d32\u0d4d\u0d32\u0d42\u0d30\u0d4d\u200d", "place": "village"}}, {"type": "node", "id": 3763514694, "lat": 11.3566633, "lon": 75.7586617, "tags": {"name": "Parambath", "name:ml": "\u0d2a\u0d31\u0d2e\u0d4d\u0d2a\u0d24\u0d4d\u0d24\u0d4d", "place": "village"}}, {"type": "node", "id": 3763514700, "lat": 11.3472258, "lon": 75.7620966, "tags": {"name": "Purakkattery", "name:ml": "\u0d2a\u0d41\u0d31\u0d15\u0d4d\u0d15\u0d3e\u0d1f\u0d4d\u0d1f\u0d47\u0d30\u0d3f", "place": "village"}}, {"type": "node", "id": 3763514704, "lat": 11.3517775, "lon": 75.7621691, "tags": {"name": "Thalakkulathur", "name:ml": "\u0d24\u0d32\u0d15\u0d4d\u0d15\u0d41\u0d33\u0d24\u0d4d\u0d24\u0d42\u0d7c", "place": "village"}}, {"type": "node", "id": 3765196850, "lat": 11.4401283, "lon": 76.0406067, "tags": {"name": "Nellipoyil", "name:ml": "\u0d28\u0d46\u0d32\u0d4d\u0d32\u0d3f\u0d2a\u0d4d\u0d2a\u0d4a\u0d2f\u0d3f\u0d32\u0d4d\u200d", "place": "village"}}, {"type": "node", "id": 3765197003, "lat": 11.4098106, "lon": 76.0400827, "tags": {"name": "Pullurampara", "name:ml": "\u0d2a\u0d41\u0d32\u0d4d\u0d32\u0d42\u0d30\u0d3e\u0d02\u0d2a\u0d3e\u0d31", "place": "village"}}, {"type": "node", "id": 3765227456, "lat": 11.4080736, "lon": 76.0221881, "tags": {"name": "Thottumuzhi", "name:ml": "\u0d24\u0d4b\u0d1f\u0d4d\u0d1f\u0d41\u0d2e\u0d4d\u0d2e\u0d42\u0d34\u0d3f", "place": "village"}}, {"type": "node", "id": 3765227457, "lat": 11.4063996, "lon": 76.0114903, "tags": {"name": "Murampathy", "name:ml": "\u0d2e\u0d41\u0d31\u0d02\u0d2a\u0d3e\u0d24\u0d4d\u0d24\u0d3f", "place": "village"}}, {"type": "node", "id": 3797731175, "lat": 11.3347611, "lon": 75.7719392, "tags": {"name": "Cherukulam", "name:ml": "\u0d1a\u0d46\u0d31\u0d41\u0d15\u0d41\u0d33\u0d02", "place": "village"}}, {"type": "node", "id": 3832395070, "lat": 11.0027001, "lon": 75.9580068, "tags": {"name": "Pookipparambu", "name:ml": "\u0d2a\u0d42\u0d15\u0d4d\u0d15\u0d3f\u0d2a\u0d4d\u0d2a\u0d31\u0d2e\u0d4d\u0d2a\u0d4d\u200c", "place": "village"}}, {"type": "node", "id": 3858793683, "lat": 10.9991126, "lon": 76.0576171, "tags": {"name": "Chappanangadi", "name:ml": "\u0d1a\u0d3e\u0d2a\u0d4d\u0d2a\u0d28\u0d19\u0d4d\u0d19\u0d3e\u0d1f\u0d3f", "place": "village"}}, {"type": "node", "id": 3883273699, "lat": 11.0164966, "lon": 76.1209721, "tags": {"name": "Makkaraparambu", "name:ml": "\u0d2e\u0d15\u0d4d\u0d15\u0d30\u0d2a\u0d31\u0d2e\u0d4d\u0d2a\u0d4d", "place": "village"}}, {"type": "node", "id": 3905129699, "lat": 11.0570402, "lon": 76.0241248, "tags": {"name": "Kottumala", "name:ml": "\u0d15\u0d4b\u0d1f\u0d4d\u0d1f\u0d41\u0d2e\u0d32", "place": "village"}}, {"type": "node", "id": 3905135159, "lat": 11.054122, "lon": 76.0164609, "tags": {"name": "vengulam", "name:ml": "\u0d35\u0d46\u0d19\u0d4d\u0d15\u0d41\u0d33\u0d02", "place": "village"}}, {"type": "node", "id": 3950575038, "lat": 10.9981531, "lon": 76.0719635, "tags": {"name": "Vattaparamba", "place": "village"}}, {"type": "node", "id": 4021087773, "lat": 11.343605, "lon": 75.7385407, "tags": {"name": "Elathur", "name:ml": "\u0d0e\u0d32\u0d24\u0d4d\u0d24\u0d42\u0d7c", "place": "village"}}, {"type": "node", "id": 4264098237, "lat": 11.0329126, "lon": 76.0665211, "tags": {"name": "Vadakkemanna", "place": "village"}}, {"type": "node", "id": 4291463548, "lat": 11.0007332, "lon": 76.1114098, "tags": {"name": "Vattalloor", "name:ml": "\u0d35\u0d31\u0d4d\u0d31\u0d32\u0d4d\u0d32\u0d42\u0d7c", "place": "village"}}, {"type": "node", "id": 4418777392, "lat": 11.0290285, "lon": 75.9425148, "tags": {"name": "Karumbil", "name:en": "Karumbil", "name:ml": "\u0d15\u0d30\u0d41\u0d2e\u0d4d\u0d2a\u0d3f\u0d32\u0d4d\u200d", "place": "village"}}, {"type": "node", "id": 4446946415, "lat": 11.0595834, "lon": 75.9058604, "tags": {"name": "Alinchuvadu", "name:ml": "\u0d06\u0d32\u0d3f\u0d7b\u0d1a\u0d41\u0d35\u0d1f\u0d4d", "place": "village", "wikidata": "Q4726742"}}, {"type": "node", "id": 4447492754, "lat": 11.024837, "lon": 75.9236558, "tags": {"name": "Cherumukku", "name:ml": "\u0d1a\u0d46\u0d31\u0d41\u0d2e\u0d41\u0d15\u0d4d\u0d15\u0d4d", "place": "village"}}, {"type": "node", "id": 4447521103, "lat": 11.0172366, "lon": 75.9487774, "tags": {"name": "Venniyour", "name:ml": "\u0d35\u0d46\u0d28\u0d4d\u0d28\u0d3f\u0d2f\u0d4d\u0d2f\u0d42\u0d30\u0d4d", "place": "village"}}, {"type": "node", "id": 4447524385, "lat": 10.9966312, "lon": 75.9602049, "tags": {"name": "Mele Kozhichena", "name:ml": "\u0d2e\u0d47\u0d32\u0d47 \u0d15\u0d4b\u0d34\u0d3f\u0d1a\u0d4d\u0d1a\u0d46\u0d28", "place": "village"}}, {"type": "node", "id": 4447591666, "lat": 11.2797646, "lon": 75.7848617, "tags": {"name": "Eranhipalam", "name:ml": "\u0d0e\u0d30\u0d1e\u0d4d\u0d1e\u0d3f\u0d2a\u0d4d\u0d2a\u0d3e\u0d32\u0d02", "place": "village"}}, {"type": "node", "id": 4448589100, "lat": 11.0100425, "lon": 75.923633, "tags": {"name": "Kundoor Athani", "name:ml": "\u0d15\u0d41\u0d23\u0d4d\u0d1f\u0d42\u0d30\u0d4d\u200d \u0d05\u0d24\u0d4d\u0d24\u0d3e\u0d23\u0d3f", "place": "village"}}, {"type": "node", "id": 4459090374, "lat": 11.027072, "lon": 75.9463239, "tags": {"name": "Kachadi", "name:ml": "\u0d15\u0d3e\u0d1a\u0d4d\u0d1a\u0d1f\u0d3f", "place": "village"}}, {"type": "node", "id": 4468793619, "lat": 11.0713158, "lon": 75.9857674, "tags": {"name": "Cherur", "name:ml": "\u0d1a\u0d47\u0d31\u0d42\u0d7c", "place": "village"}}, {"type": "node", "id": 4468805028, "lat": 11.0706998, "lon": 75.989265, "tags": {"name": "Kilinakode", "place": "village"}}, {"type": "node", "id": 4468808776, "lat": 11.0782597, "lon": 75.9763904, "tags": {"name": "Achanambalam", "name:ml": "\u0d05\u0d1a\u0d4d\u0d1a\u0d28\u0d2e\u0d4d\u0d2a\u0d32\u0d02", "place": "village"}}, {"type": "node", "id": 4468826248, "lat": 11.0853899, "lon": 75.9524589, "tags": {"name": "Kunnumpuram", "name:ml": "\u0d15\u0d41\u0d28\u0d4d\u0d28\u0d41\u0d02\u0d2a\u0d41\u0d31\u0d02", "place": "village", "wikidata": "Q6444948"}}, {"type": "node", "id": 4468868638, "lat": 11.1390631, "lon": 75.9839864, "tags": {"name": "Kottukkara", "name:ml": "\u0d15\u0d4a\u0d1f\u0d4d\u0d1f\u0d41\u0d15\u0d4d\u0d15\u0d30", "place": "village"}}, {"type": "node", "id": 4471127574, "lat": 11.1778171, "lon": 75.9483462, "tags": {"name": "Alakkaparamba", "place": "village"}}, {"type": "node", "id": 4471127577, "lat": 11.2050606, "lon": 75.8336495, "tags": {"name": "Kolathara Chungam", "name:ml": "\u0d15\u0d4a\u0d33\u0d24\u0d4d\u0d24\u0d31 \u0d1a\u0d41\u0d19\u0d4d\u0d15\u0d02", "place": "village"}}, {"type": "node", "id": 4471127578, "lat": 11.1811957, "lon": 75.9448808, "tags": {"name": "Valiyaparamba", "name:ml": "\u0d35\u0d32\u0d3f\u0d2f\u0d2a\u0d31\u0d2e\u0d4d\u0d2a\u0d4d", "place": "village"}}, {"type": "node", "id": 4553511592, "lat": 11.131396, "lon": 75.9658838, "tags": {"name": "Ayanikkadu", "name:ml": "\u0d05\u0d2f\u0d28\u0d3f\u0d15\u0d4d\u0d15\u0d3e\u0d1f\u0d4d", "place": "village"}}, {"type": "node", "id": 4553511593, "lat": 11.1293322, "lon": 75.9586038, "tags": {"name": "Tharayittal", "name:ml": "\u0d24\u0d31\u0d2f\u0d3f\u0d1f\u0d4d\u0d1f\u0d3e\u0d7d", "place": "village"}}, {"type": "node", "id": 4553511706, "lat": 11.1320156, "lon": 75.9599038, "tags": {"name": "Koottalungal", "name:ml": "\u0d15\u0d42\u0d1f\u0d4d\u0d1f\u0d3e\u0d32\u0d41\u0d19\u0d4d\u0d19\u0d7d", "place": "village"}}, {"type": "node", "id": 4553513166, "lat": 11.1147951, "lon": 75.956615, "tags": {"name": "Karuvankallu", "name:ml": "\u0d15\u0d30\u0d41\u0d35\u0d3e\u0d19\u0d4d\u0d15\u0d32\u0d4d\u0d32\u0d4d", "place": "village"}}, {"type": "node", "id": 4553514066, "lat": 11.0720637, "lon": 75.9465939, "tags": {"name": "Kakkadampuram", "name:ml": "\u0d15\u0d15\u0d4d\u0d15\u0d1f\u0d02\u0d2a\u0d41\u0d30\u0d02", "place": "village"}}, {"type": "node", "id": 4553514185, "lat": 11.1079316, "lon": 75.9563868, "tags": {"name": "Mollappadi", "name:ml": "\u0d2e\u0d4a\u0d32\u0d4d\u0d32\u0d2a\u0d4d\u0d2a\u0d1f\u0d3f", "place": "village"}}, {"type": "node", "id": 4553514279, "lat": 11.0788991, "lon": 75.9496891, "tags": {"name": "Kodakkallu", "name:ml": "\u0d15\u0d4a\u0d1f\u0d15\u0d4d\u0d15\u0d32\u0d4d\u0d32\u0d4d", "place": "village"}}, {"type": "node", "id": 4553514780, "lat": 11.1211515, "lon": 75.9575977, "tags": {"name": "Puliyamparambu", "name:ml": "\u0d2a\u0d41\u0d33\u0d3f\u0d2f\u0d2e\u0d4d\u0d2a\u0d31\u0d2e\u0d4d\u0d2a\u0d4d", "place": "village"}}, {"type": "node", "id": 4564834970, "lat": 11.0675203, "lon": 75.9232046, "tags": {"name": "VK Padi", "name:ml": "\u0d35\u0d3f\u0d15\u0d46 \u0d2a\u0d1f\u0d3f", "place": "village"}}, {"type": "node", "id": 4564834989, "lat": 11.0701414, "lon": 75.9194163, "tags": {"name": "Areethod", "name:ml": "\u0d05\u0d30\u0d40\u0d24\u0d4d\u0d24\u0d4b\u0d1f\u0d4d\u200c", "place": "village"}}, {"type": "node", "id": 4564836276, "lat": 11.0347168, "lon": 75.9244738, "tags": {"name": "Kunduchina", "name:ml": "\u0d15\u0d41\u0d23\u0d4d\u0d1f\u0d41\u0d1a\u0d3f\u0d28", "place": "village"}}, {"type": "node", "id": 4568142564, "lat": 11.044066, "lon": 75.9234955, "tags": {"name": "Chandappadi", "name:ml": "\u0d1a\u0d28\u0d4d\u0d26\u0d2a\u0d4d\u0d2a\u0d1f\u0d3f", "place": "village"}}, {"type": "node", "id": 4568151702, "lat": 11.0371159, "lon": 75.8775097, "tags": {"name": "Palathingal", "name:ml": "\u0d2a\u0d3e\u0d32\u0d24\u0d4d\u0d24\u0d3f\u0d19\u0d4d\u0d15\u0d7d", "place": "village"}}, {"type": "node", "id": 4568151703, "lat": 11.0412903, "lon": 75.8708941, "tags": {"name": "Karinkallathani", "place": "village"}}, {"type": "node", "id": 4568156867, "lat": 11.0392576, "lon": 75.8893984, "tags": {"name": "Pathinarungal", "name:ml": "\u0d2a\u0d24\u0d3f\u0d28\u0d3e\u0d31\u0d41\u0d19\u0d4d\u0d19\u0d7d", "place": "village"}}, {"type": "node", "id": 4568157451, "lat": 11.0419291, "lon": 75.8990429, "tags": {"addr:street": "Kariparambu, Tirurangadi", "name": "Kariparambu", "name:ml": "\u0d15\u0d30\u0d3f\u0d2a\u0d31\u0d2e\u0d4d\u0d2a\u0d4d", "place": "village"}}, {"type": "node", "id": 4568160999, "lat": 11.0385577, "lon": 75.8731051, "tags": {"name": "Murikkal", "place": "village"}}, {"type": "node", "id": 4568161317, "lat": 11.0461216, "lon": 75.8647371, "tags": {"name": "Puthirikkal", "place": "village"}}, {"type": "node", "id": 4569725615, "lat": 11.0691196, "lon": 75.9015468, "tags": {"name": "Muttiara", "name:en": "muttichira", "name:ml": "\u0d2e\u0d41\u0d1f\u0d4d\u0d1f\u0d3f\u0d1a\u0d4d\u0d1a\u0d3f\u0d31", "place": "village"}}, {"type": "node", "id": 4569761346, "lat": 11.054674, "lon": 75.9066555, "tags": {"name": "Parakkadavu", "name:ml": "\u0d2a\u0d3e\u0d31\u0d15\u0d4d\u0d15\u0d1f\u0d35\u0d4d", "place": "village"}}, {"type": "node", "id": 4569761692, "lat": 11.080418, "lon": 75.9019481, "tags": {"name": "Velimukku", "name:ml": "\u0d35\u0d46\u0d33\u0d3f\u0d2e\u0d41\u0d15\u0d4d\u0d15\u0d4d", "place": "village"}}, {"type": "node", "id": 4569761698, "lat": 11.0870856, "lon": 75.9009629, "tags": {"name": "Palakkal", "name:ml": "\u0d2a\u0d3e\u0d32\u0d15\u0d4d\u0d15\u0d32\u0d4d\u200d", "place": "village"}}, {"type": "node", "id": 4569762816, "lat": 11.1636299, "lon": 75.8777794, "tags": {"name": "Idimuzhikkal", "name:ml": "\u0d07\u0d1f\u0d3f\u0d2e\u0d41\u0d34\u0d3f\u0d15\u0d4d\u0d15\u0d7d", "place": "village", "wikidata": "Q5089839"}}, {"type": "node", "id": 4569763336, "lat": 11.1954525, "lon": 75.8184116, "tags": {"name": "Kundayithode", "name:ml": "\u0d15\u0d41\u0d23\u0d4d\u0d1f\u0d3e\u0d2f\u0d3f\u0d24\u0d4d\u0d24\u0d4b\u0d1f\u0d4d", "place": "village"}}, {"type": "node", "id": 4615784214, "lat": 11.1337797, "lon": 76.0166475, "tags": {"name": "Morayur", "name:ml": "\u0d2e\u0d4a\u0d31\u0d2f\u0d42\u0d7c", "place": "village", "wikidata": "Q17056332"}}, {"type": "node", "id": 4728652734, "lat": 11.2739757, "lon": 75.9512181, "tags": {"name": "Alin chuvadu", "name:ml": "\u0d06\u0d32\u0d3f\u0d7b\u0d1a\u0d41\u0d35\u0d1f\u0d4d", "place": "village"}}, {"type": "node", "id": 4728690001, "lat": 11.3083649, "lon": 75.937467, "tags": {"name": "Poolakkode", "name:ml": "\u0d2a\u0d42\u0d33\u0d15\u0d4d\u0d15\u0d4b\u0d1f\u0d4d", "place": "village"}}, {"type": "node", "id": 4728690393, "lat": 11.3044583, "lon": 75.937672, "tags": {"name": "Areekulangara", "name:ml": "\u0d05\u0d30\u0d40\u0d15\u0d4d\u0d15\u0d41\u0d33\u0d19\u0d4d\u0d19\u0d30", "place": "village"}}, {"type": "node", "id": 4728690394, "lat": 11.2966282, "lon": 75.9404165, "tags": {"name": "Choolur", "name:ml": "\u0d1a\u0d42\u0d32\u0d42\u0d30\u0d4d\u200d", "place": "village"}}, {"type": "node", "id": 4728690508, "lat": 11.2861476, "lon": 75.9472416, "tags": {"name": "Vellalashery", "name:ml": "\u0d35\u0d46\u0d33\u0d4d\u0d33\u0d32\u0d36\u0d4d\u0d36\u0d47\u0d30\u0d3f", "place": "village"}}, {"type": "node", "id": 4728690509, "lat": 11.2779441, "lon": 75.9511556, "tags": {"name": "Kuthiradam", "place": "village"}}, {"type": "node", "id": 5485068315, "lat": 11.3864159, "lon": 76.073048, "tags": {"name": "Poovaranthode", "name:ml": "\u0d2a\u0d42\u0d35\u0d3e\u0d31\u0d7b\u0d24\u0d4b\u0d1f\u0d4d", "place": "village"}}, {"type": "node", "id": 5487753232, "lat": 11.3812715, "lon": 76.081001, "tags": {"name": "Medappara", "name:ml": "\u0d2e\u0d47\u0d1f\u0d2a\u0d4d\u0d2a\u0d3e\u0d31", "place": "village"}}, {"type": "node", "id": 5487753233, "lat": 11.3933879, "lon": 76.0692422, "tags": {"name": "Kadothikunnu", "place": "village"}}, {"type": "node", "id": 5487753329, "lat": 11.3964179, "lon": 76.0818571, "tags": {"name": "Kallanpullu", "name:ml": "\u0d15\u0d32\u0d4d\u0d32\u0d28\u0d4d\u200d\u0d2a\u0d41\u0d32\u0d4d\u0d32\u0d4d", "place": "village"}}, {"type": "node", "id": 5487754128, "lat": 11.3836549, "lon": 76.0665257, "tags": {"name": "Ottaplavu", "place": "village"}}, {"type": "node", "id": 5498899116, "lat": 11.3713886, "lon": 76.0582412, "tags": {"name": "Urumi", "name:ml": "\u0d09\u0d31\u0d41\u0d2e\u0d3f", "place": "village"}}, {"type": "node", "id": 5498902970, "lat": 11.3648357, "lon": 76.0548509, "tags": {"name": "Kuliramutti", "name:ml": "\u0d15\u0d41\u0d33\u0d3f\u0d30\u0d3e\u0d2e\u0d41\u0d1f\u0d4d\u0d1f\u0d3f", "place": "village"}}, {"type": "node", "id": 5501124662, "lat": 11.3221571, "lon": 76.0600354, "tags": {"name": "Maramchatty", "place": "village"}}, {"type": "node", "id": 5501124663, "lat": 11.292192, "lon": 76.0700662, "tags": {"name": "Chundathumpoyil", "name:ml": "\u0d1a\u0d41\u0d23\u0d4d\u0d1f\u0d24\u0d4d\u0d24\u0d41\u0d02\u0d2a\u0d4a\u0d2f\u0d3f\u0d7d", "place": "village"}}, {"type": "node", "id": 5501124666, "lat": 11.2816397, "lon": 76.0590662, "tags": {"name": "Thottumukkam", "place": "village"}}, {"type": "node", "id": 5501192168, "lat": 11.4441706, "lon": 76.0866437, "tags": {"name": "Muthappanpuzha", "place": "village"}}, {"type": "node", "id": 5501213148, "lat": 11.4377028, "lon": 76.0613077, "tags": {"name": "Anakkampoyil", "name:ml": "\u0d06\u0d28\u0d15\u0d4d\u0d15\u0d3e\u0d02\u0d2a\u0d4a\u0d2f\u0d3f\u0d7d", "place": "village"}}, {"type": "node", "id": 5817829203, "lat": 11.3202586, "lon": 75.7584242, "tags": {"name": "Kandamkulangara", "name:ml": "\u0d15\u0d23\u0d4d\u0d1f\u0d02\u0d15\u0d41\u0d33\u0d19\u0d4d\u0d19\u0d30", "place": "village"}}, {"type": "node", "id": 5981926665, "lat": 11.3684949, "lon": 76.0298786, "tags": {"name": "Nellanichal", "name:ml": "\u0d28\u0d46\u0d32\u0d4d\u0d32\u0d28\u0d3f\u0d1a\u0d4d\u0d1a\u0d3e\u0d32\u0d4d\u200d", "place": "village"}}, {"type": "node", "id": 5981932646, "lat": 11.3782676, "lon": 76.0436692, "tags": {"name": "Punnakkal", "name:ml": "\u0d2a\u0d41\u0d28\u0d4d\u0d28\u0d2f\u0d4d\u0d15\u0d4d\u0d15\u0d7d", "place": "village"}}, {"type": "node", "id": 6125632168, "lat": 11.359385, "lon": 76.0721906, "tags": {"name": "Manjakkadavu", "name:ml": "\u0d2e\u0d1e\u0d4d\u0d1e\u0d15\u0d4d\u0d15\u0d1f\u0d35\u0d4d", "place": "village"}}, {"type": "node", "id": 6359767501, "lat": 11.3373086, "lon": 76.1105068, "tags": {"name": "Kakkadampoyil", "name:ml": "\u0d15\u0d15\u0d4d\u0d15\u0d3e\u0d1f\u0d02\u0d2a\u0d4a\u0d2f\u0d3f\u0d7d", "place": "village"}}, {"type": "node", "id": 6359772829, "lat": 11.3322602, "lon": 76.1247004, "tags": {"name": "Vendekkumpoyil", "name:ml": "\u0d35\u0d46\u0d23\u0d4d\u0d1f\u0d47\u0d15\u0d4d\u0d15\u0d41\u0d02\u0d2a\u0d4a\u0d2f\u0d3f\u0d7d", "place": "village"}}, {"type": "node", "id": 6363598410, "lat": 11.2189214, "lon": 75.831306, "tags": {"name": "Kodinattimukku", "name:ml": "\u0d15\u0d4a\u0d1f\u0d3f\u0d28\u0d3e\u0d1f\u0d4d\u0d1f\u0d41\u0d2e\u0d41\u0d15\u0d4d\u0d15\u0d4d", "place": "village"}}, {"type": "node", "id": 6363598412, "lat": 11.1339807, "lon": 76.0343826, "tags": {"name": "Mongam", "name:ml": "\u0d2e\u0d4b\u0d19\u0d4d\u0d19\u0d02", "place": "village", "wikidata": "Q32454194", "wikipedia": "en:Mongam"}}, {"type": "node", "id": 6363643001, "lat": 11.4041493, "lon": 75.9990567, "tags": {"name": "Velamcode", "place": "village"}}, {"type": "node", "id": 6559246247, "lat": 11.0587263, "lon": 76.005104, "tags": {"name": "Thangalpadi", "name:ml": "\u0d24\u0d19\u0d4d\u0d19\u0d7e\u0d2a\u0d1f\u0d3f", "place": "village"}}, {"type": "node", "id": 6559263264, "lat": 11.0489022, "lon": 75.957751, "tags": {"name": "Pathumoochi", "place": "village"}}, {"type": "node", "id": 6559295474, "lat": 11.0504064, "lon": 75.9530475, "tags": {"name": "Chettippuram", "name:ml": "\u0d1a\u0d47\u0d31\u0d4d\u0d31\u0d3f\u0d2a\u0d4d\u0d2a\u0d41\u0d31\u0d02", "place": "village"}}, {"type": "node", "id": 6559303111, "lat": 11.0491138, "lon": 75.962325, "tags": {"name": "Kacherippadi", "place": "village"}}, {"type": "node", "id": 6559303201, "lat": 11.0610786, "lon": 76.0067887, "tags": {"name": "Parakkanni", "place": "village"}}, {"type": "node", "id": 6559309521, "lat": 11.0557309, "lon": 76.0021332, "tags": {"name": "Kunnath", "name:ml": "\u0d15\u0d41\u0d28\u0d4d\u0d28\u0d24\u0d4d\u0d24\u0d4d\u200c", "place": "village"}}, {"type": "node", "id": 6559322416, "lat": 11.0535764, "lon": 75.997264, "tags": {"name": "Karimbili", "name:ml": "\u0d15\u0d30\u0d3f\u0d2e\u0d4d\u0d2a\u0d3f\u0d32\u0d3f", "place": "village"}}, {"type": "node", "id": 6595688657, "lat": 11.0781248, "lon": 75.9822923, "tags": {"name": "Thottungal", "place": "village"}}, {"type": "node", "id": 6595707796, "lat": 11.0821846, "lon": 75.971509, "tags": {"name": "Theendekkad", "name:ml": "\u0d24\u0d40\u0d23\u0d4d\u0d1f\u0d47\u0d15\u0d4d\u0d15\u0d3e\u0d1f\u0d4d", "place": "village"}}, {"type": "node", "id": 6595753207, "lat": 11.1345368, "lon": 75.939528, "tags": {"name": "Kumminiparamb", "name:ml": "\u0d15\u0d41\u0d2e\u0d4d\u0d2e\u0d3f\u0d23\u0d3f\u0d2a\u0d4d\u0d2a\u0d31\u0d2e\u0d4d\u0d2a\u0d4d", "place": "village"}}, {"type": "node", "id": 6613011617, "lat": 11.0608784, "lon": 75.8724156, "tags": {"name": "Mundiyam kavu", "place": "village"}}, {"type": "node", "id": 6613029905, "lat": 11.0578921, "lon": 75.8842632, "tags": {"name": "Kunnath paramb", "place": "village"}}, {"type": "node", "id": 6613049936, "lat": 11.0600346, "lon": 75.8927207, "tags": {"name": "Parakkav", "place": "village"}}, {"type": "node", "id": 6652942663, "lat": 11.0088206, "lon": 75.9114506, "tags": {"name": "Farooq nagar", "place": "village"}}, {"type": "node", "id": 6652950357, "lat": 10.9999131, "lon": 75.9107171, "tags": {"name": "Thattathalam", "name:ml": "\u0d24\u0d1f\u0d4d\u0d1f\u0d24\u0d4d\u0d24\u0d32\u0d02", "place": "village"}}, {"type": "node", "id": 6652965872, "lat": 11.0149614, "lon": 75.9097434, "tags": {"name": "Central Bazar", "place": "village"}}, {"type": "node", "id": 6652966203, "lat": 11.0240187, "lon": 75.9094153, "tags": {"name": "Cheruppara", "place": "village"}}, {"type": "node", "id": 6652966668, "lat": 11.0175673, "lon": 75.9099291, "tags": {"name": "Kottathangadi", "name:ml": "\u0d15\u0d4b\u0d31\u0d4d\u0d31\u0d24\u0d4d\u0d24\u0d19\u0d4d\u0d19\u0d3e\u0d1f\u0d3f", "place": "village"}}, {"type": "node", "id": 6653121738, "lat": 10.998934, "lon": 75.9582093, "tags": {"name": "Thazhe Kozhichena", "name:ml": "\u0d24\u0d3e\u0d34\u0d46 \u0d15\u0d4b\u0d34\u0d3f\u0d1a\u0d4d\u0d1a\u0d47\u0d28", "place": "village"}}, {"type": "node", "id": 6681045670, "lat": 11.0110062, "lon": 75.9330551, "tags": {"name": "Kodakkallu", "name:ml": "\u0d15\u0d4a\u0d1f\u0d15\u0d4d\u0d15\u0d32\u0d4d\u0d32\u0d4d", "place": "village"}}, {"type": "node", "id": 6681072584, "lat": 11.0145204, "lon": 75.9393607, "tags": {"name": "Kaprad", "name:ml": "\u0d15\u0d2a\u0d4d\u0d30\u0d3e\u0d1f\u0d4d", "place": "village"}}, {"type": "node", "id": 6681099934, "lat": 11.0199956, "lon": 75.9336761, "tags": {"name": "Chullippara", "place": "village"}}, {"type": "node", "id": 6703071776, "lat": 11.0168304, "lon": 75.9232502, "tags": {"name": "Kundoor", "place": "village", "wikidata": "Q16136095", "wikipedia": "en:Kundoor"}}, {"type": "node", "id": 6794705725, "lat": 11.0038272, "lon": 75.9406897, "tags": {"name": "Arakkal", "place": "village"}}, {"type": "node", "id": 6794707360, "lat": 11.0040536, "lon": 75.937526, "tags": {"name": "Alungal", "name:ml": "\u0d06\u0d32\u0d41\u0d19\u0d4d\u0d19\u0d7d", "place": "village"}}, {"type": "node", "id": 6794731997, "lat": 11.0005116, "lon": 75.9312384, "tags": {"name": "Thennala West bazar", "place": "village"}}, {"type": "node", "id": 7013660346, "lat": 11.1700172, "lon": 75.9670353, "tags": {"name": "Neerad", "name:ml": "\u0d28\u0d40\u0d31\u0d3e\u0d1f\u0d4d", "place": "village"}}, {"type": "node", "id": 7057554046, "lat": 11.2293176, "lon": 76.0546157, "tags": {"name": "Puthalam", "place": "village"}}, {"type": "node", "id": 7057577687, "lat": 11.2192222, "lon": 76.0430098, "tags": {"name": "Pookottuchola", "name:ml": "\u0d2a\u0d42\u0d15\u0d4d\u0d15\u0d4b\u0d1f\u0d4d\u0d1f\u0d41\u0d1a\u0d4b\u0d32", "place": "village"}}, {"type": "node", "id": 7057580666, "lat": 11.2245676, "lon": 76.0494807, "tags": {"name": "Kozhakottoor", "name:ml": "\u0d15\u0d4a\u0d34\u0d15\u0d4d\u0d15\u0d4b\u0d1f\u0d4d\u0d1f\u0d42\u0d7c", "place": "village"}}, {"type": "node", "id": 7057670372, "lat": 11.201367, "lon": 76.0242041, "tags": {"name": "Kadungallur", "name:ml": "\u0d15\u0d1f\u0d41\u0d19\u0d4d\u0d19\u0d32\u0d4d\u0d32\u0d42\u0d7c", "place": "village"}}, {"type": "node", "id": 7057686279, "lat": 11.1668912, "lon": 75.9908523, "tags": {"name": "Alinchuvad", "name:ml": "\u0d06\u0d32\u0d3f\u0d7b\u0d1a\u0d41\u0d35\u0d1f\u0d4d", "place": "village"}}, {"type": "node", "id": 7057690156, "lat": 11.213201, "lon": 76.0393993, "tags": {"name": "Chemrakattoor", "name:ml": "\u0d1a\u0d46\u0d2e\u0d4d\u0d30\u0d15\u0d4d\u0d15\u0d3e\u0d1f\u0d4d\u0d1f\u0d42\u0d7c", "place": "village"}}, {"type": "node", "id": 7057696630, "lat": 11.1975724, "lon": 76.0188539, "tags": {"name": "Hajiyarpadi", "name:ml": "\u0d39\u0d3e\u0d1c\u0d3f\u0d2f\u0d3e\u0d7c\u0d2a\u0d3e\u0d1f\u0d3f", "place": "village"}}, {"type": "node", "id": 7057698274, "lat": 11.1854247, "lon": 76.0088424, "tags": {"name": "Ration padi", "place": "village"}}, {"type": "node", "id": 7057703159, "lat": 11.1839281, "lon": 76.0063557, "tags": {"name": "Neeruttikkal", "name:ml": "\u0d28\u0d40\u0d30\u0d41\u0d1f\u0d4d\u0d1f\u0d3f\u0d15\u0d4d\u0d15\u0d7d", "place": "village"}}, {"type": "node", "id": 7057733341, "lat": 11.1555905, "lon": 75.9856974, "tags": {"name": "Ekkaparamba", "name:en": "ekkaparmb", "name:ml": "\u0d0e\u0d15\u0d4d\u0d15\u0d3e\u0d2a\u0d31\u0d2e\u0d4d\u0d2a\u0d4d", "place": "village", "population": "1500", "population:date": "2023-11-11", "source:population": "national election commision"}}, {"type": "node", "id": 7074092547, "lat": 11.3382976, "lon": 75.8256617, "tags": {"name": "Palath", "place": "village"}}, {"type": "node", "id": 7074093556, "lat": 11.4046725, "lon": 75.8939635, "tags": {"name": "Chettakkadav", "name:ml": "\u0d1a\u0d46\u0d31\u0d4d\u0d31\u0d15\u0d4d\u0d15\u0d1f\u0d35\u0d4d", "place": "village"}}, {"type": "node", "id": 7074118728, "lat": 11.337795, "lon": 75.8203651, "tags": {"name": "Oottukulam", "place": "village"}}, {"type": "node", "id": 7074142933, "lat": 11.3201589, "lon": 75.8028495, "tags": {"name": "Erakkulam", "name:ml": "\u0d0e\u0d30\u0d15\u0d4d\u0d15\u0d41\u0d33\u0d02", "place": "village"}}, {"type": "node", "id": 7074149130, "lat": 11.3445161, "lon": 75.851942, "tags": {"name": "Pullaloormukku", "place": "village"}}, {"type": "node", "id": 7074149190, "lat": 11.3236831, "lon": 75.8076972, "tags": {"name": "Moottoli", "place": "village"}}, {"type": "node", "id": 7074150146, "lat": 11.3491915, "lon": 75.8532723, "tags": {"name": "Thekkekandy", "place": "village"}}, {"type": "node", "id": 7074150810, "lat": 11.3992592, "lon": 75.8876992, "tags": {"name": "Elettil", "name:ml": "\u0d0e\u0d33\u0d47\u0d31\u0d4d\u0d31\u0d3f\u0d7d", "place": "village"}}, {"type": "node", "id": 7074160749, "lat": 11.3376779, "lon": 75.8522256, "tags": {"name": "Pullaloor", "name:ml": "\u0d2a\u0d41\u0d32\u0d4d\u0d32\u0d3e\u0d33\u0d42\u0d7c", "place": "village"}}, {"type": "node", "id": 7074163808, "lat": 11.4121002, "lon": 75.8965156, "tags": {"name": "Chalikkode", "name:ml": "\u0d1a\u0d33\u0d3f\u0d15\u0d4d\u0d15\u0d4b\u0d1f\u0d4d", "place": "village"}}, {"type": "node", "id": 7074259757, "lat": 11.4216655, "lon": 75.8987544, "tags": {"name": "Kanthapuram", "name:ml": "\u0d15\u0d3e\u0d28\u0d4d\u0d24\u0d2a\u0d41\u0d30\u0d02", "place": "village"}}, {"type": "node", "id": 7074312658, "lat": 11.4366684, "lon": 75.8612279, "tags": {"name": "Kappuram", "name:ml": "\u0d15\u0d2a\u0d4d\u0d2a\u0d41\u0d31\u0d02", "place": "village"}}, {"type": "node", "id": 7074323962, "lat": 11.4201206, "lon": 75.8671965, "tags": {"name": "Iyyad", "name:ml": "\u0d07\u0d2f\u0d4d\u0d2f\u0d3e\u0d1f\u0d4d", "place": "village"}}, {"type": "node", "id": 7074325477, "lat": 11.4263583, "lon": 75.8637271, "tags": {"name": "Kurungottpara", "place": "village"}}, {"type": "node", "id": 7118882404, "lat": 11.3902704, "lon": 76.0390135, "tags": {"name": "Ponnamkayam", "name:ml": "\u0d2a\u0d4a\u0d28\u0d4d\u0d28\u0d3e\u0d02\u0d15\u0d2f\u0d02", "place": "village"}}, {"type": "node", "id": 7213631447, "lat": 11.3160312, "lon": 76.0067621, "tags": {"name": "Anayamkunnu", "place": "village"}}, {"type": "node", "id": 7414122244, "lat": 11.2640171, "lon": 75.8935604, "tags": {"name": "Peruvayal", "name:ml": "\u0d2a\u0d46\u0d30\u0d41\u0d35\u0d2f\u0d7d", "place": "village"}}, {"type": "node", "id": 7466050350, "lat": 11.0845437, "lon": 75.9673805, "tags": {"name": "Edakkaparamba", "name:ml": "\u0d0e\u0d1f\u0d15\u0d4d\u0d15\u0d3e\u0d2a\u0d31\u0d2e\u0d4d\u0d2a", "place": "village"}}, {"type": "node", "id": 7505657103, "lat": 11.1053763, "lon": 75.902522, "tags": {"name": "Vaikathupadam", "name:ml": "\u0d35\u0d48\u0d15\u0d24\u0d4d\u0d24\u0d41\u0d2a\u0d3e\u0d1f\u0d02", "place": "village"}}, {"type": "node", "id": 7522400760, "lat": 11.1156473, "lon": 75.9505179, "tags": {"name": "valavil", "place": "village"}}, {"type": "node", "id": 7522709703, "lat": 11.092083, "lon": 75.9544795, "tags": {"name": "Thotasseriyara", "name:ml": "\u0d24\u0d4b\u0d1f\u0d4d\u0d1f\u0d36\u0d4d\u0d36\u0d47\u0d30\u0d3f\u0d2f\u0d31", "place": "village"}}, {"type": "node", "id": 7709621917, "lat": 11.0111877, "lon": 76.0040361, "tags": {"name": "Atteeri", "name:ml": "\u0d05\u0d31\u0d4d\u0d31\u0d40\u0d30\u0d3f", "place": "village"}}, {"type": "node", "id": 7727056923, "lat": 11.3951361, "lon": 75.7259488, "tags": {"name": "Chemanchery", "name:ml": "\u0d1a\u0d47\u0d2e\u0d1e\u0d4d\u0d1a\u0d30\u0d3f", "place": "village"}}, {"type": "node", "id": 7727155787, "lat": 11.3396359, "lon": 75.8102533, "tags": {"name": "Chelannur", "name:ml": "\u0d1a\u0d47\u0d33\u0d28\u0d4d\u0d28\u0d42\u0d7c", "place": "village"}}, {"type": "node", "id": 7727941401, "lat": 11.3345444, "lon": 75.8471846, "tags": {"name": "Kuruvattoor", "name:ml": "\u0d15\u0d41\u0d30\u0d41\u0d35\u0d1f\u0d4d\u0d1f\u0d42\u0d7c", "place": "village"}}, {"type": "node", "id": 7727965308, "lat": 11.239792, "lon": 75.8786979, "tags": {"name": "Perumanna", "name:ml": "\u0d2a\u0d46\u0d30\u0d41\u0d2e\u0d23\u0d4d\u0d23", "place": "village"}}, {"type": "node", "id": 7728008448, "lat": 11.1381083, "lon": 75.8334302, "tags": {"name": "Kadalundi", "name:ml": "\u0d15\u0d1f\u0d32\u0d41\u0d23\u0d4d\u0d1f\u0d3f", "place": "village"}}, {"type": "node", "id": 7728434827, "lat": 11.3702772, "lon": 75.8923638, "tags": {"name": "Kizhakkoth", "name:ml": "\u0d15\u0d3f\u0d34\u0d15\u0d4d\u0d15\u0d4b\u0d24\u0d4d\u0d24\u0d4d", "place": "village"}}, {"type": "node", "id": 8223624988, "lat": 11.2265459, "lon": 75.834555, "tags": {"name": "Olavanna", "name:ml": "\u0d12\u0d33\u0d35\u0d23\u0d4d\u0d23", "place": "village"}}, {"type": "node", "id": 8292424204, "lat": 11.0033518, "lon": 76.0447978, "tags": {"name": "PARINGIMOOCHIKKAL", "place": "village"}}, {"type": "node", "id": 8292428071, "lat": 11.0051732, "lon": 76.0406036, "tags": {"name": "KURUPPIN PADI", "place": "village"}}, {"type": "node", "id": 8292437789, "lat": 11.0067229, "lon": 76.0372628, "tags": {"name": "KUROORKUND", "place": "village"}}, {"type": "node", "id": 8292503529, "lat": 11.005751, "lon": 76.0288739, "tags": {"name": "Valiyaparambu", "name:ml": "\u0d35\u0d32\u0d3f\u0d2f\u0d2a\u0d31\u0d2e\u0d4d\u0d2a", "place": "village"}}, {"type": "node", "id": 8294244705, "lat": 11.003228, "lon": 76.0718003, "tags": {"name": "shandhi Gramam", "place": "village"}}, {"type": "node", "id": 8308070566, "lat": 11.3633824, "lon": 75.823254, "tags": {"name": "Ambalappadu", "name:ml": "\u0d05\u0d2e\u0d4d\u0d2a\u0d32\u0d2a\u0d4d\u0d2a\u0d3e\u0d1f\u0d4d", "place": "village"}}, {"type": "node", "id": 8308125918, "lat": 11.2186268, "lon": 76.0018194, "tags": {"name": "Vilayil Parappur", "place": "village"}}, {"type": "node", "id": 8308125919, "lat": 11.2098708, "lon": 76.0085249, "tags": {"name": "Vilayil", "name:ml": "\u0d35\u0d3f\u0d33\u0d2f\u0d3f\u0d7d", "place": "village"}}, {"type": "node", "id": 8326553391, "lat": 11.3551905, "lon": 75.8688363}, {"type": "node", "id": 8326553392, "lat": 11.3551312, "lon": 75.8688393}, {"type": "node", "id": 8326553393, "lat": 11.3551304, "lon": 75.8689374}, {"type": "node", "id": 8326553394, "lat": 11.3551919, "lon": 75.8689256}, {"type": "node", "id": 9015818886, "lat": 11.1273631, "lon": 76.0445577, "tags": {"name": "Valluvambram Junction", "name:ml": "\u0d35\u0d33\u0d4d\u0d33\u0d41\u0d35\u0d2e\u0d4d\u0d2a\u0d4d\u0d30\u0d02", "name:ta": "\u0bb5\u0bb3\u0bcd\u0bb3\u0bc1\u0bb5\u0bae\u0bcd\u0baa\u0bbf\u0bb0\u0bae\u0bcd", "place": "village", "wikidata": "Q24943044"}}, {"type": "node", "id": 9072780948, "lat": 11.0966692, "lon": 76.0644493, "tags": {"name": "Pookkottur", "name:ml": "\u0d2a\u0d42\u0d15\u0d4d\u0d15\u0d4b\u0d1f\u0d4d\u0d1f\u0d42\u0d7c", "place": "village"}}, {"type": "node", "id": 9072786539, "lat": 11.1236633, "lon": 76.0556688, "tags": {"name": "Pullanoor", "name:ml": "\u0d2a\u0d41\u0d32\u0d4d\u0d32\u0d3e\u0d28\u0d42\u0d7c", "place": "village"}}, {"type": "node", "id": 9072790501, "lat": 11.1176704, "lon": 76.0482123, "tags": {"name": "Athanikkal", "name:ml": "\u0d05\u0d24\u0d4d\u0d24\u0d3e\u0d23\u0d3f\u0d15\u0d4d\u0d15\u0d7d", "place": "village"}}, {"type": "node", "id": 9072795927, "lat": 11.1016277, "lon": 76.061553, "tags": {"name": "Pallippadi", "place": "village"}}, {"type": "node", "id": 9072800868, "lat": 11.1117051, "lon": 76.0524032, "tags": {"name": "Cheenikkal", "name:ml": "\u0d1a\u0d40\u0d28\u0d3f\u0d15\u0d4d\u0d15\u0d32\u0d4d\u200d", "place": "village"}}, {"type": "node", "id": 9072801210, "lat": 11.0980859, "lon": 76.0713515, "tags": {"name": "Pallimukh", "place": "village"}}, {"type": "node", "id": 9072802373, "lat": 11.0963987, "lon": 76.0726147, "tags": {"name": "Mundithodika", "place": "village"}}, {"type": "node", "id": 9072803191, "lat": 11.1268491, "lon": 76.0503769, "tags": {"name": "Half Valluvambram", "place": "village"}}, {"type": "node", "id": 9072987947, "lat": 11.1141194, "lon": 76.0505727, "tags": {"name": "Pappatingal", "name:ml": "\u0d2a\u0d3e\u0d2a\u0d4d\u0d2a\u0d3e\u0d24\u0d4d\u0d24\u0d3f\u0d19\u0d4d\u0d19\u0d7d", "place": "village"}}, {"type": "node", "id": 9072995429, "lat": 11.1117016, "lon": 76.0636314, "tags": {"name": "Muthiripparamb", "place": "village"}}, {"type": "node", "id": 9073011029, "lat": 11.1078427, "lon": 76.0547838, "tags": {"name": "New Bazar", "place": "village"}}, {"type": "node", "id": 9183512688, "lat": 11.0622831, "lon": 76.0986511, "tags": {"name": "Padinharekkund SC Colony", "place": "village"}}, {"type": "node", "id": 9183524903, "lat": 11.0656407, "lon": 76.1130723, "tags": {"name": "Pullikkal Colony", "place": "village"}}, {"type": "node", "id": 9184271761, "lat": 11.0662435, "lon": 76.1041977, "tags": {"name": "Karattparamb Colony", "place": "village"}}, {"type": "node", "id": 9184314727, "lat": 11.0669383, "lon": 76.1061913, "tags": {"name": "kavalappara SC Colony", "place": "village"}}, {"type": "node", "id": 9184317524, "lat": 11.0683186, "lon": 76.105985, "tags": {"name": "Pananmpatta Colony", "place": "village"}}, {"type": "node", "id": 10208970080, "lat": 11.1188616, "lon": 76.0649509, "tags": {"name": "Pullara", "name:ml": "\u0d2a\u0d41\u0d32\u0d4d\u0d32\u0d3e\u0d30", "place": "village"}}, {"type": "node", "id": 10208970081, "lat": 11.0979726, "lon": 76.1194718, "tags": {"name": "Muttippalam", "name:ml": "\u0d2e\u0d41\u0d1f\u0d4d\u0d1f\u0d3f\u0d2a\u0d4d\u0d2a\u0d3e\u0d32\u0d02", "place": "village"}}, {"type": "node", "id": 10589606600, "lat": 11.0911491, "lon": 75.8491665, "tags": {"name": "Vallikunnu", "name:ml": "\u0d35\u0d33\u0d4d\u0d33\u0d3f\u0d15\u0d4d\u0d15\u0d41\u0d28\u0d4d\u0d28\u0d4d", "place": "village"}}, {"type": "node", "id": 10698758684, "lat": 11.0984487, "lon": 75.8928971, "tags": {"name": "Velimukku Colony", "place": "village"}}, {"type": "node", "id": 10698785923, "lat": 11.0426717, "lon": 75.8749038, "tags": {"name": "Chuzhali Colony", "place": "village"}}, {"type": "node", "id": 10698798506, "lat": 11.1061888, "lon": 75.8816951, "tags": {"name": "Mundiyanmadu Colony", "place": "village"}}, {"type": "node", "id": 11481881228, "lat": 11.4436504, "lon": 75.8762413, "tags": {"name": "Ekarool", "name:ml": "\u0d0e\u0d15\u0d30\u0d42\u0d7d", "place": "village"}}, {"type": "node", "id": 11980360890, "lat": 11.0632902, "lon": 76.0162587, "tags": {"name": "Oorakam", "name:ml": "\u0d0a\u0d30\u0d15\u0d02", "place": "village"}}, {"type": "way", "id": 895760982, "nodes": [8326553391, 8326553392, 8326553393, 8326553394, 8326553391], "tags": {"name": "Madavoor Village Office", "place": "village"}}]}