{"version": 0.6, "generator": "Overpass API 0.7.62.1 084b4234", "osm3s": {"timestamp_osm_base": "2024-11-07T07:13:19Z", "copyright": "The data included in this document is from www.openstreetmap.org. The data is made available under ODbL."}, "elements": [{"type": "node", "id": 585132512, "lat": 12.025772, "lon": 75.734892, "tags": {"name": "Anapanthi", "name:ml": "\u0d06\u0d28\u0d2a\u0d4d\u0d2a\u0d28\u0d4d\u0d24\u0d3f", "place": "village"}}, {"type": "node", "id": 585132517, "lat": 12.0560178, "lon": 75.7392933, "tags": {"name": "Charal", "name:ml": "\u0d1a\u0d30\u0d32\u0d4d\u200d", "place": "village"}}, {"type": "node", "id": 587609841, "lat": 12.031252, "lon": 75.7443103, "tags": {"name": "Angadikadavu", "name:ml": "\u0d05\u0d19\u0d4d\u0d19\u0d3e\u0d1f\u0d3f\u0d15\u0d4d\u0d15\u0d1f\u0d35\u0d4d", "place": "village"}}, {"type": "node", "id": 589981517, "lat": 11.9059633, "lon": 75.7858689, "tags": {"name": "Kanichar", "name:ml": "\u0d15\u0d23\u0d3f\u0d1a\u0d4d\u0d1a\u0d3e\u0d7c", "place": "village", "wikidata": "Q14468037"}}, {"type": "node", "id": 589981537, "lat": 11.8958682, "lon": 75.8100648, "tags": {"name": "Kelakam", "name:ml": "\u0d15\u0d47\u0d33\u0d15\u0d02", "place": "village", "wikidata": "Q6385454"}}, {"type": "node", "id": 838536302, "lat": 11.9696155, "lon": 76.0491296, "tags": {"is_in": "India, Karnataka", "name": "Kutta", "name:kn": "\u0c95\u0cc1\u0c9f\u0ccd\u0c9f", "name:ml": "\u0d15\u0d41\u0d1f\u0d4d\u0d1f", "place": "village"}}, {"type": "node", "id": 838536712, "lat": 12.085945, "lon": 75.9406152, "tags": {"is_in": "India, Karnataka", "name": "Hudikeri", "name:kn": "\u0cb9\u0cc1\u0ca6\u0cbf\u0c95\u0cc7\u0cb0\u0cbf", "name:ml": "\u0d39\u0d41\u0d21\u0d3f\u0d15\u0d4d\u0d15\u0d47\u0d30\u0d3f", "place": "village"}}, {"type": "node", "id": 838536942, "lat": 12.0186047, "lon": 75.9892697, "tags": {"is_in": "India, Karnataka", "name": "Srimangala", "name:kn": "\u0cb6\u0ccd\u0cb0\u0cc0\u0cae\u0c82\u0c97\u0cb2", "name:ml": "\u0d36\u0d4d\u0d30\u0d40\u0d2e\u0d02\u0d17\u0d33", "place": "village"}}, {"type": "node", "id": 1670570469, "lat": 11.9453756, "lon": 76.0615339, "tags": {"name": "Tholpetty", "name:kn": "\u0ca4\u0ccb\u0cb2\u0ccd\u0caa\u0cc6\u0c9f\u0ccd\u0c9f\u0cbf", "name:ml": "\u0d24\u0d4b\u0d7d\u0d2a\u0d4d\u0d2a\u0d46\u0d1f\u0d4d\u0d1f\u0d3f", "place": "village"}}, {"type": "node", "id": 2404990602, "lat": 12.1535526, "lon": 75.7811356, "tags": {"name": "Heggala", "name:kn": "\u0cb9\u0cc6\u0c97\u0ccd\u0c97\u0cb3", "name:kn:iso15919": "Hegga\u1e37a", "place": "village"}}, {"type": "node", "id": 2404990714, "lat": 12.1827568, "lon": 75.7922533, "tags": {"name": "Arji", "name:kn": "\u0c86\u0cb0\u0ccd\u0c9c\u0cbf", "name:kn:iso15919": "\u0100rji", "place": "village"}}, {"type": "node", "id": 2412006952, "lat": 12.0178569, "lon": 75.8765438, "tags": {"name": "Birunani", "name:kn": "\u0cac\u0cbf\u0cb0\u0cc1\u0ca8\u0cbe\u0ca3\u0cbf", "name:ml": "\u0d2c\u0d3f\u0d30\u0d41\u0d28\u0d3e\u0d23\u0d3f", "place": "village"}}, {"type": "node", "id": 2412014686, "lat": 12.0536779, "lon": 75.8310074, "tags": {"name": "Parakatageri", "name:kn": "\u0caa\u0cb0\u0c95\u0c9f\u0c97\u0cc7\u0cb0\u0cbf", "name:kn:iso15919": "Paraka\u1e6dag\u0113ri", "name:ml": "\u0d2a\u0d31\u0d15\u0d1f\u0d17\u0d47\u0d30\u0d3f", "place": "village"}}, {"type": "node", "id": 2417960682, "lat": 12.2447547, "lon": 75.7421912, "tags": {"name": "Bellumadu", "name:kn": "\u0cac\u0cc6\u0cb3\u0ccd\u0cb3\u0cc1\u0cae\u0cbe\u0ca1\u0cc1", "name:kn:iso15919": "Be\u1e37\u1e37um\u0101\u1e0du", "place": "village"}}, {"type": "node", "id": 2417960808, "lat": 12.2255343, "lon": 75.7346787, "tags": {"name": "Arapattu", "name:kn": "\u0c85\u0cb0\u0caa\u0c9f\u0ccd\u0c9f\u0cc1", "name:ml": "\u0d05\u0d30\u0d2a\u0d4d\u0d2a\u0d1f\u0d4d\u0d1f\u0d4d", "place": "village"}}, {"type": "node", "id": 2417976947, "lat": 12.1890129, "lon": 75.7419566, "tags": {"name": "Chinniyapanda", "name:kn": "\u0c9a\u0cbf\u0ca8\u0ccd\u0ca8\u0cbf\u0caf\u0caa\u0c82\u0ca1", "place": "village"}}, {"type": "node", "id": 2417977074, "lat": 12.2167928, "lon": 75.7783311, "tags": {"name": "Kadanuru", "name:kn": "\u0c95\u0ca6\u0ca8\u0cc2\u0cb0\u0cc1", "name:kn:iso15919": "Kadan\u016bru", "place": "village"}}, {"type": "node", "id": 2640251370, "lat": 11.9051947, "lon": 76.0330133, "tags": {"name": "Appapara", "name:ml": "\u0d05\u0d2a\u0d4d\u0d2a\u0d2a\u0d3e\u0d31", "place": "village"}}, {"type": "node", "id": 2640251422, "lat": 11.9098981, "lon": 75.994875, "tags": {"alt_name": "Thirunelly", "name": "Thirunelli", "name:ml": "\u0d24\u0d3f\u0d30\u0d41\u0d28\u0d46\u0d32\u0d4d\u0d32\u0d3f", "place": "village"}}, {"type": "node", "id": 3248888352, "lat": 12.0421, "lon": 75.9731421, "tags": {"name": "Shettigeri", "name:kn": "\u0cb6\u0cc6\u0c9f\u0ccd\u0c9f\u0cbf\u0c97\u0cc7\u0cb0\u0cbf", "name:kn:iso15919": "\u015ae\u1e6d\u1e6dig\u0113ri", "name:ml": "\u0d37\u0d46\u0d1f\u0d4d\u0d1f\u0d3f\u0d17\u0d47\u0d30\u0d3f", "place": "village"}}, {"type": "node", "id": 3266731068, "lat": 12.1785331, "lon": 75.8423625, "tags": {"name": "Bittangala", "name:kn": "\u0cac\u0cbf\u0c9f\u0ccd\u0c9f\u0c82\u0c97\u0cbe\u0cb2", "name:kn:iso15919": "Bi\u1e6d\u1e6da\u1e45g\u0101la", "place": "village"}}, {"type": "node", "id": 3266731073, "lat": 12.1456355, "lon": 75.8563548, "tags": {"name": "1 Rudruguppe", "name:kn": "\u0ce7\u0ca8\u0cc7 \u0cb0\u0cc1\u0ca6\u0ccd\u0cb0\u0cc1\u0c97\u0cc1\u0caa\u0ccd\u0caa\u0cc6", "name:kn:iso15919": "1n\u0113 Rudruguppe", "place": "village"}}, {"type": "node", "id": 3325663921, "lat": 12.0426655, "lon": 75.9036642, "tags": {"name": "Badagarakeri", "name:kn": "\u0cac\u0cbe\u0ca1\u0c97\u0cb0\u0c95\u0cc7\u0cb0\u0cbf", "name:kn:iso15919": "B\u0101\u1e0dagarak\u0113ri", "name:ml": "\u0d2c\u0d3e\u0d21\u0d17\u0d30\u0d15\u0d47\u0d30\u0d3f", "place": "village"}}, {"type": "node", "id": 3325663922, "lat": 11.9955961, "lon": 75.9571822, "tags": {"name": "Biruga", "name:kn": "\u0cac\u0cc0\u0cb0\u0cc1\u0c97", "name:kn:iso15919": "B\u012bruga", "name:ml": "\u0d2c\u0d40\u0d30\u0d41\u0d17", "place": "village"}}, {"type": "node", "id": 3325663926, "lat": 12.071128, "lon": 75.934331, "tags": {"name": "Haisodluru", "name:kn": "\u0cb9\u0cc8\u0cb8\u0cca\u0ca1\u0ccd\u0cb2\u0cc2\u0cb0\u0cc1", "name:kn:iso15919": "Haiso\u1e0dl\u016bru", "name:ml": "\u0d39\u0d48\u0d38\u0d4b\u0d1f\u0d4d\u0d32\u0d42\u0d30\u0d41", "place": "village"}}, {"type": "node", "id": 3325663928, "lat": 12.1476806, "lon": 75.7980955, "tags": {"name": "Kandimakki", "name:kn": "\u0c95\u0c82\u0ca1\u0cbf\u0cae\u0c95\u0ccd\u0c95\u0cbf", "name:kn:iso15919": "Ka\u1e47\u1e0dimakki", "name:ml": "\u0d15\u0d23\u0d4d\u0d1f\u0d3f\u0d2e\u0d15\u0d4d\u0d15\u0d3f", "place": "village"}}, {"type": "node", "id": 3325663930, "lat": 12.1810115, "lon": 75.7607408, "tags": {"name": "Kottoli", "name:kn": "\u0c95\u0cca\u0c9f\u0ccd\u0c9f\u0ccb\u0cb3\u0cbf", "place": "village"}}, {"type": "node", "id": 3325663933, "lat": 11.9827487, "lon": 76.0259994, "tags": {"name": "Taila", "name:kn": "\u0ca4\u0cc8\u0cb2", "name:kn:iso15919": "Taila", "name:ml": "\u0d24\u0d48\u0d32", "place": "village"}}, {"type": "node", "id": 3492913742, "lat": 12.1647445, "lon": 75.7922231, "tags": {"name": "Betoli", "name:kn": "\u0cac\u0cc7\u0c9f\u0ccb\u0cb3\u0cbf", "name:kn:iso15919": "B\u0113\u1e6d\u014d\u1e37i", "name:ml": "\u0d2c\u0d47\u0d1f\u0d4d\u0d1f\u0d4b\u0d33\u0d3f", "place": "village"}}, {"type": "node", "id": 3492913748, "lat": 12.1608808, "lon": 75.8321739, "tags": {"name": "Nangala", "name:kn": "\u0ca8\u0cbe\u0c82\u0c97\u0cbe\u0cb2", "name:kn:iso15919": "N\u0101\u1e45g\u0101la", "place": "village"}}, {"type": "node", "id": 3492913749, "lat": 12.0376965, "lon": 75.9189103, "tags": {"name": "Poradu", "name:kn": "\u0caa\u0cca\u0cb0\u0cbe\u0ca1\u0cc1", "name:kn:iso15919": "Por\u0101\u1e0du", "place": "village"}}, {"type": "node", "id": 3492913752, "lat": 12.0063181, "lon": 75.9028387, "tags": {"name": "Teralu", "name:kn": "\u0ca4\u0cc6\u0cb0\u0cbe\u0cb2\u0cc1", "name:kn:iso15919": "Ter\u0101lu", "name:ml": "\u0d24\u0d47\u0d30\u0d3e\u0d32\u0d41", "place": "village"}}, {"type": "node", "id": 3493441915, "lat": 12.2172072, "lon": 75.7617963, "tags": {"name": "Kadangamaruru", "name:kn": "\u0c95\u0ca1\u0c82\u0c97\u0cae\u0cb0\u0cc2\u0cb0\u0cc1", "name:kn:iso15919": "Ka\u1e0da\u1e45gamar\u016bru", "name:ml": "\u0d15\u0d1f\u0d19\u0d4d\u0d19\u0d2e\u0d30\u0d42\u0d7c", "place": "village"}}, {"type": "node", "id": 3501338706, "lat": 12.1389832, "lon": 75.8893431, "tags": {"name": "Ichuru", "name:kn": "\u0c88\u0c9a\u0cc2\u0cb0\u0cc1", "name:kn:iso15919": "\u012ac\u016bru", "place": "village"}}, {"type": "node", "id": 3818379439, "lat": 11.9243566, "lon": 75.8374562, "tags": {"name": "Adakkathodu", "name:ml": "\u0d05\u0d1f\u0d15\u0d4d\u0d15\u0d3e\u0d24\u0d4d\u0d24\u0d4b\u0d1f\u0d4d", "place": "village"}}, {"type": "node", "id": 3818379441, "lat": 11.9211026, "lon": 75.8102258, "tags": {"name": "Chettiyamparamb", "name:ml": "\u0d1a\u0d46\u0d1f\u0d4d\u0d1f\u0d3f\u0d2f\u0d3e\u0d2e\u0d4d\u0d2a\u0d31\u0d2e\u0d4d\u0d2a\u0d4d", "place": "village"}}, {"type": "node", "id": 3818491859, "lat": 11.9151651, "lon": 75.8645509, "tags": {"name": "Santhigiri", "name:ml": "\u0d36\u0d3e\u0d28\u0d4d\u0d24\u0d3f\u0d17\u0d3f\u0d30\u0d3f", "place": "village"}}, {"type": "node", "id": 3840911487, "lat": 11.9106918, "lon": 75.7592783, "tags": {"name": "Manathana", "name:ml": "\u0d2e\u0d23\u0d24\u0d4d\u0d24\u0d23", "place": "village", "wikidata": "Q982568"}}, {"type": "node", "id": 3844409079, "lat": 11.9753135, "lon": 75.7524745, "tags": {"name": "Veerpad", "name:ml": "\u0d35\u0d40\u0d30\u0d4d\u200d\u0d2a\u0d4d\u0d2a\u0d3e\u0d1f\u0d4d", "place": "village"}}, {"type": "node", "id": 3929169856, "lat": 12.2329128, "lon": 75.7615759, "tags": {"name": "Arameri", "name:kn": "\u0c85\u0cb0\u0cae\u0cc7\u0cb0\u0cbf", "place": "village"}}, {"type": "node", "id": 3929171858, "lat": 12.1685531, "lon": 75.8185504, "tags": {"name": "Balugodu", "name:kn": "\u0cac\u0cbe\u0cb3\u0cc1\u0c97\u0ccb\u0ca1\u0cc1", "name:kn:iso15919": "B\u0101\u1e37ug\u014d\u1e0du", "name:ml": "\u0d2c\u0d3e\u0d32\u0d41\u0d17\u0d4b\u0d1f\u0d4d", "place": "village"}}, {"type": "node", "id": 3929171859, "lat": 12.1288939, "lon": 75.9200156, "tags": {"name": "Halligattu", "name:kn": "\u0cb9\u0cb3\u0ccd\u0cb3\u0cbf\u0c97\u0c9f\u0ccd\u0c9f\u0cc1", "name:kn:iso15919": "Ha\u1e37\u1e37iga\u1e6d\u1e6du", "place": "village"}}, {"type": "node", "id": 3929171864, "lat": 12.1828735, "lon": 75.8049016, "tags": {"name": "Kallubane", "name:kn": "\u0c95\u0cb2\u0ccd\u0cb2\u0cc1\u0cac\u0cbe\u0ca3\u0cc6", "name:kn:iso15919": "Kallub\u0101\u1e47e", "place": "village"}}, {"type": "node", "id": 3929171865, "lat": 12.1949295, "lon": 75.7497703, "tags": {"name": "Kedamalluru", "name:kn": "\u0c95\u0cc6\u0ca6\u0cae\u0cb3\u0ccd\u0cb3\u0cc2\u0cb0\u0cc1", "name:kn:iso15919": "Kedama\u1e37\u1e37\u016bru", "name:ml": "\u0d15\u0d46\u0d1f\u0d2e\u0d32\u0d4d\u0d32\u0d42\u0d7c", "place": "village"}}, {"type": "node", "id": 3929171867, "lat": 12.1128675, "lon": 75.9499626, "tags": {"name": "Nadikeri", "name:kn": "\u0ca8\u0ca6\u0cbf\u0c95\u0cc7\u0cb0\u0cbf", "place": "village"}}, {"type": "node", "id": 4092240615, "lat": 12.2127372, "lon": 75.819301, "tags": {"name": "Aimangala", "name:kn": "\u0c90\u0cae\u0c82\u0c97\u0cb2", "name:kn:iso15919": "Aima\u1e45gala", "place": "village"}}, {"type": "node", "id": 4092240617, "lat": 12.2085703, "lon": 75.7963502, "tags": {"name": "Kukluru", "name:kn": "\u0c95\u0cc1\u0c95\u0ccd\u0cb2\u0cc2\u0cb0\u0cc1", "name:kn:iso15919": "Kukl\u016bru", "name:ml": "\u0d15\u0d41\u0d15\u0d4d\u0d32\u0d42\u0d7c", "place": "village"}}, {"type": "node", "id": 4702087628, "lat": 12.1466219, "lon": 75.7572208, "tags": {"name:en": "Barikadu Keregalapalya", "name:kn": "\u0cac\u0cbe\u0cb0\u0cbf\u0c95\u0cbe\u0ca1\u0cc1", "place": "village"}}, {"type": "node", "id": 4798552976, "lat": 11.9586026, "lon": 76.0075399, "tags": {"name": "Manchalli", "name:kn": "\u0cae\u0c82\u0c9a\u0cb3\u0ccd\u0cb3\u0cbf", "name:ml": "\u0d2e\u0d1e\u0d4d\u0d1a\u0d33\u0d4d\u0d33\u0d3f", "place": "village"}}, {"type": "node", "id": 4798552978, "lat": 12.2007462, "lon": 75.8179131, "tags": {"name": "Maggula", "name:kn": "\u0cae\u0c97\u0ccd\u0c97\u0cc1\u0cb2", "place": "village"}}, {"type": "node", "id": 4838817482, "lat": 12.256227, "lon": 75.7590747, "tags": {"name": "Kakotu Parambu", "name:kn": "\u0c95\u0cbe\u0c95\u0ccb\u0c9f\u0cc1 \u0caa\u0cb0\u0c82\u0cac\u0cc1", "place": "village"}}, {"type": "node", "id": 5131258644, "lat": 11.9733754, "lon": 76.0279012, "tags": {"name:kn": "\u0caa\u0cc2\u0c9c\u0cc6\u0c95\u0cb2\u0ccd", "place": "village"}}, {"type": "node", "id": 5145730836, "lat": 12.228964, "lon": 75.7973814, "tags": {"name": "Podakote", "name:iso15919": "Podak\u014d\u1e6de", "name:kn": "\u0caa\u0cca\u0ca6\u0c95\u0ccb\u0c9f\u0cc6", "place": "village"}}, {"type": "node", "id": 6471978667, "lat": 11.9972396, "lon": 75.7263293, "tags": {"name": "Edoor", "name:hi": "\u090f\u091f\u0942\u0930", "name:kn": "\u0c8e\u0ca1\u0ccb\u0cb0\u0cc1", "name:ml": "\u0d0e\u0d1f\u0d42\u0d30\u0d4d\u200d", "place": "village", "wikidata": "Q5340196"}}, {"type": "node", "id": 6603656101, "lat": 12.174791, "lon": 75.7670188, "tags": {"name": "Gundikere", "name:kn": "\u0c97\u0cc1\u0c82\u0ca1\u0cbf\u0c95\u0cc6\u0cb0\u0cc6", "name:ml": "\u0d17\u0d41\u0d23\u0d4d\u0d1f\u0d3f\u0d15\u0d46\u0d30\u0d46", "place": "village"}}, {"type": "node", "id": 7717618441, "lat": 11.9610325, "lon": 75.7264423, "tags": {"name": "Aralam", "name:ml": "\u0d06\u0d31\u0d33\u0d02", "place": "village"}}, {"type": "node", "id": 8829017437, "lat": 12.0465154, "lon": 75.7548527, "tags": {"name": "Vaniyappara", "place": "village"}}, {"type": "node", "id": 8890615629, "lat": 11.897751, "lon": 75.7426709, "tags": {"name": "Thondiyil", "name:ml": "\u0d24\u0d4a\u0d23\u0d4d\u0d1f\u0d3f\u0d2f\u0d3f\u0d7d", "place": "village"}}]}