{"version": 0.6, "generator": "Overpass API 0.7.62.1 084b4234", "osm3s": {"timestamp_osm_base": "2024-11-07T07:12:16Z", "copyright": "The data included in this document is from www.openstreetmap.org. The data is made available under ODbL."}, "elements": [{"type": "node", "id": 587609938, "lat": 12.7193588, "lon": 74.8861095, "tags": {"name": "Manjeshwar", "name:en": "Manjeshwar", "name:kn": "\u0cae\u0c82\u0c9c\u0cc7\u0cb6\u0ccd\u0cb5\u0cb0", "name:ml": "\u0d2e\u0d1e\u0d4d\u0d1a\u0d47\u0d36\u0d4d\u0d35\u0d30\u0d02", "name:ta": "\u0bae\u0b9e\u0bcd\u0b9a\u0bc7\u0bb8\u0bcd\u0bb5\u0bb0\u0bae\u0bcd", "name:te": "\u0c2e\u0c02\u0c1c\u0c47\u0c36\u0c4d\u0c35\u0c30\u0c02", "place": "town", "wikidata": "Q720793", "wikimedia_commons": "Category:Manjeshwar", "wikipedia": "en:Manjeshwar"}}, {"type": "node", "id": 587610036, "lat": 12.6852137, "lon": 74.9056163, "tags": {"name": "Uppala", "name:kn": "\u0c89\u0caa\u0ccd\u0caa\u0cb3", "name:ml": "\u0d09\u0d2a\u0d4d\u0d2a\u0d33", "name:te": "\u0c09\u0c2a\u0c4d\u0c2a\u0c33", "place": "town", "wikidata": "Q316209", "wikimedia_commons": "Category:Uppala", "wikipedia": "en:Uppala"}}, {"type": "node", "id": 587633194, "lat": 12.5932946, "lon": 74.9434686, "tags": {"name": "Kumbala", "name:kn": "\u0c95\u0cc1\u0c82\u0cac\u0cb3\u0cc6", "name:ml": "\u0d15\u0d41\u0d2e\u0d4d\u0d2a\u0d33", "name:ta": "\u0b95\u0bc1\u0bae\u0bcd\u0baa\u0bb3", "name:te": "\u0c15\u0c41\u0c02\u0c2c\u0c33", "place": "town", "wikidata": "Q13111275", "wikimedia_commons": "Category:Kumbla", "wikipedia": "en:Kumbla"}}, {"type": "node", "id": 4612606682, "lat": 12.5887582, "lon": 75.0729575, "tags": {"alt_name": "Badiyadka", "name": "Badiadka", "name:kn": "\u0cac\u0ca6\u0cbf\u0caf\u0ca1\u0ccd\u0c95", "name:ml": "\u0d2c\u0d26\u0d3f\u0d2f\u0d1f\u0d41\u0d15\u0d4d\u0d15", "place": "town", "wikidata": "Q4840969", "wikimedia_commons": "Category:Badiyadka", "wikipedia": "en:Badiyadka"}}, {"type": "node", "id": 7366188517, "lat": 12.5104927, "lon": 75.0459125, "tags": {"name": "Chengala", "name:kn": "\u0c9a\u0cc6\u0c82\u0c97\u0cb3", "name:ml": "\u0d1a\u0d46\u0d19\u0d4d\u0d15\u0d33", "place": "town", "wikidata": "Q5091276", "wikimedia_commons": "Category:Chengala", "wikipedia": "en:Chengala"}}, {"type": "node", "id": 8779650703, "lat": 12.5035577, "lon": 74.9907022, "tags": {"alt_name": "Kanhirakode", "capital": "5", "name": "Kasaragod", "name:ar": "\u0643\u0627\u0633\u0627\u0631\u0627\u062c\u0648\u062f", "name:en": "Kasaragod", "name:he": "\u05e7\u05e1\u05e8\u05d2\u05d5\u05d3", "name:hi": "\u0915\u093e\u0938\u0930\u0917\u094b\u0921", "name:kn": "\u0c95\u0cbe\u0cb8\u0cb0\u0c97\u0ccb\u0ca1\u0cc1", "name:ml": "\u0d15\u0d3e\u0d38\u0d7c\u0d17\u0d4b\u0d21\u0d4d", "name:ru": "\u041a\u0430\u0441\u0430\u0440\u0430\u0433\u043e\u0434", "name:ta": "\u0b95\u0bbe\u0b9a\u0bb0\u0bcd\u0b95\u0bcb\u0b9f\u0bc1", "name:te": "\u0c15\u0c3e\u0c38\u0c30\u0c17\u0c4b\u0c21\u0c4d", "name:zh": "\u5361\u8428\u62c9\u6208\u5fb7", "place": "town", "population": "54172", "source": "\u0643\u0627\u0633\u0627\u0631\u0627\u062c\u0648\u062f", "wikidata": "Q317217", "wikipedia": "en:Kasaragod"}}, {"type": "node", "id": 9026468688, "lat": 12.5077849, "lon": 75.0965772, "tags": {"name": "Bovikkanam", "name:kn": "\u0cac\u0ccb\u0cb5\u0cbf\u0c95\u0cbe\u0ca8\u0c82", "name:ml": "\u0d2c\u0d4b\u0d35\u0d3f\u0d15\u0d4d\u0d15\u0d3e\u0d28\u0d02", "place": "town"}}, {"type": "node", "id": 9517189060, "lat": 12.401643, "lon": 75.0972916, "tags": {"name": "Periya", "name:kn": "\u0caa\u0cc6\u0cb0\u0cbf\u0caf", "name:ml": "\u0d2a\u0d46\u0d30\u0d3f\u0d2f", "place": "town", "wikidata": "Q27892519", "wikipedia": "en:Periya"}}, {"type": "node", "id": 9659067561, "lat": 12.5491976, "lon": 75.1651189, "tags": {"name": "Mulleria", "name:kn": "\u0cae\u0cc1\u0cb3\u0ccd\u0cb3\u0cc7\u0cb0\u0cbf\u0caf", "name:ml": "\u0d2e\u0d41\u0d33\u0d4d\u0d33\u0d47\u0d30\u0d3f\u0d2f", "place": "town", "wikidata": "Q20164600", "wikipedia": "en:Mulleria, Kasaragod"}}, {"type": "node", "id": 10857683610, "lat": 12.5087105, "lon": 75.0555196, "tags": {"name": "Cherkala", "name:kn": "\u0c9a\u0cc6\u0cb0\u0ccd\u0c95\u0cb3", "name:ml": "\u0d1a\u0d46\u0d7c\u0d15\u0d4d\u0d15\u0d33", "place": "town", "wikidata": "Q5091996", "wikipedia": "en:Cherkala"}}]}