{"version": 0.6, "generator": "Overpass API 0.7.62.1 084b4234", "osm3s": {"timestamp_osm_base": "2024-11-07T07:13:19Z", "copyright": "The data included in this document is from www.openstreetmap.org. The data is made available under ODbL."}, "elements": [{"type": "node", "id": 585132463, "lat": 11.8895175, "lon": 75.4583709, "tags": {"alt_name": "Mouvanchery", "alt_name:ml": "\u0d2e\u0d57\u0d1e\u0d4d\u0d1a\u0d47\u0d30\u0d3f", "name": "Movancherry;Mowanchery", "name:ml": "\u0d2e\u0d57\u0d35\u0d4d\u0d35\u0d1e\u0d4d\u0d1a\u0d47\u0d30\u0d3f", "place": "village"}}, {"type": "node", "id": 633095138, "lat": 11.871388, "lon": 75.45469, "tags": {"name": "Chembilode", "name:ml": "\u0d1a\u0d46\u0d2e\u0d4d\u0d2a\u0d3f\u0d32\u0d4b\u0d1f\u0d4d", "place": "village"}}, {"type": "node", "id": 633095142, "lat": 11.871374, "lon": 75.452811, "tags": {"name": "Thalavil", "place": "village"}}, {"type": "node", "id": 633095174, "lat": 11.864945, "lon": 75.429537, "tags": {"name": "Attadappa", "place": "village"}}, {"type": "node", "id": 633095178, "lat": 11.863487, "lon": 75.443838, "tags": {"name": "Koyyode", "place": "village"}}, {"type": "node", "id": 633095266, "lat": 11.8715166, "lon": 75.3958762, "tags": {"name": "Melechovva", "name:ml": "\u0d2e\u0d47\u0d32\u0d46\u0d1a\u0d4a\u0d35\u0d4d\u0d35", "place": "village", "wikidata": "Q6812136"}}, {"type": "node", "id": 3721777469, "lat": 11.738763, "lon": 75.5818748, "tags": {"name": "Aniyaram", "name:ml": "\u0d05\u0d23\u0d3f\u0d2f\u0d3e\u0d30\u0d02", "place": "village"}}, {"type": "node", "id": 3764911620, "lat": 11.8145401, "lon": 75.557678, "tags": {"name": "Pookode", "name:ml": "\u0d2a\u0d42\u0d15\u0d4d\u0d15\u0d4b\u0d1f\u0d4d", "place": "village"}}, {"type": "node", "id": 3793880480, "lat": 11.8277648, "lon": 75.5049165, "tags": {"name": "Mambaram", "name:ml": "\u0d2e\u0d2e\u0d4d\u0d2a\u0d31\u0d02", "place": "village", "wikidata": "Q4310785"}}, {"type": "node", "id": 3800630242, "lat": 11.8086474, "lon": 75.5510612, "tags": {"name": "Kottayam Poyil", "name:ml": "\u0d15\u0d4b\u0d1f\u0d4d\u0d1f\u0d2f\u0d02 \u0d2a\u0d4a\u0d2f\u0d3f\u0d7d", "place": "village"}}, {"type": "node", "id": 3800630243, "lat": 11.8315947, "lon": 75.5447194, "tags": {"name": "Kinavakkal", "name:ml": "\u0d15\u0d3f\u0d23\u0d35\u0d15\u0d4d\u0d15\u0d32\u0d4d\u200d", "place": "village"}}, {"type": "node", "id": 3802231901, "lat": 11.7172765, "lon": 75.5772631, "tags": {"name": "Mekkunnu", "name:ml": "\u0d2e\u0d47\u0d15\u0d4d\u0d15\u0d41\u0d28\u0d4d\u0d28\u0d4d", "place": "village"}}, {"type": "node", "id": 3816492336, "lat": 11.847284, "lon": 75.4334405, "tags": {"name": "Chala", "name:ml": "\u0d1a\u0d3e\u0d32", "place": "village", "wikidata": "Q858542"}}, {"type": "node", "id": 3816912897, "lat": 11.8531144, "lon": 75.6965903, "tags": {"name": "Kolayad", "name:ml": "\u0d15\u0d4b\u0d33\u0d2f\u0d3e\u0d1f\u0d4d", "place": "village"}}, {"type": "node", "id": 3819506184, "lat": 11.8102535, "lon": 75.4947553, "tags": {"name": "Pinarayi", "name:ml": "\u0d2a\u0d3f\u0d23\u0d31\u0d3e\u0d2f\u0d3f", "place": "village", "wikidata": "Q2624365"}}, {"type": "node", "id": 3832289270, "lat": 11.7029406, "lon": 75.6482958, "tags": {"name": "Perod", "name:ml": "\u0d2a\u0d47\u0d30\u0d4b\u0d1f\u0d4d", "place": "village"}}, {"type": "node", "id": 3832362621, "lat": 11.5592623, "lon": 75.6109609, "tags": {"name": "Iringal", "name:ml": "\u0d07\u0d30\u0d3f\u0d19\u0d4d\u0d19\u0d7d", "place": "village"}}, {"type": "node", "id": 3876873512, "lat": 11.7464446, "lon": 75.530224, "tags": {"name": "Kodiyeri", "name:ml": "\u0d15\u0d4b\u0d1f\u0d3f\u0d2f\u0d47\u0d30\u0d3f", "place": "village"}}, {"type": "node", "id": 4041378637, "lat": 11.8149222, "lon": 75.6254788, "tags": {"name": "Cheruvanchery", "name:ml": "\u0d1a\u0d46\u0d31\u0d41\u0d35\u0d3e\u0d1e\u0d4d\u0d1a\u0d47\u0d30\u0d3f", "place": "village"}}, {"type": "node", "id": 4041378638, "lat": 11.8006188, "lon": 75.5627795, "tags": {"name": "Kottiyodi", "place": "village"}}, {"type": "node", "id": 4047565651, "lat": 11.7498046, "lon": 75.6290929, "tags": {"name": "Kallikkandy", "name:ml": "\u0d15\u0d32\u0d4d\u0d32\u0d3f\u0d15\u0d4d\u0d15\u0d23\u0d4d\u0d1f\u0d3f", "place": "village"}}, {"type": "node", "id": 4047565652, "lat": 11.7644421, "lon": 75.6190914, "tags": {"name": "Kunnothuparamba", "name:ml": "\u0d15\u0d41\u0d28\u0d4d\u0d28\u0d4b\u0d24\u0d4d\u0d24\u0d41\u0d2a\u0d31\u0d2e\u0d4d\u0d2a\u0d4d", "place": "village"}}, {"type": "node", "id": 4047685739, "lat": 11.8839585, "lon": 75.5331374, "tags": {"name": "Vengad", "name:ml": "\u0d35\u0d47\u0d19\u0d4d\u0d19\u0d3e\u0d1f\u0d4d", "place": "village", "wikidata": "Q7919885"}}, {"type": "node", "id": 4047740797, "lat": 11.7870086, "lon": 75.5318561, "tags": {"name": "Kadirur", "name:ml": "\u0d15\u0d24\u0d3f\u0d30\u0d42\u0d7c", "place": "village", "wikidata": "Q2456866"}}, {"type": "node", "id": 4629397687, "lat": 11.797215, "lon": 75.4455031, "tags": {"name": "Muzhappilangad", "name:ml": "\u0d2e\u0d41\u0d34\u0d2a\u0d4d\u0d2a\u0d3f\u0d32\u0d19\u0d4d\u0d19\u0d3e\u0d1f\u0d4d", "place": "village", "wikidata": "Q2568413", "wikipedia": "en:Muzhappilangad"}}, {"type": "node", "id": 4790523697, "lat": 11.5790089, "lon": 75.6824058, "tags": {"name": "Thodannur", "name:ml": "\u0d24\u0d4b\u0d1f\u0d28\u0d4d\u0d28\u0d42\u0d7c", "place": "village", "wikidata": "Q28172980", "wikipedia": "en:Thodannur"}}, {"type": "node", "id": 4832544806, "lat": 11.5833569, "lon": 75.6221634, "tags": {"name": "Mandarathur", "place": "village"}}, {"type": "node", "id": 4832581584, "lat": 11.6976773, "lon": 75.6670154, "tags": {"name": "Vilangad", "place": "village"}}, {"type": "node", "id": 5445186034, "lat": 11.6252062, "lon": 75.6288269, "tags": {"name": "Villiappally", "name:ml": "\u0d35\u0d3f\u0d32\u0d4d\u0d2f\u0d3e\u0d2a\u0d4d\u0d2a\u0d33\u0d4d\u0d33\u0d3f", "place": "village"}}, {"type": "node", "id": 5694497813, "lat": 11.4529756, "lon": 75.7030374, "tags": {"name": "Vakamoli", "name:ml": "\u0d35\u0d3e\u0d15\u0d2e\u0d4b\u0d33\u0d3f", "place": "village"}}, {"type": "node", "id": 6175288137, "lat": 11.5923306, "lon": 75.6741875, "tags": {"name": "Thiruvallur", "name:ml": "\u0d24\u0d3f\u0d30\u0d41\u0d35\u0d33\u0d4d\u0d33\u0d42\u0d7c", "place": "village", "postal_code": "673541"}}, {"type": "node", "id": 7725129863, "lat": 11.7084116, "lon": 75.6338203, "tags": {"name": "Tuneri", "name:ml": "\u0d24\u0d42\u0d23\u0d47\u0d30\u0d3f", "place": "village"}}, {"type": "node", "id": 7725149080, "lat": 11.7194147, "lon": 75.6426501, "tags": {"name": "Chekkiad", "name:ml": "\u0d1a\u0d46\u0d15\u0d4d\u0d2f\u0d3e\u0d1f\u0d4d", "place": "village"}}, {"type": "node", "id": 7725157241, "lat": 11.6882677, "lon": 75.5428264, "tags": {"name": "Azhiyur", "name:ml": "\u0d05\u0d34\u0d3f\u0d2f\u0d42\u0d7c", "place": "village"}}, {"type": "node", "id": 7725157242, "lat": 11.6790509, "lon": 75.5911302, "tags": {"name": "Eramala", "name:ml": "\u0d0f\u0d31\u0d3e\u0d2e\u0d32", "place": "village"}}, {"type": "node", "id": 7725164751, "lat": 11.72202, "lon": 75.6692576, "tags": {"name": "Valayam", "name:ml": "\u0d35\u0d33\u0d2f\u0d02", "place": "village"}}, {"type": "node", "id": 7725215236, "lat": 11.7124392, "lon": 75.6910586, "tags": {"name": "Vanimal", "name:ml": "\u0d35\u0d3e\u0d23\u0d3f\u0d2e\u0d7d", "place": "village"}}, {"type": "node", "id": 7725216627, "lat": 11.6997168, "lon": 75.6942451, "tags": {"name": "Narippatta", "name:ml": "\u0d28\u0d30\u0d3f\u0d2a\u0d4d\u0d2a\u0d31\u0d4d\u0d31", "place": "village"}}, {"type": "node", "id": 7725394078, "lat": 11.6819507, "lon": 75.6951141, "tags": {"name": "Kunnummal", "name:ml": "\u0d15\u0d41\u0d28\u0d4d\u0d28\u0d41\u0d2e\u0d4d\u0d2e\u0d7d", "place": "village"}}, {"type": "node", "id": 7726072855, "lat": 11.6257452, "lon": 75.6747562, "tags": {"name": "Ayancheri", "name:ml": "\u0d06\u0d2f\u0d1e\u0d4d\u0d1a\u0d30\u0d3f", "place": "village"}}, {"type": "node", "id": 7726100367, "lat": 11.6738079, "lon": 75.6357622, "tags": {"name": "Purameri", "name:ml": "\u0d2a\u0d41\u0d31\u0d2e\u0d47\u0d30\u0d3f", "place": "village"}}, {"type": "node", "id": 7726139698, "lat": 11.5533075, "lon": 75.6414914, "tags": {"name": "Maniyur", "name:ml": "\u0d2e\u0d23\u0d3f\u0d2f\u0d42\u0d7c", "place": "village"}}, {"type": "node", "id": 7726521492, "lat": 11.5162043, "lon": 75.6197655, "tags": {"name": "Payyoli", "name:ml": "\u0d2a\u0d2f\u0d4d\u0d2f\u0d4b\u0d33\u0d3f", "place": "village"}}, {"type": "node", "id": 7726525342, "lat": 11.5264515, "lon": 75.6560504, "tags": {"name": "Thurayur", "name:ml": "\u0d24\u0d41\u0d31\u0d2f\u0d42\u0d7c", "place": "village"}}, {"type": "node", "id": 7726526637, "lat": 11.4896397, "lon": 75.6281018, "tags": {"name": "Thikkodi", "name:ml": "\u0d24\u0d3f\u0d15\u0d4d\u0d15\u0d4b\u0d1f\u0d3f", "place": "village"}}, {"type": "node", "id": 7726641497, "lat": 11.4993701, "lon": 75.6928396, "tags": {"name": "Keezhariyur", "name:ml": "\u0d15\u0d40\u0d34\u0d30\u0d3f\u0d2f\u0d42\u0d7c", "place": "village"}}, {"type": "node", "id": 7726645234, "lat": 11.5665905, "lon": 75.692625, "tags": {"name": "Cheruvannur", "name:ml": "\u0d1a\u0d46\u0d31\u0d41\u0d35\u0d23\u0d4d\u0d23\u0d42\u0d7c", "place": "village"}}, {"type": "node", "id": 7726645988, "lat": 11.5298943, "lon": 75.7096893, "tags": {"name": "Meppayur", "name:ml": "\u0d2e\u0d47\u0d2a\u0d4d\u0d2a\u0d2f\u0d42\u0d7c", "place": "village"}}, {"type": "node", "id": 7726646462, "lat": 11.4883518, "lon": 75.7153058, "tags": {"name": "Arikkulam", "name:ml": "\u0d05\u0d30\u0d3f\u0d15\u0d4d\u0d15\u0d41\u0d33\u0d02", "place": "village"}}, {"type": "node", "id": 7894702664, "lat": 11.578084, "lon": 75.6013441, "tags": {"name": "Palolipalam", "name:ml": "\u0d2a\u0d3e\u0d32\u0d4b\u0d33\u0d3f\u0d2a\u0d4d\u0d2a\u0d3e\u0d32\u0d02", "place": "village"}}, {"type": "node", "id": 7970065468, "lat": 11.8825748, "lon": 75.5207169, "tags": {"name": "Kallayi", "name:ml": "\u0d15\u0d32\u0d4d\u0d32\u0d3e\u0d2f\u0d3f", "place": "village", "postal_code": "670612"}}, {"type": "node", "id": 7970067722, "lat": 11.8810892, "lon": 75.5078102, "tags": {"name": "Anjarakandy", "name:ml": "\u0d05\u0d1e\u0d4d\u0d1a\u0d30\u0d15\u0d4d\u0d15\u0d23\u0d4d\u0d1f\u0d3f", "place": "village", "wikidata": "Q589756"}}, {"type": "node", "id": 7973005887, "lat": 11.8922126, "lon": 75.557844, "tags": {"name": "Kayani", "name:ml": "\u0d15\u0d2f\u0d28\u0d3f", "place": "village", "postal_code": "670702"}}, {"type": "node", "id": 8341503720, "lat": 11.8510184, "lon": 75.5913502, "tags": {"name": "Kaitheri", "name:ml": "\u0d15\u0d48\u0d24\u0d47\u0d30\u0d3f", "place": "village"}}, {"type": "node", "id": 8668067535, "lat": 11.6587091, "lon": 75.5761743, "tags": {"name": "Onchiyam", "name:ml": "\u0d12\u0d1e\u0d4d\u0d1a\u0d3f\u0d2f\u0d02", "place": "village"}}, {"type": "node", "id": 8668067536, "lat": 11.6317134, "lon": 75.6003758, "tags": {"name": "Chorode", "name:ml": "\u0d1a\u0d4b\u0d31\u0d4b\u0d1f\u0d4d", "place": "village"}}, {"type": "node", "id": 9561129006, "lat": 11.8127663, "lon": 75.4414353, "tags": {"name": "Edakkad", "name:ml": "\u0d0e\u0d1f\u0d15\u0d4d\u0d15\u0d3e\u0d1f\u0d4d", "place": "village", "wikidata": "Q5335658"}}, {"type": "node", "id": 10208970078, "lat": 11.7767078, "lon": 75.4685456, "tags": {"name": "Dharmadom", "name:ml": "\u0d27\u0d7c\u0d2e\u0d4d\u0d2e\u0d1f\u0d02", "place": "village", "wikidata": "Q1265354", "wikipedia": "en:Dharmadom"}}]}