{"version": 0.6, "generator": "Overpass API 0.7.62.1 084b4234", "osm3s": {"timestamp_osm_base": "2024-11-07T07:13:19Z", "copyright": "The data included in this document is from www.openstreetmap.org. The data is made available under ODbL."}, "elements": [{"type": "node", "id": 585132521, "lat": 12.4555179, "lon": 75.3653016, "tags": {"name": "Chemberi", "name:kn": "\u0c9c\u0cc6\u0c82\u0cac\u0cc7\u0cb0\u0cbf", "name:ml": "\u0d1a\u0d46\u0d2e\u0d4d\u0d2a\u0d47\u0d30\u0d3f", "place": "village"}}, {"type": "node", "id": 585952651, "lat": 12.3673364, "lon": 75.3735851, "tags": {"name": "Konnakad", "place": "village"}}, {"type": "node", "id": 588369631, "lat": 12.4353577, "lon": 75.3444797, "tags": {"name": "Panthikal", "place": "village"}}, {"type": "node", "id": 589982717, "lat": 12.36393, "lon": 75.321717, "tags": {"name": "Pungamchal", "place": "village"}}, {"type": "node", "id": 589982795, "lat": 12.371047, "lon": 75.351319, "tags": {"name": "Vallikkadavu", "name:ml": "\u0d35\u0d33\u0d4d\u0d33\u0d3f\u0d15\u0d4d\u0d15\u0d1f\u0d35\u0d4d", "place": "village"}}, {"type": "node", "id": 589982814, "lat": 12.368386, "lon": 75.325289, "tags": {"name": "Adukkalakandam", "name:ml": "\u0d05\u0d1f\u0d41\u0d15\u0d4d\u0d15\u0d33\u0d15\u0d4d\u0d15\u0d23\u0d4d\u0d1f\u0d02", "place": "village"}}, {"type": "node", "id": 589982832, "lat": 12.374291, "lon": 75.333115, "tags": {"name": "Nattakal", "place": "village"}}, {"type": "node", "id": 589982866, "lat": 12.354006, "lon": 75.357052, "tags": {"name": "Paramba parra", "place": "village"}}, {"type": "node", "id": 589982905, "lat": 12.405859, "lon": 75.311621, "tags": {"name": "Maruthome", "name:ml": "\u0d2e\u0d30\u0d41\u0d24\u0d4b\u0d02", "place": "village"}}, {"type": "node", "id": 589982922, "lat": 12.432106, "lon": 75.29624, "tags": {"name": "Prantherkave", "name:ml": "\u0d2a\u0d4d\u0d30\u0d3e\u0d28\u0d4d\u0d24\u0d7c\u0d15\u0d3e\u0d35\u0d4d", "place": "village"}}, {"type": "node", "id": 589982941, "lat": 12.401768, "lon": 75.296749, "tags": {"name": "Pulipara", "name:ml": "\u0d2a\u0d41\u0d32\u0d3f\u0d2a\u0d4d\u0d2a\u0d3e\u0d31", "place": "village"}}, {"type": "node", "id": 589982954, "lat": 12.416438, "lon": 75.293163, "tags": {"name": "Perinkaya", "name:ml": "\u0d2a\u0d46\u0d30\u0d3f\u0d19\u0d4d\u0d15\u0d3e\u0d2f", "place": "village"}}, {"type": "node", "id": 589993714, "lat": 12.463708, "lon": 75.307922, "tags": {"name": "Pullikadavu", "place": "village"}}, {"type": "node", "id": 650128663, "lat": 12.4245729, "lon": 75.3608096, "tags": {"name": "Ranipuram", "name:ml": "\u0d31\u0d3e\u0d23\u0d3f\u0d2a\u0d41\u0d30\u0d02", "old_name": "Madathumala", "place": "village", "wikidata": "Q7293073", "wikimedia_commons": "Category:Ranipuram", "wikipedia": "en:Ranipuram"}}, {"type": "node", "id": 650128665, "lat": 12.45966, "lon": 75.349587, "tags": {"name": "Bappungayam", "name:ml": "\u0d2c\u0d3e\u0d2a\u0d4d\u0d2a\u0d41\u0d19\u0d4d\u0d15\u0d2f\u0d02", "place": "village"}}, {"type": "node", "id": 650128668, "lat": 12.434173, "lon": 75.338713, "tags": {"name": "Perumthady", "place": "village"}}, {"type": "node", "id": 650128671, "lat": 12.418164, "lon": 75.295464, "tags": {"name": "Adottukayam", "place": "village"}}, {"type": "node", "id": 650128672, "lat": 12.373282, "lon": 75.372041, "tags": {"name": "Nellimala", "name:ml": "\u0d28\u0d46\u0d32\u0d4d\u0d32\u0d3f\u0d2e\u0d32", "place": "village"}}, {"type": "node", "id": 650128674, "lat": 12.437133, "lon": 75.309189, "tags": {"name": "Naicker coloney", "place": "village"}}, {"type": "node", "id": 650128678, "lat": 12.45904, "lon": 75.323016, "tags": {"name": "Balamthodu", "name:kn": "\u0cac\u0cb3\u0cae\u0ccd\u0ca4\u0ccb\u0ca1\u0cc1", "name:ml": "\u0d2c\u0d33\u0d3e\u0d02\u0d24\u0d4b\u0d1f\u0d4d", "place": "village"}}, {"type": "node", "id": 650128679, "lat": 12.451896, "lon": 75.33911, "tags": {"name": "Pullikkal", "place": "village"}}, {"type": "node", "id": 650128682, "lat": 12.50897, "lon": 75.29883, "tags": {"name": "Balliyodi", "name:kn": "\u0cac\u0cb3\u0ccd\u0cb3\u0cbf\u0caf\u0ccb\u0ca1\u0cbf", "name:ml": "\u0d2c\u0d32\u0d4d\u0d32\u0d3f\u0d2f\u0d4b\u0d1f\u0d3f", "place": "village"}}, {"type": "node", "id": 650128683, "lat": 12.507245, "lon": 75.396678, "tags": {"name": "Baddadka", "name:kn": "\u0cac\u0ca1\u0ccd\u0ca1\u0ca1\u0ccd\u0c95", "name:ml": "\u0d2c\u0d21\u0d4d\u0d21\u0d1f\u0d41\u0d15\u0d4d\u0d15", "place": "village"}}, {"type": "node", "id": 650128685, "lat": 12.481518, "lon": 75.313284, "tags": {"name": "Chamundikkunnu", "name:ml": "\u0d1a\u0d3e\u0d2e\u0d41\u0d23\u0d4d\u0d1f\u0d3f\u0d15\u0d4d\u0d15\u0d41\u0d28\u0d4d\u0d28\u0d4d", "place": "village"}}, {"type": "node", "id": 650128686, "lat": 12.519538, "lon": 75.330971, "tags": {"name": "Kolcharu", "name:kn": "\u0c95\u0ccb\u0cb2\u0ccd\u0c9a\u0cbe\u0cb0\u0cc1", "place": "village"}}, {"type": "node", "id": 650128694, "lat": 12.5288133, "lon": 75.3290044, "tags": {"name": "Paimbechalu", "name:kn": "\u0caa\u0cc8\u0c82\u0cac\u0cc6\u0c9a\u0cbe\u0cb2\u0cc1", "name:kn:iso15919": "Pai\u1e41bec\u0101lu", "place": "village"}}, {"type": "node", "id": 650128695, "lat": 12.490332, "lon": 75.396206, "tags": {"name": "Kallappally", "name:ml": "\u0d15\u0d32\u0d4d\u0d32\u0d2a\u0d4d\u0d2a\u0d33\u0d4d\u0d33\u0d3f", "place": "village"}}, {"type": "node", "id": 650128696, "lat": 12.5520043, "lon": 75.2996154, "tags": {"name": "Mandekolu", "name:kn": "\u0cae\u0c82\u0ca1\u0cc7\u0c95\u0ccb\u0cb2\u0cc1", "name:ml": "\u0d2e\u0d23\u0d4d\u0d1f\u0d47\u0d15\u0d4d\u0d15\u0d4b\u0d32\u0d41", "place": "village"}}, {"type": "node", "id": 650128701, "lat": 12.585684, "lon": 75.30695, "tags": {"name": "Bellippady", "name:kn": "\u0cac\u0cc6\u0cb3\u0ccd\u0cb3\u0cbf\u0caa\u0ca1\u0cbf", "name:ml": "\u0d2c\u0d46\u0d33\u0d4d\u0d33\u0d3f\u0d2a\u0d4d\u0d2a\u0d1f\u0d3f", "place": "village"}}, {"type": "node", "id": 650128705, "lat": 12.5707278, "lon": 75.2987103, "tags": {"name": "Muroor", "name:kn": "\u0cae\u0cc1\u0cb0\u0cc2\u0cb0\u0cc1", "name:ml": "\u0d2e\u0d41\u0d31\u0d42\u0d7c", "place": "village"}}, {"type": "node", "id": 650128707, "lat": 12.5738257, "lon": 75.3164242, "tags": {"name": "Panjikkal", "name:kn": "\u0c85\u0ca1\u0ccd\u0c95\u0cbe\u0cb0\u0ccd", "name:ml": "\u0d2a\u0d1e\u0d4d\u0d1a\u0d3f\u0d15\u0d4d\u0d15\u0d7d", "place": "village"}}, {"type": "node", "id": 870696572, "lat": 12.4545015, "lon": 75.3094499, "tags": {"name": "Panathady", "name:ml": "\u0d2a\u0d28\u0d24\u0d4d\u0d24\u0d1f\u0d3f", "place": "village", "wikidata": "Q7130120", "wikipedia": "en:Panathady"}}, {"type": "node", "id": 1861233134, "lat": 12.3857285, "lon": 75.5290234, "tags": {"name": "Bhagamandala", "name:kn": "\u0cad\u0cbe\u0c97\u0cae\u0c82\u0ca1\u0cb2", "name:kn:iso15919": "Bh\u0101gama\u1e47\u1e0dala", "name:ml": "\u0d2d\u0d3e\u0d17\u0d2e\u0d23\u0d4d\u0d21\u0d32", "place": "village"}}, {"type": "node", "id": 1861233136, "lat": 12.3851618, "lon": 75.4952765, "tags": {"name": "Talakaveri", "name:kn": "\u0ca4\u0cb2\u0c95\u0cbe\u0cb5\u0cc7\u0cb0\u0cbf", "name:ml": "\u0d24\u0d32\u0d15\u0d4d\u0d15\u0d3e\u0d35\u0d47\u0d30\u0d3f", "name:ta": "\u0ba4\u0bb2\u0bc8\u0b95\u0bcd\u0b95\u0bbe\u0bb5\u0bbf\u0bb0\u0bbf", "name:te": "\u0c24\u0c32\u0c15\u0c3e\u0c35\u0c47\u0c30\u0c3f", "place": "village"}}, {"type": "node", "id": 2417990918, "lat": 12.378234, "lon": 75.5726868, "tags": {"name": "Chettimani", "name:kn": "\u0c9a\u0cc6\u0c9f\u0ccd\u0c9f\u0cae\u0ca3\u0cbf", "name:ml": "\u0d1a\u0d46\u0d1f\u0d4d\u0d1f\u0d3f\u0d2e\u0d23\u0d3f", "place": "village"}}, {"type": "node", "id": 3004595737, "lat": 12.4523076, "lon": 75.3910802, "tags": {"name": "Ellukkochi", "name:kn": "\u0c8e\u0cb2\u0ccd\u0cb2\u0cc1\u0c95\u0ccd\u0c95\u0cca\u0c9a\u0cbf", "name:ml": "\u0d0e\u0d33\u0d4d\u0d33\u0d41\u0d15\u0d4d\u0d15\u0d4a\u0d1a\u0d4d\u0d1a\u0d3f", "place": "village"}}, {"type": "node", "id": 6421571762, "lat": 12.5553071, "lon": 75.3599453, "tags": {"name": "Iranthamajalu", "name:kn": "\u0c87\u0cb0\u0c82\u0ca4\u0cae\u0c9c\u0cb2\u0cc1", "name:ml": "\u0d07\u0d30\u0d28\u0d4d\u0d24\u0d2e\u0d1c\u0d32\u0d41", "place": "village"}}, {"type": "node", "id": 6421571763, "lat": 12.5535791, "lon": 75.3429294, "tags": {"name": "Ajjavara", "name:kn": "\u0c85\u0c9c\u0ccd\u0c9c\u0cbe\u0cb5\u0cb0", "name:ml": "\u0d05\u0d1c\u0d4d\u0d1c\u0d3e\u0d35\u0d30", "place": "village"}}, {"type": "node", "id": 6592901726, "lat": 12.3532914, "lon": 75.5807447, "tags": {"name": "Ayyangeri", "name:kn": "\u0c85\u0caf\u0ccd\u0caf\u0c82\u0c97\u0cc7\u0cb0\u0cbf", "name:ml": "\u0d05\u0d2f\u0d4d\u0d2f\u0d19\u0d4d\u0d15\u0d47\u0d30\u0d3f", "place": "village"}}, {"type": "node", "id": 6592901727, "lat": 12.3775577, "lon": 75.5116403, "tags": {"name:kn": "\u0c95\u0ccb\u0cb3\u0cbf\u0c95\u0cbe\u0ca1\u0cc1", "place": "village"}}, {"type": "node", "id": 11609844502, "lat": 12.453638, "lon": 75.3872512, "tags": {"name": "Karike", "name:kn": "\u0c95\u0cb0\u0cbf\u0c95\u0cc6", "name:ml": "\u0d15\u0d30\u0d3f\u0d15\u0d4d\u0d15\u0d46", "place": "village"}}]}