{"version": 0.6, "generator": "Overpass API 0.7.62.1 084b4234", "osm3s": {"timestamp_osm_base": "2024-11-07T07:13:19Z", "copyright": "The data included in this document is from www.openstreetmap.org. The data is made available under ODbL."}, "elements": [{"type": "node", "id": 662769646, "lat": 10.6083857, "lon": 76.1761002, "tags": {"name": "Avanoor", "name:ml": "\u0d05\u0d35\u0d28\u0d42\u0d7c", "place": "village", "wikidata": "Q4827720", "wikipedia": "en:Avanur"}}, {"type": "node", "id": 662769647, "lat": 10.6103261, "lon": 76.1832456, "tags": {"name": "Edakkulam", "name:ml": "\u0d0e\u0d1f\u0d15\u0d4d\u0d15\u0d41\u0d33\u0d02", "place": "village", "wikidata": "Q26794009"}}, {"type": "node", "id": 1157687718, "lat": 10.5588527, "lon": 76.3298182, "tags": {"name": "Pattikad", "name:kn": "\u0caa\u0c9f\u0ccd\u0c9f\u0cbf\u0c95\u0cbe\u0ca1\u0ccd", "name:ml": "\u0d2a\u0d1f\u0d4d\u0d1f\u0d3f\u0d15\u0d4d\u0d15\u0d3e\u0d1f\u0d4d", "place": "village", "wikidata": "Q7148579"}}, {"type": "node", "id": 1681827954, "lat": 10.8641752, "lon": 76.5582534, "tags": {"name": "Velikkad", "name:ml": "\u0d35\u0d47\u0d32\u0d3f\u0d15\u0d4d\u0d15\u0d3e\u0d1f\u0d4d", "place": "village"}}, {"type": "node", "id": 1681851925, "lat": 10.8968017, "lon": 76.5372985, "tags": {"name": "Kalladikode", "name:ml": "\u0d15\u0d32\u0d4d\u0d32\u0d1f\u0d3f\u0d15\u0d4d\u0d15\u0d4b\u0d1f\u0d4d", "place": "village"}}, {"type": "node", "id": 1888055406, "lat": 10.7801002, "lon": 76.4752787, "tags": {"name": "Pathiripala", "name:ml": "\u0d2a\u0d24\u0d4d\u0d24\u0d3f\u0d30\u0d3f\u0d2a\u0d4d\u0d2a\u0d3e\u0d32", "place": "village", "wikidata": "Q7144789"}}, {"type": "node", "id": 1924494141, "lat": 10.5991512, "lon": 76.5511897, "tags": {"name": "Chittilanchery", "name:ml": "\u0d1a\u0d3f\u0d31\u0d4d\u0d31\u0d3f\u0d32\u0d1e\u0d4d\u0d1a\u0d47\u0d30\u0d3f", "name:ta": "\u0b9a\u0bbf\u0bb1\u0bcd\u0bb1\u0bbf\u0bb2\u0b9e\u0bcd\u0b9a\u0bc7\u0bb0\u0bbf", "place": "village", "population": "24250", "source": "local knowledge", "wikidata": "Q5102506", "wikipedia": "en:Chittlancherry"}}, {"type": "node", "id": 2097834674, "lat": 10.6583746, "lon": 76.2566605, "tags": {"addr:postcode": "680589", "name": "Enkakkad", "name:ml": "\u0d0e\u0d19\u0d4d\u0d15\u0d15\u0d4d\u0d15\u0d3e\u0d1f\u0d4d", "place": "village", "wikidata": "Q5379011"}}, {"type": "node", "id": 2155265232, "lat": 10.8555604, "lon": 76.3974391, "tags": {"name": "pookkottukavu", "name:ml": "\u0d2a\u0d42\u0d15\u0d4d\u0d15\u0d4b\u0d1f\u0d4d\u0d1f\u0d41\u0d15\u0d3e\u0d35\u0d4d", "place": "village"}}, {"type": "node", "id": 2192193334, "lat": 10.8320713, "lon": 76.5011832, "tags": {"name": "Keralassery", "name:ml": "\u0d15\u0d47\u0d30\u0d33\u0d36\u0d4d\u0d36\u0d47\u0d30\u0d3f", "place": "village", "wikidata": "Q6393527", "wikipedia": "en:Keralasseri"}}, {"type": "node", "id": 2192193500, "lat": 10.8445476, "lon": 76.4874589, "tags": {"name": "Vadassery", "place": "village"}}, {"type": "node", "id": 2192193513, "lat": 10.8018814, "lon": 76.4630744, "tags": {"name": "Mannur", "name:ml": "\u0d2e\u0d23\u0d4d\u0d23\u0d42\u0d7c", "place": "village"}}, {"type": "node", "id": 2192193624, "lat": 10.8547658, "lon": 76.522063, "tags": {"name": "Kongad", "name:ml": "\u0d15\u0d4b\u0d19\u0d4d\u0d19\u0d3e\u0d1f\u0d4d", "place": "village"}}, {"type": "node", "id": 2192215077, "lat": 10.7803058, "lon": 76.4532811, "tags": {"name": "Old Lakkidi", "name:ml": "\u0d2a\u0d34\u0d2f \u0d32\u0d15\u0d4d\u0d15\u0d3f\u0d1f\u0d3f", "place": "village"}}, {"type": "node", "id": 2192215125, "lat": 10.8777591, "lon": 76.4256608, "tags": {"name": "Punchapadam", "name:ml": "\u0d2a\u0d41\u0d1e\u0d4d\u0d1a\u0d2a\u0d4d\u0d2a\u0d3e\u0d1f\u0d02", "place": "village"}}, {"type": "node", "id": 2192215167, "lat": 10.8657057, "lon": 76.4087521, "tags": {"name": "Kattukulam", "name:ml": "\u0d15\u0d3e\u0d1f\u0d4d\u0d1f\u0d41\u0d15\u0d41\u0d33\u0d02", "place": "village"}}, {"type": "node", "id": 2192215249, "lat": 10.9188667, "lon": 76.4183703, "tags": {"name": "Karimbuzha", "name:ml": "\u0d15\u0d30\u0d3f\u0d2e\u0d4d\u0d2a\u0d41\u0d34", "place": "village"}}, {"type": "node", "id": 2192215314, "lat": 10.9003476, "lon": 76.4507233, "tags": {"name": "Kulakkattukurussi", "name:ml": "\u0d15\u0d41\u0d33\u0d15\u0d4d\u0d15\u0d3e\u0d1f\u0d4d\u0d1f\u0d41\u0d15\u0d41\u0d31\u0d41\u0d36\u0d4d\u0d36\u0d3f", "place": "village"}}, {"type": "node", "id": 2192215408, "lat": 10.8714232, "lon": 76.3908458, "tags": {"name": "Kalluvazhi", "name:ml": "\u0d15\u0d32\u0d4d\u0d32\u0d41\u0d35\u0d34\u0d3f", "place": "village"}}, {"type": "node", "id": 2192215411, "lat": 10.8623886, "lon": 76.4826469, "tags": {"name": "Peringode", "name:ml": "\u0d2a\u0d46\u0d30\u0d3f\u0d19\u0d4d\u0d19\u0d4b\u0d1f\u0d4d", "place": "village"}}, {"type": "node", "id": 2192215491, "lat": 10.8721961, "lon": 76.4690911, "tags": {"name": "Azhiyannur", "name:ml": "\u0d05\u0d34\u0d3f\u0d2f\u0d28\u0d4d\u0d28\u0d42\u0d30\u0d4d\u200d", "place": "village"}}, {"type": "node", "id": 2881520208, "lat": 10.9279407, "lon": 76.2262981, "tags": {"name": "Cherukara", "name:ml": "\u0d1a\u0d46\u0d31\u0d41\u0d15\u0d30", "place": "village", "wikidata": "Q5092609"}}, {"type": "node", "id": 2881576917, "lat": 10.9407069, "lon": 76.1990591, "tags": {"name": "Cheeratta Mala", "place": "village"}}, {"type": "node", "id": 2883730526, "lat": 10.7744461, "lon": 76.4319683, "tags": {"name": "Lakkidi", "name:ml": "\u0d32\u0d15\u0d4d\u0d15\u0d3f\u0d1f\u0d3f", "place": "village"}}, {"type": "node", "id": 2925882431, "lat": 10.7817487, "lon": 76.2805601, "tags": {"name": "Kulappully", "name:ml": "\u0d15\u0d41\u0d33\u0d2a\u0d4d\u0d2a\u0d41\u0d33\u0d4d\u0d33\u0d3f", "place": "village", "wikidata": "Q6442807"}}, {"type": "node", "id": 2926197641, "lat": 10.8028531, "lon": 76.2186172, "tags": {"name": "Ongallur", "name:ml": "\u0d13\u0d19\u0d4d\u0d19\u0d32\u0d4d\u0d32\u0d42\u0d7c", "place": "village"}}, {"type": "node", "id": 2926319870, "lat": 10.8654122, "lon": 76.1866812, "tags": {"name": "Koppam", "name:ml": "\u0d15\u0d4a\u0d2a\u0d4d\u0d2a\u0d02", "place": "village", "wikidata": "Q6431163"}}, {"type": "node", "id": 2927296931, "lat": 10.9660422, "lon": 76.2264549, "tags": {"name": "Thottakkara", "name:ml": "\u0d24\u0d4b\u0d1f\u0d4d\u0d1f\u0d15\u0d4d\u0d15\u0d30", "place": "village"}}, {"type": "node", "id": 2927507437, "lat": 10.9169954, "lon": 76.2880533, "tags": {"name": "Thootha", "name:ml": "\u0d24\u0d42\u0d24", "place": "village"}}, {"type": "node", "id": 2939125616, "lat": 10.6306643, "lon": 76.2263402, "tags": {"name": "Kuranchery", "name:ml": "\u0d15\u0d42\u0d30\u0d1e\u0d4d\u0d1a\u0d47\u0d30\u0d3f", "place": "village"}}, {"type": "node", "id": 2940011713, "lat": 10.7318786, "lon": 76.4282445, "tags": {"name": "Thiruvilwamala", "name:ml": "\u0d24\u0d3f\u0d30\u0d41\u0d35\u0d3f\u0d32\u0d4d\u0d35\u0d3e\u0d2e\u0d32", "place": "village", "wikidata": "Q7785559", "wikipedia": "en:Thiruvilwamala"}}, {"type": "node", "id": 2940011714, "lat": 10.7468018, "lon": 76.4343321, "tags": {"name": "Pambady", "name:ml": "\u0d2a\u0d2e\u0d4d\u0d2a\u0d3e\u0d1f\u0d3f", "place": "village"}}, {"type": "node", "id": 2940062156, "lat": 10.7002048, "lon": 76.2686805, "tags": {"name": "Mullurkara", "name:ml": "\u0d2e\u0d41\u0d33\u0d4d\u0d33\u0d42\u0d30\u0d4d\u200d\u0d15\u0d4d\u0d15\u0d30", "place": "village", "wikidata": "Q6934305", "wikipedia": "en:Mullurkara"}}, {"type": "node", "id": 3266440250, "lat": 10.7628132, "lon": 76.2773332, "tags": {"name": "Chuduvalathoor", "place": "village"}}, {"type": "node", "id": 3274601558, "lat": 10.6494759, "lon": 76.2755117, "tags": {"name": "Karumathra", "name:ml": "\u0d15\u0d30\u0d41\u0d2e\u0d3e\u0d24\u0d4d\u0d30", "place": "village", "wikidata": "Q6373640", "wikipedia": "en:Karumathra"}}, {"type": "node", "id": 3663311294, "lat": 10.8880749, "lon": 76.4010267, "tags": {"name": "Mangalamkunnu", "name:ml": "\u0d2e\u0d02\u0d17\u0d32\u0d3e\u0d02\u0d15\u0d41\u0d28\u0d4d\u0d28\u0d4d", "place": "village"}}, {"type": "node", "id": 3663313066, "lat": 10.8327898, "lon": 76.4114113, "tags": {"name": "Ambalapara", "name:ml": "\u0d05\u0d2e\u0d4d\u0d2a\u0d32\u0d2a\u0d4d\u0d2a\u0d3e\u0d31", "place": "village", "wikidata": "Q57816973", "wikipedia": "en:Ambalappara"}}, {"type": "node", "id": 3663364583, "lat": 10.8441781, "lon": 76.4085843, "tags": {"name": "Kadambur", "name:ml": "\u0d15\u0d1f\u0d2e\u0d4d\u0d2a\u0d42\u0d30\u0d4d\u200d", "place": "village"}}, {"type": "node", "id": 3663468635, "lat": 10.821562, "lon": 76.4566572, "tags": {"name": "Vengassery", "name:ml": "\u0d35\u0d47\u0d19\u0d4d\u0d19\u0d36\u0d4d\u0d36\u0d47\u0d30\u0d3f", "place": "village"}}, {"type": "node", "id": 3663472500, "lat": 10.8085167, "lon": 76.3801701, "tags": {"name": "Varode", "name:ml": "\u0d35\u0d30\u0d4b\u0d1f\u0d4d", "place": "village"}}, {"type": "node", "id": 3664113361, "lat": 10.7821548, "lon": 76.3283191, "tags": {"name": "Vaniamkulam", "name:ml": "\u0d35\u0d3e\u0d23\u0d3f\u0d2f\u0d02\u0d15\u0d41\u0d33\u0d02", "place": "village"}}, {"type": "node", "id": 3664160252, "lat": 10.8950369, "lon": 76.3891747, "tags": {"name": "Thiruvazhiyode", "name:ml": "\u0d24\u0d3f\u0d30\u0d41\u0d35\u0d3e\u0d34\u0d3f\u0d2f\u0d4b\u0d1f\u0d4d", "place": "village"}}, {"type": "node", "id": 3664182333, "lat": 10.7421549, "lon": 76.346078, "tags": {"name": "Thozhupadam", "name:ml": "\u0d24\u0d4a\u0d34\u0d42\u0d2a\u0d4d\u0d2a\u0d3e\u0d1f\u0d02", "place": "village"}}, {"type": "node", "id": 3664794623, "lat": 10.7877806, "lon": 76.4956959, "tags": {"name": "Mankara", "name:ml": "\u0d2e\u0d19\u0d4d\u0d15\u0d30", "place": "village", "wikidata": "Q6750486"}}, {"type": "node", "id": 3664795715, "lat": 10.8007269, "lon": 76.5557648, "tags": {"name": "Parali", "name:ml": "\u0d2a\u0d31\u0d33\u0d3f", "place": "village"}}, {"type": "node", "id": 3683289364, "lat": 10.7507398, "lon": 76.3505117, "tags": {"name": "Chorottur", "name:ml": "\u0d1a\u0d4b\u0d31\u0d4b\u0d1f\u0d4d\u0d1f\u0d42\u0d7c", "place": "village"}}, {"type": "node", "id": 3683289836, "lat": 10.7515395, "lon": 76.3244725, "tags": {"name": "Mannanur", "name:ml": "\u0d2e\u0d23\u0d4d\u0d23\u0d28\u0d4d\u0d28\u0d42\u0d7c", "place": "village", "wikidata": "Q6750748"}}, {"type": "node", "id": 3693833929, "lat": 10.7315891, "lon": 76.2832967, "tags": {"name": "Vettikattiri", "name:ml": "\u0d35\u0d46\u0d1f\u0d4d\u0d1f\u0d3f\u0d15\u0d4d\u0d15\u0d3e\u0d1f\u0d4d\u0d1f\u0d3f\u0d30\u0d3f", "place": "village"}}, {"type": "node", "id": 3694611320, "lat": 10.746956, "lon": 76.2751204, "tags": {"name": "Cheruthuruthy", "name:ml": "\u0d1a\u0d46\u0d31\u0d41\u0d24\u0d41\u0d30\u0d41\u0d24\u0d4d\u0d24\u0d3f", "place": "village", "wikidata": "Q5092634"}}, {"type": "node", "id": 3709009527, "lat": 10.7643877, "lon": 76.3506893, "tags": {"name": "Thrikkengode", "place": "village"}}, {"type": "node", "id": 3721656362, "lat": 10.6458971, "lon": 76.5436079, "tags": {"name": "Alathur", "name:ml": "\u0d06\u0d32\u0d24\u0d4d\u0d24\u0d42\u0d7c", "name:ta": "\u0b86\u0bb2\u0ba4\u0bcd\u0ba4\u0bc2\u0bb0\u0bcd", "place": "village", "wikidata": "Q3595411", "wikipedia": "en:Alathur"}}, {"type": "node", "id": 3727062346, "lat": 10.6857231, "lon": 76.4203169, "tags": {"name": "Pazhayanur", "name:ml": "\u0d2a\u0d34\u0d2f\u0d28\u0d4d\u0d28\u0d42\u0d7c", "name:ta": "\u0baa\u0bb4\u0bc8\u0baf\u0ba9\u0bcd\u0ba9\u0bc2\u0bb0\u0bcd", "place": "village"}}, {"type": "node", "id": 3727292508, "lat": 10.6838534, "lon": 76.2669788, "tags": {"name": "Akamala", "name:ml": "\u0d05\u0d15\u0d2e\u0d32", "place": "village"}}, {"type": "node", "id": 3730393484, "lat": 10.5905695, "lon": 76.2150751, "tags": {"name": "Mulakunnathukavu", "name:ml": "\u0d2e\u0d41\u0d33\u0d15\u0d41\u0d28\u0d4d\u0d28\u0d24\u0d4d\u0d24\u0d41\u0d15\u0d3e\u0d35\u0d4d", "place": "village", "taluk": "Thrissur", "wikidata": "Q24929814", "wikipedia": "en:Mulakunnathukavu"}}, {"type": "node", "id": 3738827853, "lat": 10.6943643, "lon": 76.3253999, "tags": {"name": "Thonoorkara", "place": "village"}}, {"type": "node", "id": 3738833187, "lat": 10.6719449, "lon": 76.3345248, "tags": {"name": "Kurumala", "name:ml": "\u0d15\u0d41\u0d30\u0d41\u0d2e\u0d32", "place": "village", "wikidata": "Q6447375"}}, {"type": "node", "id": 3738838035, "lat": 10.6499087, "lon": 76.3577205, "tags": {"name": "Pulakkode", "place": "village"}}, {"type": "node", "id": 3739280428, "lat": 10.74375, "lon": 76.3987652, "tags": {"name": "Kuthampully", "name:ml": "\u0d15\u0d41\u0d24\u0d4d\u0d24\u0d3e\u0d2e\u0d4d\u0d2a\u0d41\u0d33\u0d4d\u0d33\u0d3f", "place": "village"}}, {"type": "node", "id": 3740078698, "lat": 10.7612658, "lon": 76.5430726, "tags": {"name": "Kottayi", "name:ml": "\u0d15\u0d4b\u0d1f\u0d4d\u0d1f\u0d3e\u0d2f\u0d3f", "place": "village"}}, {"type": "node", "id": 3740368591, "lat": 10.7502011, "lon": 76.4815717, "tags": {"name": "Perinkottukurushi", "name:ml": "\u0d2a\u0d46\u0d30\u0d3f\u0d19\u0d4d\u0d19\u0d4b\u0d1f\u0d4d\u0d1f\u0d41\u0d15\u0d41\u0d31\u0d3f\u0d36\u0d4d\u0d36\u0d3f", "place": "village"}}, {"type": "node", "id": 3740932647, "lat": 10.6810016, "lon": 76.458002, "tags": {"name": "Ariyassery", "name:ml": "\u0d05\u0d30\u0d3f\u0d2f\u0d36\u0d4d\u0d36\u0d47\u0d30\u0d3f", "place": "village"}}, {"type": "node", "id": 3740934841, "lat": 10.6731891, "lon": 76.467751, "tags": {"name": "Tarur", "name:ml": "\u0d24\u0d30\u0d42\u0d7c", "place": "village"}}, {"type": "node", "id": 3740971780, "lat": 10.6944541, "lon": 76.4629641, "tags": {"name": "Pazhambalakode", "name:ml": "\u0d2a\u0d34\u0d2e\u0d4d\u0d2a\u0d32\u0d15\u0d4d\u0d15\u0d4b\u0d1f\u0d4d", "place": "village"}}, {"type": "node", "id": 3740973528, "lat": 10.7070205, "lon": 76.4708678, "tags": {"name": "Chulanur", "name:ml": "\u0d1a\u0d42\u0d32\u0d28\u0d42\u0d7c", "place": "village", "wikidata": "Q5116110"}}, {"type": "node", "id": 3740975276, "lat": 10.7505841, "lon": 76.3816382, "tags": {"name": "Mayannur", "name:ml": "\u0d2e\u0d3e\u0d2f\u0d28\u0d4d\u0d28\u0d42\u0d7c", "place": "village", "wikidata": "Q6796850"}}, {"type": "node", "id": 3740977671, "lat": 10.7568697, "lon": 76.3816521, "tags": {"name": "Theepara", "name:ml": "\u0d24\u0d40\u0d2a\u0d3e\u0d31", "place": "village"}}, {"type": "node", "id": 3740979239, "lat": 10.7825395, "lon": 76.3735062, "tags": {"name": "Thottakkara", "name:ml": "\u0d24\u0d4b\u0d1f\u0d4d\u0d1f\u0d15\u0d4d\u0d15\u0d30", "place": "village"}}, {"type": "node", "id": 3740979240, "lat": 10.7736072, "lon": 76.3680023, "tags": {"name": "Kanniampuram", "place": "village"}}, {"type": "node", "id": 3740998270, "lat": 10.7714995, "lon": 76.3890134, "tags": {"name": "East Ottappalam", "name:ml": "\u0d08\u0d38\u0d4d\u0d31\u0d4d\u0d31\u0d4d \u0d12\u0d31\u0d4d\u0d31\u0d2a\u0d4d\u0d2a\u0d3e\u0d32\u0d02", "place": "village"}}, {"type": "node", "id": 3742856225, "lat": 10.7951043, "lon": 76.3709013, "tags": {"name": "Veetampara", "place": "village"}}, {"type": "node", "id": 3742857812, "lat": 10.8071185, "lon": 76.3902221, "tags": {"name": "Vaanivilas", "place": "village"}}, {"type": "node", "id": 3745311767, "lat": 10.9779184, "lon": 76.404788, "tags": {"name": "Aryambavu", "name:ml": "\u0d06\u0d30\u0d4d\u0d2f\u0d2e\u0d4d\u0d2a\u0d3e\u0d35\u0d4d", "place": "village"}}, {"type": "node", "id": 3751766406, "lat": 10.8944364, "lon": 76.3128369, "tags": {"name": "Karalmanna", "name:ml": "\u0d15\u0d3e\u0d31\u0d7d\u0d2e\u0d23\u0d4d\u0d23", "place": "village", "wikidata": "Q6368225"}}, {"type": "node", "id": 3783586625, "lat": 10.8226942, "lon": 76.300622, "tags": {"name": "Chalavara", "name:ml": "\u0d1a\u0d33\u0d35\u0d31", "place": "village", "wikidata": "Q5068584"}}, {"type": "node", "id": 3783586626, "lat": 10.8399549, "lon": 76.2526131, "tags": {"name": "Vallapuzha", "name:ml": "\u0d35\u0d32\u0d4d\u0d32\u0d2a\u0d4d\u0d2a\u0d41\u0d34", "place": "village", "wikidata": "Q7911829"}}, {"type": "node", "id": 3783586651, "lat": 10.841683, "lon": 76.2413639, "tags": {"name": "Choorakode", "name:ml": "\u0d1a\u0d42\u0d30\u0d15\u0d4d\u0d15\u0d4b\u0d1f\u0d4d", "place": "village"}}, {"type": "node", "id": 3783586652, "lat": 10.8654939, "lon": 76.229507, "tags": {"name": "Kulukkallur", "name:ml": "\u0d15\u0d41\u0d32\u0d41\u0d15\u0d4d\u0d15\u0d32\u0d4d\u0d32\u0d42\u0d7c", "place": "village"}}, {"type": "node", "id": 3783611486, "lat": 10.8617744, "lon": 76.2573874, "tags": {"name": "Ezhuvanthala", "name:ml": "\u0d0e\u0d34\u0d41\u0d35\u0d28\u0d4d\u0d24\u0d32", "place": "village", "wikidata": "Q5423284"}}, {"type": "node", "id": 3783611487, "lat": 10.8627912, "lon": 76.256749, "tags": {"name": "Haripuram", "name:ml": "\u0d39\u0d30\u0d3f\u0d2a\u0d41\u0d30\u0d02", "place": "village"}}, {"type": "node", "id": 3783611488, "lat": 10.8476181, "lon": 76.2596244, "tags": {"name": "Chammenkuzhi", "name:ml": "\u0d1a\u0d46\u0d2e\u0d4d\u0d2e\u0d7b\u0d15\u0d41\u0d34\u0d3f", "place": "village"}}, {"type": "node", "id": 3783611489, "lat": 10.8736332, "lon": 76.2885092, "tags": {"name": "Nellaya", "name:ml": "\u0d28\u0d46\u0d32\u0d4d\u0d32\u0d3e\u0d2f", "place": "village", "wikidata": "Q6990062"}}, {"type": "node", "id": 3783620755, "lat": 10.8832051, "lon": 76.2736068, "tags": {"name": "Marayamangalam", "place": "village"}}, {"type": "node", "id": 3783620756, "lat": 10.8743549, "lon": 76.2744437, "tags": {"name": "Pattissery", "name:ml": "\u0d2a\u0d1f\u0d4d\u0d1f\u0d3f\u0d36\u0d4d\u0d36\u0d47\u0d30\u0d3f", "place": "village"}}, {"type": "node", "id": 3784274779, "lat": 10.843681, "lon": 76.2375054, "tags": {"name": "Cherukode", "place": "village"}}, {"type": "node", "id": 3784274786, "lat": 10.8128527, "lon": 76.1865355, "tags": {"name": "Sankaramangalam", "name:ml": "\u0d36\u0d19\u0d4d\u0d15\u0d30\u0d2e\u0d02\u0d17\u0d32\u0d02", "place": "village"}}, {"type": "node", "id": 3784274787, "lat": 10.8285965, "lon": 76.1856343, "tags": {"name": "Aamayur", "name:ml": "\u0d06\u0d2e\u0d2f\u0d42\u0d30\u0d4d\u200d", "place": "village"}}, {"type": "node", "id": 3784274788, "lat": 10.8519284, "lon": 76.1874177, "tags": {"name": "Puthiya Road", "name:ml": "\u0d2a\u0d41\u0d24\u0d3f\u0d2f\u0d31\u0d4b\u0d21\u0d4d", "place": "village"}}, {"type": "node", "id": 3784274789, "lat": 10.8953776, "lon": 76.188295, "tags": {"name": "Vilayur", "name:ml": "\u0d35\u0d3f\u0d33\u0d2f\u0d42\u0d7c", "place": "village", "wikidata": "Q7930122", "wikipedia": "en:Vilayur"}}, {"type": "node", "id": 3784274790, "lat": 10.9012503, "lon": 76.1903313, "tags": {"name": "Pulamanthole", "name:ml": "\u0d2a\u0d41\u0d32\u0d3e\u0d2e\u0d28\u0d4d\u0d24\u0d4b\u0d33\u0d4d\u200d", "place": "village", "wikidata": "Q13113376"}}, {"type": "node", "id": 3784274791, "lat": 10.9139194, "lon": 76.1899258, "tags": {"name": "Paloor", "name:ml": "\u0d2a\u0d3e\u0d32\u0d42\u0d7c", "place": "village"}}, {"type": "node", "id": 3784274792, "lat": 10.9159105, "lon": 76.2099155, "tags": {"name": "Chelakkad", "name:ml": "\u0d1a\u0d47\u0d32\u0d15\u0d4d\u0d15\u0d3e\u0d1f\u0d4d", "place": "village"}}, {"type": "node", "id": 3784274793, "lat": 10.9069348, "lon": 76.212941, "tags": {"name": "Natyamangalam", "place": "village"}}, {"type": "node", "id": 3784274803, "lat": 10.8942609, "lon": 76.2112011, "tags": {"name": "Chundampatta", "name:ml": "\u0d1a\u0d41\u0d23\u0d4d\u0d1f\u0d2e\u0d4d\u0d2a\u0d31\u0d4d\u0d31", "place": "village"}}, {"type": "node", "id": 3784291738, "lat": 10.8148128, "lon": 76.2149902, "tags": {"name": "Maruthur", "name:ml": "\u0d2e\u0d30\u0d41\u0d24\u0d42\u0d7c", "place": "village"}}, {"type": "node", "id": 3784291756, "lat": 10.8359782, "lon": 76.2780114, "tags": {"name": "Mundakottukurushi", "name:ml": "\u0d2e\u0d41\u0d23\u0d4d\u0d1f\u0d15\u0d4d\u0d15\u0d4b\u0d1f\u0d4d\u0d1f\u0d41\u0d15\u0d41\u0d31\u0d3f\u0d36\u0d4d\u0d36\u0d3f", "place": "village"}}, {"type": "node", "id": 3784292357, "lat": 10.8179795, "lon": 76.2818523, "tags": {"name": "Kayiliyad", "name:ml": "\u0d15\u0d2f\u0d3f\u0d32\u0d3f\u0d2f\u0d3e\u0d1f\u0d4d", "place": "village"}}, {"type": "node", "id": 3784330912, "lat": 10.8152211, "lon": 76.3376047, "tags": {"name": "Anaganadi", "place": "village"}}, {"type": "node", "id": 3784331089, "lat": 10.8056812, "lon": 76.3499299, "tags": {"name": "Panamanna", "place": "village"}}, {"type": "node", "id": 3784331135, "lat": 10.8045826, "lon": 76.3530788, "tags": {"name": "Ambalavattom", "name:ml": "\u0d05\u0d2e\u0d4d\u0d2a\u0d32\u0d35\u0d1f\u0d4d\u0d1f\u0d02", "place": "village"}}, {"type": "node", "id": 3784331136, "lat": 10.8118225, "lon": 76.3382006, "tags": {"name": "Kothakurussi", "name:ml": "\u0d15\u0d4b\u0d24\u0d15\u0d41\u0d7c\u0d36\u0d4d\u0d36\u0d3f", "place": "village"}}, {"type": "node", "id": 3784331138, "lat": 10.80375, "lon": 76.3263775, "tags": {"name": "Pavukkonam", "place": "village"}}, {"type": "node", "id": 3784332086, "lat": 10.7934562, "lon": 76.3584701, "tags": {"name": "Panamanna South", "place": "village"}}, {"type": "node", "id": 3784336377, "lat": 10.8553771, "lon": 76.3184515, "tags": {"name": "Karattukurussi", "place": "village"}}, {"type": "node", "id": 3784336378, "lat": 10.8483384, "lon": 76.3371841, "tags": {"name": "Kuttikkode", "place": "village"}}, {"type": "node", "id": 3784392425, "lat": 10.836916, "lon": 76.1596862, "tags": {"name": "Muthuthala", "name:ml": "\u0d2e\u0d41\u0d24\u0d41\u0d24\u0d32", "place": "village", "wikidata": "Q6943898"}}, {"type": "node", "id": 3784392442, "lat": 10.8199001, "lon": 76.1468115, "tags": {"name": "Kodumunda", "name:ml": "\u0d15\u0d4a\u0d1f\u0d41\u0d2e\u0d41\u0d23\u0d4d\u0d1f", "place": "village", "wikidata": "Q30625696"}}, {"type": "node", "id": 3785711157, "lat": 10.8621644, "lon": 76.2273183, "tags": {"name": "Mulayankavu", "place": "village"}}, {"type": "node", "id": 3785754081, "lat": 10.8286118, "lon": 76.1676166, "tags": {"name": "Kozhikkottiri", "name:ml": "\u0d15\u0d4b\u0d34\u0d3f\u0d15\u0d4d\u0d15\u0d4b\u0d1f\u0d4d\u0d1f\u0d3f\u0d30\u0d3f", "place": "village"}}, {"type": "node", "id": 3787039114, "lat": 10.967975, "lon": 76.4018264, "tags": {"name": "Kulikkiliyad", "name:ml": "\u0d15\u0d41\u0d32\u0d3f\u0d15\u0d4d\u0d15\u0d3f\u0d32\u0d3f\u0d2f\u0d3e\u0d1f\u0d4d", "place": "village"}}, {"type": "node", "id": 3787047781, "lat": 10.8464114, "lon": 76.3451549, "tags": {"name": "Thrikkadeeri", "name:ml": "\u0d24\u0d43\u0d15\u0d4d\u0d15\u0d1f\u0d40\u0d30\u0d3f", "place": "village"}}, {"type": "node", "id": 3787047782, "lat": 10.8847958, "lon": 76.3442555, "tags": {"name": "Mangode", "place": "village"}}, {"type": "node", "id": 3787047783, "lat": 10.887788, "lon": 76.3689747, "tags": {"name": "Kulakkad", "name:ml": "\u0d15\u0d41\u0d33\u0d15\u0d4d\u0d15\u0d3e\u0d1f\u0d4d", "place": "village"}}, {"type": "node", "id": 3787047784, "lat": 10.9003721, "lon": 76.3449175, "tags": {"name": "Vellinezhi", "place": "village", "wikidata": "Q16902594"}}, {"type": "node", "id": 3787047785, "lat": 10.9325824, "lon": 76.416718, "tags": {"name": "Thottara", "name:ml": "\u0d24\u0d4b\u0d1f\u0d4d\u0d1f\u0d30", "place": "village"}}, {"type": "node", "id": 3791615408, "lat": 10.8488789, "lon": 76.2555573, "tags": {"name": "Vettukkad", "place": "village"}}, {"type": "node", "id": 3791615409, "lat": 10.833663, "lon": 76.2540553, "tags": {"name": "Mattaya", "place": "village"}}, {"type": "node", "id": 3791615410, "lat": 10.882111, "lon": 76.2380693, "tags": {"name": "Mappattukara", "name:ml": "\u0d2e\u0d2a\u0d4d\u0d2a\u0d3e\u0d1f\u0d4d\u0d1f\u0d41\u0d15\u0d30", "place": "village"}}, {"type": "node", "id": 3791615411, "lat": 10.8869575, "lon": 76.2353871, "tags": {"name": "Palathol", "name:ml": "\u0d2a\u0d3e\u0d32\u0d24\u0d4d\u0d24\u0d4b\u0d7e", "place": "village"}}, {"type": "node", "id": 3791615412, "lat": 10.9110623, "lon": 76.2283919, "tags": {"name": "Elamkulam", "name:ml": "\u0d0f\u0d32\u0d02\u0d15\u0d41\u0d33\u0d02", "place": "village"}}, {"type": "node", "id": 3791615413, "lat": 10.9205435, "lon": 76.202514, "tags": {"name": "T.N. Puram", "place": "village"}}, {"type": "node", "id": 3791615414, "lat": 10.9453408, "lon": 76.2267826, "tags": {"name": "Kunnappally", "name:ml": "\u0d15\u0d41\u0d28\u0d4d\u0d28\u0d2a\u0d4d\u0d2a\u0d33\u0d4d\u0d33\u0d3f", "place": "village", "town": "Perinthalmanna"}}, {"type": "node", "id": 3791615415, "lat": 10.9607617, "lon": 76.226847, "tags": {"name": "Chollonkunnu", "name:ml": "\u0d1a\u0d4b\u0d32\u0d15\u0d4d\u0d15\u0d41\u0d28\u0d4d\u0d28\u0d4d", "place": "village"}}, {"type": "node", "id": 3791615416, "lat": 10.9485852, "lon": 76.2428758, "tags": {"name": "Eravimangalam", "name:ml": "\u0d07\u0d30\u0d35\u0d3f\u0d2e\u0d02\u0d17\u0d32\u0d02", "place": "village"}}, {"type": "node", "id": 3791615417, "lat": 10.9413801, "lon": 76.2604282, "tags": {"name": "Odamala", "name:ml": "\u0d13\u0d1f\u0d2e\u0d32", "place": "village"}}, {"type": "node", "id": 3791615418, "lat": 10.9318364, "lon": 76.2659858, "tags": {"name": "Anamangad", "name:ml": "\u0d06\u0d28\u0d2e\u0d19\u0d4d\u0d19\u0d3e\u0d1f\u0d4d", "place": "village", "wikidata": "Q3878232"}}, {"type": "node", "id": 3791615419, "lat": 10.9138224, "lon": 76.287742, "tags": {"name": "Vettikkad", "name:ml": "\u0d35\u0d46\u0d1f\u0d4d\u0d1f\u0d3f\u0d15\u0d4d\u0d15\u0d3e\u0d1f\u0d4d", "place": "village"}}, {"type": "node", "id": 3791615420, "lat": 10.9122106, "lon": 76.2892011, "tags": {"name": "Thekkummuri", "name:ml": "\u0d24\u0d47\u0d15\u0d4d\u0d15\u0d41\u0d2e\u0d4d\u0d2e\u0d41\u0d31\u0d3f", "place": "village"}}, {"type": "node", "id": 3791701309, "lat": 10.9020232, "lon": 76.3272099, "tags": {"name": "Karumanakurussi", "place": "village"}}, {"type": "node", "id": 3791701310, "lat": 10.8899707, "lon": 76.3168976, "tags": {"name": "Mandakkari", "place": "village"}}, {"type": "node", "id": 3791701351, "lat": 10.8809679, "lon": 76.3588599, "tags": {"name": "Adakkaputhur", "name:ml": "\u0d05\u0d1f\u0d15\u0d4d\u0d15\u0d3e\u0d2a\u0d41\u0d24\u0d4d\u0d24\u0d42\u0d7c", "place": "village"}}, {"type": "node", "id": 3791701352, "lat": 10.8718752, "lon": 76.3566498, "tags": {"name": "Poothakkad", "name:ml": "\u0d2a\u0d42\u0d24\u0d15\u0d4d\u0d15\u0d3e\u0d1f\u0d4d", "place": "village"}}, {"type": "node", "id": 3791701353, "lat": 10.926427, "lon": 76.3582162, "tags": {"name": "Muriankanni", "name:ml": "\u0d2e\u0d41\u0d31\u0d3f\u0d2f\u0d19\u0d4d\u0d15\u0d23\u0d4d\u0d23\u0d3f", "place": "village"}}, {"type": "node", "id": 3791742759, "lat": 10.9290527, "lon": 76.353335, "tags": {"name": "Koorakottil", "name:ml": "\u0d15\u0d42\u0d30\u0d15\u0d4d\u0d15\u0d4b\u0d1f\u0d4d\u0d1f\u0d3f\u0d7d", "place": "village"}}, {"type": "node", "id": 3791742760, "lat": 10.9317705, "lon": 76.3430139, "tags": {"name": "Chethallur", "name:ml": "\u0d1a\u0d46\u0d24\u0d4d\u0d24\u0d32\u0d4d\u0d32\u0d42\u0d7c", "place": "village"}}, {"type": "node", "id": 3791742761, "lat": 10.9364898, "lon": 76.3356539, "tags": {"name": "Thachanatukkara", "name:ml": "\u0d24\u0d1a\u0d4d\u0d1a\u0d28\u0d3e\u0d1f\u0d4d\u0d1f\u0d41\u0d15\u0d30", "place": "village"}}, {"type": "node", "id": 3793714870, "lat": 10.8000007, "lon": 76.2341456, "tags": {"description": "Name correction", "name": "Pokkuppadi", "name:ml": "\u0d2a\u0d4b\u0d15\u0d4d\u0d15\u0d41\u0d2a\u0d4d\u0d2a\u0d1f\u0d3f", "place": "village"}}, {"type": "node", "id": 3833933683, "lat": 10.5620877, "lon": 76.1688914, "tags": {"name": "Amala Nagar", "name:ml": "\u0d05\u0d2e\u0d32\u0d28\u0d17\u0d7c", "place": "village"}}, {"type": "node", "id": 3858802369, "lat": 10.9780343, "lon": 76.1559415, "tags": {"name": "Puzhakkatiri", "name:ml": "\u0d2a\u0d41\u0d34\u0d15\u0d4d\u0d15\u0d3e\u0d1f\u0d4d\u0d1f\u0d3f\u0d30\u0d3f", "place": "village"}}, {"type": "node", "id": 3858804157, "lat": 10.9786907, "lon": 76.1691085, "tags": {"name": "Vazhippara", "name:ml": "\u0d35\u0d34\u0d3f\u0d2a\u0d4d\u0d2a\u0d3e\u0d31", "place": "village"}}, {"type": "node", "id": 3875693943, "lat": 10.784762, "lon": 76.1698511, "tags": {"name": "Nhangattiri", "name:ml": "\u0d1e\u0d3e\u0d19\u0d4d\u0d19\u0d3e\u0d1f\u0d4d\u0d1f\u0d3f\u0d30\u0d3f", "place": "village"}}, {"type": "node", "id": 4062091437, "lat": 10.9771438, "lon": 76.2017172, "tags": {"name": "Angadipuram", "name:ml": "\u0d05\u0d19\u0d4d\u0d19\u0d3e\u0d1f\u0d3f\u0d2a\u0d4d\u0d2a\u0d41\u0d31\u0d02", "place": "village", "postal_code": "679321", "wikidata": "Q4761915"}}, {"type": "node", "id": 4305017419, "lat": 10.9640561, "lon": 76.1846851, "tags": {"name": "Puthanangadi", "name:ml": "\u0d2a\u0d41\u0d24\u0d4d\u0d24\u0d28\u0d19\u0d4d\u0d19\u0d3e\u0d1f\u0d3f", "place": "village"}}, {"type": "node", "id": 4307194680, "lat": 10.7325236, "lon": 76.1603634, "tags": {"name": "Karukaputhur", "name:ml": "\u0d15\u0d31\u0d41\u0d15\u0d2a\u0d41\u0d24\u0d4d\u0d24\u0d42\u0d30\u0d4d\u200d", "place": "village", "wikidata": "Q6373618"}}, {"type": "node", "id": 4307194682, "lat": 10.7484364, "lon": 76.1849177, "tags": {"name": "Peringannur", "place": "village"}}, {"type": "node", "id": 4327608081, "lat": 10.6942894, "lon": 76.3395838, "tags": {"name": "Chelakkara", "name:ml": "\u0d1a\u0d47\u0d32\u0d15\u0d4d\u0d15\u0d30", "place": "village", "wikidata": "Q5089799"}}, {"type": "node", "id": 4376739857, "lat": 10.6392839, "lon": 76.1557929, "tags": {"name": "Velur", "name:ml": "\u0d35\u0d47\u0d32\u0d42\u0d7c", "place": "village", "wikidata": "Q7919351"}}, {"type": "node", "id": 4379264092, "lat": 10.9540934, "lon": 76.3209667, "tags": {"name": "Karinkallathani", "name:ml": "\u0d15\u0d30\u0d3f\u0d19\u0d4d\u0d15\u0d32\u0d4d\u0d32\u0d24\u0d4d\u0d24\u0d3e\u0d23\u0d3f", "place": "village", "wikidata": "Q6371052"}}, {"type": "node", "id": 4510130617, "lat": 10.8796294, "lon": 76.340033}, {"type": "node", "id": 4569962889, "lat": 10.848398, "lon": 76.463362, "tags": {"name": "Kunduvampadam", "place": "village"}}, {"type": "node", "id": 4572612063, "lat": 10.8540941, "lon": 76.4389052, "tags": {"name": "Alangad", "name:ml": "\u0d06\u0d32\u0d19\u0d4d\u0d19\u0d3e\u0d1f\u0d4d", "place": "village"}}, {"type": "node", "id": 4597676798, "lat": 10.9303714, "lon": 76.4882527, "tags": {"name": "Karakkurissi", "name:ml": "\u0d15\u0d3e\u0d30\u0d3e\u0d15\u0d4d\u0d15\u0d41\u0d31\u0d41\u0d36\u0d4d\u0d36\u0d3f", "place": "village"}}, {"type": "node", "id": 4597720456, "lat": 10.9236473, "lon": 76.4608288, "tags": {"name": "Elumbulasseri", "name:ml": "\u0d0e\u0d32\u0d2e\u0d4d\u0d2a\u0d41\u0d32\u0d3e\u0d36\u0d4d\u0d36\u0d47\u0d30\u0d3f", "place": "village"}}, {"type": "node", "id": 4597722036, "lat": 10.899908, "lon": 76.4831068, "tags": {"name": "Pulapetta", "name:ml": "\u0d2a\u0d41\u0d32\u0d3e\u0d2a\u0d4d\u0d2a\u0d31\u0d4d\u0d31", "place": "village"}}, {"type": "node", "id": 4597762167, "lat": 10.9330757, "lon": 76.4511583, "tags": {"name": "Pombra", "name:ml": "\u0d2a\u0d4a\u0d2e\u0d4d\u0d2a\u0d4d\u0d30", "place": "village"}}, {"type": "node", "id": 4597762965, "lat": 10.9475981, "lon": 76.5176242, "tags": {"name": "Ponnamkode", "name:ml": "\u0d2a\u0d4a\u0d28\u0d4d\u0d28\u0d19\u0d4d\u0d15\u0d4b\u0d1f\u0d4d", "place": "village"}}, {"type": "node", "id": 4597764595, "lat": 10.9663039, "lon": 76.4758664, "tags": {"name": "Pallikurup", "name:ml": "\u0d2a\u0d33\u0d4d\u0d33\u0d3f\u0d15\u0d4d\u0d15\u0d41\u0d31\u0d41\u0d2a\u0d4d\u0d2a\u0d4d", "place": "village"}}, {"type": "node", "id": 4597770966, "lat": 10.9539605, "lon": 76.4342976, "tags": {"name": "Changaleeri", "name:ml": "\u0d1a\u0d19\u0d4d\u0d19\u0d32\u0d40\u0d30\u0d3f", "place": "village"}}, {"type": "node", "id": 4599462500, "lat": 10.9533678, "lon": 76.3548367, "tags": {"name": "Attasseri", "name:ml": "\u0d06\u0d31\u0d4d\u0d31\u0d3e\u0d36\u0d4d\u0d36\u0d47\u0d30\u0d3f", "place": "village"}}, {"type": "node", "id": 4599488550, "lat": 10.9679144, "lon": 76.355646, "tags": {"name": "Nattukkal", "name:ml": "\u0d28\u0d3e\u0d1f\u0d4d\u0d1f\u0d41\u0d15\u0d7d", "place": "village"}}, {"type": "node", "id": 4603319450, "lat": 10.9202022, "lon": 76.5210835, "tags": {"name": "Karimba", "name:ml": "\u0d15\u0d30\u0d3f\u0d2e\u0d4d\u0d2a", "place": "village"}}, {"type": "node", "id": 4603328148, "lat": 10.9920678, "lon": 76.4713181, "tags": {"name": "Nottanmala", "name:ml": "\u0d28\u0d4a\u0d1f\u0d4d\u0d1f\u0d7b\u0d2e\u0d32", "place": "village"}}, {"type": "node", "id": 4603355048, "lat": 10.9427443, "lon": 76.3208671, "tags": {"name": "Poovathani", "name:ml": "\u0d2a\u0d42\u0d35\u0d24\u0d4d\u0d24\u0d3e\u0d28\u0d3f", "place": "village", "wikidata": "Q7228900"}}, {"type": "node", "id": 4603382329, "lat": 10.9473124, "lon": 76.2787176, "tags": {"name": "Odamala", "name:ml": "\u0d13\u0d1f\u0d2e\u0d32", "place": "village"}}, {"type": "node", "id": 4610399726, "lat": 10.9675179, "lon": 76.2688009, "tags": {"name": "Amminikkad", "name:ml": "\u0d05\u0d2e\u0d4d\u0d2e\u0d3f\u0d28\u0d3f\u0d15\u0d4d\u0d15\u0d3e\u0d1f\u0d4d", "place": "village"}}, {"type": "node", "id": 4624943911, "lat": 10.7869885, "lon": 76.2530044, "tags": {"name": "Vadanamkurussi", "name:ml": "\u0d35\u0d3e\u0d1f\u0d3e\u0d28\u0d02\u0d15\u0d41\u0d31\u0d41\u0d36\u0d4d\u0d36\u0d3f", "place": "village"}}, {"type": "node", "id": 4714573562, "lat": 10.9921556, "lon": 76.5322761, "tags": {"name": "Kanjirapuzha", "name:ml": "\u0d15\u0d3e\u0d1e\u0d4d\u0d1e\u0d3f\u0d30\u0d2a\u0d4d\u0d2a\u0d41\u0d34", "place": "village"}}, {"type": "node", "id": 4766090483, "lat": 10.6445858, "lon": 76.4090303, "tags": {"name": "Vennur", "place": "village", "wikidata": "Q7920158"}}, {"type": "node", "id": 4785512442, "lat": 10.5699067, "lon": 76.4864145, "tags": {"name": "Kizhakkencherry", "name:ml": "\u0d15\u0d3f\u0d34\u0d15\u0d4d\u0d15\u0d1e\u0d4d\u0d1a\u0d47\u0d30\u0d3f", "place": "village", "wikidata": "Q6419191", "wikipedia": "en:Kizhakkancherry"}}, {"type": "node", "id": 4824708209, "lat": 10.8549601, "lon": 76.3573998, "tags": {"name": "Attassery", "place": "village"}}, {"type": "node", "id": 4881575303, "lat": 10.7136003, "lon": 76.2910501, "tags": {"addr:postcode": "680583", "name": "Attur", "name:ml": "\u0d06\u0d31\u0d4d\u0d31\u0d42\u0d7c", "place": "village"}}, {"type": "node", "id": 5642918576, "lat": 10.7766309, "lon": 76.3610086, "tags": {"name": "Manava Nagar", "place": "village"}}, {"type": "node", "id": 6078992850, "lat": 10.5541958, "lon": 76.1732461, "tags": {"name": "Muthuvara", "name:kn": "\u0cae\u0cc1\u0ca4\u0cc1\u0cb5\u0cb0", "name:ml": "\u0d2e\u0d41\u0d24\u0d41\u0d35\u0d31", "place": "village", "wikidata": "Q6943902"}}, {"type": "node", "id": 6199188019, "lat": 10.5745886, "lon": 76.1621752, "tags": {"name": "Peramangalam", "name:ml": "\u0d2a\u0d47\u0d30\u0d3e\u0d2e\u0d02\u0d17\u0d32\u0d02", "place": "village", "wikidata": "Q7166906", "wikipedia": "en:Peramangalam"}}, {"type": "node", "id": 6355730882, "lat": 10.6129116, "lon": 76.5616668, "tags": {"name": "Kottekulam", "name:ml": "\u0d15\u0d4b\u0d1f\u0d4d\u0d1f\u0d47\u0d15\u0d4d\u0d15\u0d41\u0d33\u0d02", "name:ta": "\u0b95\u0bcb\u0b9f\u0bcd\u0b9f\u0bc7\u0b95\u0bcd\u0b95\u0bc1\u0bb3\u0bae\u0bcd", "place": "village"}}, {"type": "node", "id": 6415500503, "lat": 10.793007, "lon": 76.5196742, "tags": {"name": "Mankurussi", "name:ml": "\u0d2e\u0d3e\u0d19\u0d4d\u0d15\u0d41\u0d31\u0d3f\u0d36\u0d4d\u0d36\u0d3f", "place": "village", "wikidata": "Q6750564", "wikipedia": "en:Mankurussi"}}, {"type": "node", "id": 6930029709, "lat": 10.9915564, "lon": 76.1817244, "tags": {"name": "Tirurkkad", "name:ml": "\u0d24\u0d3f\u0d30\u0d42\u0d30\u0d4d\u200d\u0d15\u0d4d\u0d15\u0d3e\u0d1f\u0d4d", "place": "village"}}, {"type": "node", "id": 7017347936, "lat": 10.9421818, "lon": 76.2654834, "tags": {"place": "village"}}, {"type": "node", "id": 7017423535, "lat": 10.9445357, "lon": 76.2593335}, {"type": "node", "id": 7017423536, "lat": 10.9440675, "lon": 76.2602621}, {"type": "node", "id": 7017423537, "lat": 10.943722, "lon": 76.26004}, {"type": "node", "id": 7017423538, "lat": 10.9435014, "lon": 76.2605018}, {"type": "node", "id": 7017423539, "lat": 10.9429205, "lon": 76.2604743}, {"type": "node", "id": 7017423540, "lat": 10.9429107, "lon": 76.2601074}, {"type": "node", "id": 7017423541, "lat": 10.943119, "lon": 76.2600824}, {"type": "node", "id": 7017423542, "lat": 10.9431999, "lon": 76.259985}, {"type": "node", "id": 7017423543, "lat": 10.9434671, "lon": 76.2600849}, {"type": "node", "id": 7017423544, "lat": 10.9435063, "lon": 76.2599176}, {"type": "node", "id": 7017423545, "lat": 10.9432465, "lon": 76.2597978}, {"type": "node", "id": 7017423546, "lat": 10.9432342, "lon": 76.2595432}, {"type": "node", "id": 7017423547, "lat": 10.9433004, "lon": 76.2592361}, {"type": "node", "id": 7017423548, "lat": 10.9435725, "lon": 76.258984}, {"type": "node", "id": 7017423549, "lat": 10.9437391, "lon": 76.2588642}, {"type": "node", "id": 7017423550, "lat": 10.9440063, "lon": 76.2587818}, {"type": "node", "id": 7017423551, "lat": 10.9440602, "lon": 76.2591313}, {"type": "node", "id": 7017423552, "lat": 10.9440749, "lon": 76.2592935}, {"type": "node", "id": 7017423553, "lat": 10.9440357, "lon": 76.2594408}, {"type": "node", "id": 7017423554, "lat": 10.9442563, "lon": 76.2594908}, {"type": "node", "id": 7017423555, "lat": 10.9443739, "lon": 76.2594483}, {"type": "node", "id": 7017423556, "lat": 10.9444327, "lon": 76.259321}, {"type": "node", "id": 7017423557, "lat": 10.9436778, "lon": 76.2597429, "tags": {"place": "village"}}, {"type": "node", "id": 7017423558, "lat": 10.941242, "lon": 76.2657352}, {"type": "node", "id": 7017423559, "lat": 10.9412742, "lon": 76.2659938}, {"type": "node", "id": 7017423560, "lat": 10.9413951, "lon": 76.2659896}, {"type": "node", "id": 7017423561, "lat": 10.9415965, "lon": 76.2658953}, {"type": "node", "id": 7017423562, "lat": 10.9413951, "lon": 76.2662359}, {"type": "node", "id": 7017423563, "lat": 10.9416046, "lon": 76.2663672}, {"type": "node", "id": 7017423564, "lat": 10.9417376, "lon": 76.2661538}, {"type": "node", "id": 7017423565, "lat": 10.9419148, "lon": 76.2661456}, {"type": "node", "id": 7017423566, "lat": 10.9419511, "lon": 76.2659486}, {"type": "node", "id": 7017423567, "lat": 10.942209, "lon": 76.2659035}, {"type": "node", "id": 7017423568, "lat": 10.94235, "lon": 76.266084}, {"type": "node", "id": 7017423569, "lat": 10.9423621, "lon": 76.26624}, {"type": "node", "id": 7017423570, "lat": 10.9425071, "lon": 76.2662236}, {"type": "node", "id": 7017423571, "lat": 10.9426078, "lon": 76.2662277}, {"type": "node", "id": 7017423572, "lat": 10.9425958, "lon": 76.2665149}, {"type": "node", "id": 7017423573, "lat": 10.9425152, "lon": 76.2666093}, {"type": "node", "id": 7017423574, "lat": 10.9425192, "lon": 76.2667242}, {"type": "node", "id": 7017423575, "lat": 10.9426683, "lon": 76.2667776}, {"type": "node", "id": 7017423576, "lat": 10.9428657, "lon": 76.2668227}, {"type": "node", "id": 7017423577, "lat": 10.9428335, "lon": 76.2664452}, {"type": "node", "id": 7017423578, "lat": 10.9428254, "lon": 76.2662482}, {"type": "node", "id": 7017423579, "lat": 10.9429705, "lon": 76.266203}, {"type": "node", "id": 7017423580, "lat": 10.943047, "lon": 76.2661456}, {"type": "node", "id": 7017423581, "lat": 10.9430148, "lon": 76.2660102}, {"type": "node", "id": 7017423582, "lat": 10.943039, "lon": 76.2657927}, {"type": "node", "id": 7017423583, "lat": 10.9431236, "lon": 76.2656367}, {"type": "node", "id": 7017423584, "lat": 10.9431639, "lon": 76.2654849}, {"type": "node", "id": 7017427485, "lat": 10.9431639, "lon": 76.2654069}, {"type": "node", "id": 7017427486, "lat": 10.9426159, "lon": 76.265411}, {"type": "node", "id": 7017427487, "lat": 10.9424185, "lon": 76.2654439}, {"type": "node", "id": 7017427488, "lat": 10.9423178, "lon": 76.2652305}, {"type": "node", "id": 7017427489, "lat": 10.9427489, "lon": 76.2653207}, {"type": "node", "id": 7017427490, "lat": 10.9429785, "lon": 76.2652838}, {"type": "node", "id": 7017427491, "lat": 10.943051, "lon": 76.2648899}, {"type": "node", "id": 7017427492, "lat": 10.9431075, "lon": 76.264459}, {"type": "node", "id": 7017427493, "lat": 10.9430551, "lon": 76.2642661}, {"type": "node", "id": 7017427494, "lat": 10.9430954, "lon": 76.2640773}, {"type": "node", "id": 7017427495, "lat": 10.942769, "lon": 76.2640199}, {"type": "node", "id": 7017427496, "lat": 10.9428738, "lon": 76.2638762}, {"type": "node", "id": 7017427497, "lat": 10.9427207, "lon": 76.2637736}, {"type": "node", "id": 7017427498, "lat": 10.9423862, "lon": 76.2639419}, {"type": "node", "id": 7017427499, "lat": 10.942209, "lon": 76.2642045}, {"type": "node", "id": 7086614514, "lat": 10.7776073, "lon": 76.3439798, "tags": {"name": "Manisseri", "name:ml": "\u0d2e\u0d23\u0d3f\u0d36\u0d4d\u0d36\u0d47\u0d30\u0d3f", "place": "village"}}, {"type": "node", "id": 7270992228, "lat": 10.6951012, "lon": 76.3287906}, {"type": "node", "id": 7270992229, "lat": 10.6997187, "lon": 76.3261084}, {"type": "node", "id": 7270992230, "lat": 10.7063814, "lon": 76.3281898}, {"type": "node", "id": 7270992231, "lat": 10.7088693, "lon": 76.3308934}, {"type": "node", "id": 7270992232, "lat": 10.7109145, "lon": 76.3333396}, {"type": "node", "id": 7270992233, "lat": 10.7078784, "lon": 76.3382749}, {"type": "node", "id": 7270992234, "lat": 10.7085741, "lon": 76.3424591}, {"type": "node", "id": 7270992235, "lat": 10.7069507, "lon": 76.3451843}, {"type": "node", "id": 7270992236, "lat": 10.7049266, "lon": 76.3486389}, {"type": "node", "id": 7270992237, "lat": 10.7044627, "lon": 76.3520507}, {"type": "node", "id": 7270992238, "lat": 10.701785, "lon": 76.3565783}, {"type": "node", "id": 7270992239, "lat": 10.6990862, "lon": 76.3588742}, {"type": "node", "id": 7270992240, "lat": 10.6963663, "lon": 76.3625435}, {"type": "node", "id": 7270992241, "lat": 10.6926342, "lon": 76.3614921}, {"type": "node", "id": 7270992242, "lat": 10.6901883, "lon": 76.3611273}, {"type": "node", "id": 7270992243, "lat": 10.6865195, "lon": 76.3612024}, {"type": "node", "id": 7270992244, "lat": 10.6838943, "lon": 76.3570611}, {"type": "node", "id": 7270992245, "lat": 10.6837784, "lon": 76.3551835}, {"type": "node", "id": 7270992246, "lat": 10.6807736, "lon": 76.3522546}, {"type": "node", "id": 7270992247, "lat": 10.6781062, "lon": 76.3497226}, {"type": "node", "id": 7270992248, "lat": 10.6776318, "lon": 76.3481561}, {"type": "node", "id": 7270992249, "lat": 10.6779165, "lon": 76.3469545}, {"type": "node", "id": 7270992250, "lat": 10.6794452, "lon": 76.3447229}, {"type": "node", "id": 7270992251, "lat": 10.6815011, "lon": 76.3433711}, {"type": "node", "id": 7270992252, "lat": 10.6826081, "lon": 76.3435857}, {"type": "node", "id": 7270992253, "lat": 10.6836518, "lon": 76.341515}, {"type": "node", "id": 7270992254, "lat": 10.684548, "lon": 76.3410644}, {"type": "node", "id": 7270992255, "lat": 10.6858553, "lon": 76.3391332}, {"type": "node", "id": 7270992256, "lat": 10.6891868, "lon": 76.3343159}, {"type": "node", "id": 7270992257, "lat": 10.6920649, "lon": 76.331269}, {"type": "node", "id": 7384355048, "lat": 10.8908254, "lon": 76.1547287, "tags": {"name": "edappalam", "place": "village"}}, {"type": "node", "id": 7384604295, "lat": 10.8696956, "lon": 76.1470062, "tags": {"name": "koorkaparamba", "place": "village"}}, {"type": "node", "id": 7389331846, "lat": 10.8798014, "lon": 76.3319882, "tags": {"addr:street": "Palakkad-Perintalmanna Road", "place": "village"}}, {"type": "node", "id": 7391407061, "lat": 10.6382052, "lon": 76.2116068, "tags": {"name": "Thiruthiparambu", "name:ml": "\u0d24\u0d3f\u0d30\u0d41\u0d24\u0d4d\u0d24\u0d3f\u0d2a\u0d31\u0d2e\u0d4d\u0d2a\u0d4d", "place": "village"}}, {"type": "node", "id": 7416380403, "lat": 10.6925173, "lon": 76.3308955}, {"type": "node", "id": 7481872168, "lat": 10.7797383, "lon": 76.1649132, "tags": {"name": "Mattaya", "name:ml": "\u0d2e\u0d3e\u0d1f\u0d4d\u0d1f\u0d3e\u0d2f", "place": "village"}}, {"type": "node", "id": 7488875062, "lat": 10.8064925, "lon": 76.2282579}, {"type": "node", "id": 7488875063, "lat": 10.8065347, "lon": 76.2273353}, {"type": "node", "id": 7488875064, "lat": 10.8061764, "lon": 76.2264126}, {"type": "node", "id": 7488875065, "lat": 10.8067874, "lon": 76.2253824}, {"type": "node", "id": 7488875066, "lat": 10.8077111, "lon": 76.224522}, {"type": "node", "id": 7488875067, "lat": 10.8086424, "lon": 76.2240093}, {"type": "node", "id": 7488875068, "lat": 10.8095276, "lon": 76.2224429}, {"type": "node", "id": 7488875069, "lat": 10.8107922, "lon": 76.2210911}, {"type": "node", "id": 7488875070, "lat": 10.8119304, "lon": 76.2201469}, {"type": "node", "id": 7488875071, "lat": 10.8126681, "lon": 76.2206834}, {"type": "node", "id": 7488875072, "lat": 10.813195, "lon": 76.2217134}, {"type": "node", "id": 7488875073, "lat": 10.8127945, "lon": 76.2231725}, {"type": "node", "id": 7488875074, "lat": 10.8123941, "lon": 76.2242239}, {"type": "node", "id": 7488875075, "lat": 10.8134057, "lon": 76.2243741}, {"type": "node", "id": 7488875076, "lat": 10.8141645, "lon": 76.2250608}, {"type": "node", "id": 7488875077, "lat": 10.814312, "lon": 76.2266272}, {"type": "node", "id": 7488875078, "lat": 10.8139959, "lon": 76.2278932}, {"type": "node", "id": 7488875079, "lat": 10.814038, "lon": 76.2291163}, {"type": "node", "id": 7488875080, "lat": 10.8136376, "lon": 76.2300389}, {"type": "node", "id": 7488875081, "lat": 10.8130053, "lon": 76.2309187}, {"type": "node", "id": 7488875082, "lat": 10.8121411, "lon": 76.2309187}, {"type": "node", "id": 7488875083, "lat": 10.8102653, "lon": 76.2306612}, {"type": "node", "id": 7488875084, "lat": 10.8099281, "lon": 76.230747}, {"type": "node", "id": 7488877285, "lat": 10.8090428, "lon": 76.2299746}, {"type": "node", "id": 7488877286, "lat": 10.8085792, "lon": 76.2296742}, {"type": "node", "id": 7488877287, "lat": 10.8079258, "lon": 76.2292879}, {"type": "node", "id": 7488877288, "lat": 10.8073778, "lon": 76.2290519}, {"type": "node", "id": 7488877289, "lat": 10.8067033, "lon": 76.2287944}, {"type": "node", "id": 7802846863, "lat": 10.8704371, "lon": 76.3285398}, {"type": "node", "id": 7802846864, "lat": 10.868393, "lon": 76.3283467}, {"type": "node", "id": 7802846865, "lat": 10.8601534, "lon": 76.3466286}, {"type": "node", "id": 7802846866, "lat": 10.880012, "lon": 76.3486104}, {"type": "node", "id": 7802846867, "lat": 10.8834596, "lon": 76.3343977}, {"type": "node", "id": 7802876926, "lat": 10.8798207, "lon": 76.3443217}, {"type": "node", "id": 7802876927, "lat": 10.8842555, "lon": 76.3437008}, {"type": "node", "id": 8387155021, "lat": 10.9161963, "lon": 76.4683262, "tags": {"name": "Vakkadappuram", "name:ml": "\u0d35\u0d3e\u0d15\u0d4d\u0d15\u0d1f\u0d2a\u0d4d\u0d2a\u0d41\u0d31\u0d02", "place": "village"}}, {"type": "node", "id": 8440387967, "lat": 10.980598, "lon": 76.4885462, "tags": {"name": "Kottiyode", "name:ml": "\u0d15\u0d4b\u0d31\u0d4d\u0d31\u0d3f\u0d2f\u0d4b\u0d1f\u0d4d", "place": "village"}}, {"type": "node", "id": 8875508659, "lat": 10.8755777, "lon": 76.3481679}, {"type": "node", "id": 9278134998, "lat": 10.9022285, "lon": 76.3687656, "tags": {"name": "Kizhakkepurakal Colony", "place": "village"}}, {"type": "node", "id": 9278139090, "lat": 10.9010038, "lon": 76.3656985, "tags": {"name": "Thekkepurakal Colony", "place": "village"}}, {"type": "node", "id": 9278209738, "lat": 10.8943258, "lon": 76.3777178, "tags": {"name": "Ayyapamparmbu Colony", "place": "village"}}, {"type": "node", "id": 9278519359, "lat": 10.9237649, "lon": 76.3607432, "tags": {"name": "Alariyod Colony", "place": "village"}}, {"type": "node", "id": 9278519555, "lat": 10.8942229, "lon": 76.3913065, "tags": {"name": "Kappil kunnu colony", "place": "village"}}, {"type": "node", "id": 9278537473, "lat": 10.8980635, "lon": 76.3842112, "tags": {"name": "Kizhakepurakkal colony", "place": "village"}}, {"type": "node", "id": 9278682934, "lat": 10.8964063, "lon": 76.3799324, "tags": {"name": "Kunnath colony", "place": "village"}}, {"type": "node", "id": 9278742686, "lat": 10.8938929, "lon": 76.360145, "tags": {"name": "Cholakunu Colony", "place": "village"}}, {"type": "node", "id": 9278772048, "lat": 10.8946567, "lon": 76.3587153, "tags": {"name": "Chokkathupalliyal colony", "place": "village"}}, {"type": "node", "id": 9279991304, "lat": 10.9112401, "lon": 76.351968, "tags": {"name": "Kalarikal Colony", "place": "village"}}, {"type": "node", "id": 9464236982, "lat": 10.6339208, "lon": 76.4498395, "tags": {"alt_name": "Puducode", "name": "Puthucode", "name:ml": "\u0d2a\u0d41\u0d24\u0d41\u0d15\u0d4d\u0d15\u0d4b\u0d1f\u0d4d", "place": "village", "wikidata": "Q7258373"}}, {"type": "node", "id": 9787353199, "lat": 10.9899451, "lon": 76.226572}, {"type": "node", "id": 9787353200, "lat": 10.9904163, "lon": 76.2291881}, {"type": "node", "id": 9787353201, "lat": 10.9907351, "lon": 76.2304304}, {"type": "node", "id": 9787353202, "lat": 10.9926695, "lon": 76.2312921}, {"type": "node", "id": 9787353204, "lat": 10.9938532, "lon": 76.2343569}, {"type": "node", "id": 9787353205, "lat": 10.9959923, "lon": 76.2361853}, {"type": "node", "id": 9787353206, "lat": 10.9996764, "lon": 76.2340356}, {"type": "node", "id": 9787353207, "lat": 11.0000919, "lon": 76.230249}, {"type": "node", "id": 9787353208, "lat": 10.9984298, "lon": 76.2293427}, {"type": "node", "id": 9787353209, "lat": 10.9963069, "lon": 76.2289131}, {"type": "node", "id": 9787353210, "lat": 10.9964318, "lon": 76.2267977}, {"type": "node", "id": 9787353211, "lat": 10.9965501, "lon": 76.2247101}, {"type": "node", "id": 9787353212, "lat": 10.9957883, "lon": 76.2222269}, {"type": "node", "id": 9787353213, "lat": 10.9945635, "lon": 76.2209346}, {"type": "node", "id": 9787353214, "lat": 10.989979, "lon": 76.2265307}, {"type": "node", "id": 9789540186, "lat": 10.9934442, "lon": 76.2318386}, {"type": "node", "id": 9839215108, "lat": 10.9933963, "lon": 76.2255264, "tags": {"name": "Manathumangalam", "name:ml": "\u0d2e\u0d3e\u0d28\u0d24\u0d4d\u0d24\u0d41\u0d2e\u0d02\u0d17\u0d32\u0d02", "place": "village", "wikidata": "Q6747073", "wikipedia": "en:Manathmangalam"}}, {"type": "node", "id": 9840105611, "lat": 10.9883301, "lon": 76.2388801, "tags": {"name": "Ponniakurussi", "name:ml": "\u0d2a\u0d4a\u0d28\u0d4d\u0d28\u0d4d\u0d2f\u0d3e\u0d15\u0d4d\u0d15\u0d41\u0d31\u0d41\u0d36\u0d4d\u0d36\u0d3f", "place": "village"}}, {"type": "node", "id": 9840119021, "lat": 10.9908488, "lon": 76.2315535, "tags": {"addr:district": "Malappuram", "addr:state": "Kerala", "addr:subdistrict": "Perinthalmanna", "addr:town": "Perinthalmanna", "name": "Kakkooth", "name:ml": "\u0d15\u0d15\u0d4d\u0d15\u0d42\u0d24\u0d4d\u0d24\u0d4d", "place": "village"}}, {"type": "node", "id": 9840167178, "lat": 10.989196, "lon": 76.2210277, "tags": {"name": "Cheerattamanna", "name:ml": "\u0d1a\u0d40\u0d30\u0d1f\u0d4d\u0d1f\u0d2e\u0d23\u0d4d\u0d23", "place": "village"}}, {"type": "node", "id": 10182080502, "lat": 10.9151375, "lon": 76.3976058, "tags": {"name": "Valambalimamgalam", "place": "village"}}, {"type": "node", "id": 10578825859, "lat": 10.9576555, "lon": 76.507859, "tags": {"name": "Thachampara", "name:ml": "\u0d24\u0d1a\u0d4d\u0d1a\u0d2e\u0d4d\u0d2a\u0d3e\u0d31", "place": "village"}}, {"type": "node", "id": 10857656602, "lat": 10.5529559, "lon": 76.2151953, "tags": {"name": "Viyyur", "name:ml": "\u0d35\u0d3f\u0d2f\u0d4d\u0d2f\u0d42\u0d7c", "place": "village"}}, {"type": "node", "id": 10857656603, "lat": 10.6429829, "lon": 76.1857287, "tags": {"name": "Mundathikode", "name:ml": "\u0d2e\u0d41\u0d23\u0d4d\u0d1f\u0d24\u0d4d\u0d24\u0d3f\u0d15\u0d4d\u0d15\u0d4b\u0d1f\u0d4d", "place": "village"}}, {"type": "node", "id": 10921015186, "lat": 10.7411533, "lon": 76.510943, "tags": {"name": "Maniyampara", "name:ml": "\u0d2e\u0d23\u0d3f\u0d2f\u0d2e\u0d4d\u0d2a\u0d3e\u0d31", "place": "village"}}, {"type": "node", "id": 10993262492, "lat": 10.9688452, "lon": 76.2448309, "tags": {"name": "Pathaikkara", "name:ml": "\u0d2a\u0d3e\u0d24\u0d3e\u0d15\u0d4d\u0d15\u0d30", "place": "village", "postal_code": "679322", "taluk": "Perinthalmanna"}}, {"type": "node", "id": 10993656138, "lat": 10.9575199, "lon": 76.2994829, "tags": {"name": "Thazhekkode", "name:ml": "\u0d24\u0d3e\u0d34\u0d46\u0d15\u0d4d\u0d15\u0d4b\u0d1f\u0d4d", "place": "village", "postal_code": "679341"}}, {"type": "node", "id": 11002733844, "lat": 10.9208814, "lon": 76.3188149, "tags": {"name": "Aliparamba", "name:ml": "\u0d06\u0d32\u0d3f\u0d2a\u0d4d\u0d2a\u0d31\u0d2e\u0d4d\u0d2a\u0d4d", "place": "village"}}, {"type": "node", "id": 11292954032, "lat": 10.5562009, "lon": 76.2902933, "tags": {"name": "Chirakkakkode", "name:ml": "\u0d1a\u0d3f\u0d31\u0d15\u0d4d\u0d15\u0d3e\u0d15\u0d4d\u0d15\u0d4b\u0d1f\u0d4d", "place": "village"}}, {"type": "node", "id": 11292954033, "lat": 10.5565348, "lon": 76.2640048, "tags": {"name": "Madakkathara", "name:ml": "\u0d2e\u0d3e\u0d1f\u0d15\u0d4d\u0d15\u0d24\u0d4d\u0d24\u0d31", "place": "village", "wikidata": "Q15243400", "wikipedia": "en:Madakkathara"}}, {"type": "node", "id": 11292954034, "lat": 10.5741927, "lon": 76.2557255, "tags": {"name": "Kurichikkara", "name:ml": "\u0d15\u0d41\u0d31\u0d3f\u0d1a\u0d4d\u0d1a\u0d3f\u0d15\u0d4d\u0d15\u0d30", "place": "village", "wikidata": "Q6445985", "wikipedia": "en:Kurichikkara"}}, {"type": "node", "id": 11292954036, "lat": 10.5991159, "lon": 76.2709717, "tags": {"name": "Kundukad", "name:ml": "\u0d15\u0d41\u0d23\u0d4d\u0d1f\u0d41\u0d15\u0d3e\u0d1f\u0d4d", "place": "village"}}, {"type": "node", "id": 11292954037, "lat": 10.636176, "lon": 76.2797897, "tags": {"name": "Manalithara", "name:ml": "\u0d2e\u0d23\u0d32\u0d3f\u0d24\u0d4d\u0d24\u0d31", "place": "village", "wikidata": "Q6746840", "wikipedia": "en:Manalithara"}}, {"type": "node", "id": 11292954038, "lat": 10.5757434, "lon": 76.3824959, "tags": {"name": "Kuthiran", "name:ml": "\u0d15\u0d41\u0d24\u0d3f\u0d30\u0d3e\u0d7b\u200c\u0d2e\u0d32", "name:ta": "\u0b95\u0bc1\u0ba4\u0bbf\u0bb0\u0ba9\u0bcd", "place": "village", "wikidata": "Q6448436", "wikipedia": "en:Kuthiran"}}, {"type": "node", "id": 11292954039, "lat": 10.5778145, "lon": 76.4073493, "tags": {"name": "Vaniyampara", "name:ml": "\u0d35\u0d3e\u0d23\u0d3f\u0d2f\u0d2e\u0d4d\u0d2a\u0d3e\u0d31", "place": "village"}}, {"type": "node", "id": 11292954041, "lat": 10.7137987, "lon": 76.2209546, "tags": {"name": "Varavoor", "name:ml": "\u0d35\u0d30\u0d35\u0d42\u0d7c", "place": "village"}}, {"type": "node", "id": 11739546465, "lat": 10.5909457, "lon": 76.517154, "tags": {"name": "Mudappallur", "name:ml": "\u0d2e\u0d41\u0d1f\u0d2a\u0d4d\u0d2a\u0d32\u0d4d\u0d32\u0d42\u0d7c", "name:ta": "\u0bae\u0bc1\u0b9f\u0baa\u0bcd\u0baa\u0bb2\u0bcd\u0bb2\u0bc2\u0bb0\u0bcd", "place": "village"}}, {"type": "node", "id": 11739546466, "lat": 10.5903193, "lon": 76.4548245, "tags": {"name": "Panniyankara", "name:ml": "\u0d2a\u0d28\u0d4d\u0d28\u0d3f\u0d2f\u0d19\u0d4d\u0d15\u0d30", "place": "village"}}, {"type": "node", "id": 11980360885, "lat": 10.9844576, "lon": 76.4825331, "tags": {"name": "Viyyakurissi", "name:ml": "\u0d35\u0d3f\u0d2f\u0d4d\u0d2f\u0d15\u0d4d\u0d15\u0d41\u0d31\u0d3f\u0d36\u0d4d\u0d36\u0d3f", "place": "village"}}, {"type": "node", "id": 11980360886, "lat": 10.9454307, "lon": 76.4068935, "tags": {"name": "Kottapuram", "name:ml": "\u0d15\u0d4b\u0d1f\u0d4d\u0d1f\u0d2a\u0d4d\u0d2a\u0d41\u0d31\u0d02", "place": "village"}}, {"type": "node", "id": 11980360887, "lat": 10.9852154, "lon": 76.4249391, "tags": {"name": "Kumaramputhur", "name:ml": "\u0d15\u0d41\u0d2e\u0d30\u0d2e\u0d4d\u0d2a\u0d41\u0d24\u0d4d\u0d24\u0d42\u0d7c", "place": "village"}}, {"type": "node", "id": 12073789374, "lat": 10.6681526, "lon": 76.5173672}, {"type": "node", "id": 12073789375, "lat": 10.6676187, "lon": 76.5168706}, {"type": "node", "id": 12073789376, "lat": 10.6665799, "lon": 76.5171316}, {"type": "node", "id": 12073789377, "lat": 10.6664861, "lon": 76.5175044}, {"type": "node", "id": 12073789378, "lat": 10.6664275, "lon": 76.5182807}, {"type": "node", "id": 12073789379, "lat": 10.6665694, "lon": 76.5191382}, {"type": "node", "id": 12073789380, "lat": 10.6677712, "lon": 76.5191351}, {"type": "node", "id": 12073789381, "lat": 10.6670172, "lon": 76.5167375}, {"type": "node", "id": 12073789382, "lat": 10.6682233, "lon": 76.5183639}, {"type": "node", "id": 12159079419, "lat": 10.8646946, "lon": 76.3365527}, {"type": "way", "id": 750502473, "nodes": [7017423535, 7017423536, 7017423537, 7017423538, 7017423539, 7017423540, 7017423541, 7017423542, 7017423543, 7017423544, 7017423545, 7017423546, 7017423547, 7017423548, 7017423549, 7017423550, 7017423551, 7017423552, 7017423553, 7017423554, 7017423555, 7017423556, 7017423535], "tags": {"place": "village"}}, {"type": "way", "id": 750502474, "nodes": [7017423558, 7017423559, 7017423560, 7017423561, 7017423562, 7017423563, 7017423564, 7017423565, 7017423566, 7017423567, 7017423568, 7017423569, 7017423570, 7017423571, 7017423572, 7017423573, 7017423574, 7017423575, 7017423576, 7017423577, 7017423578, 7017423579, 7017423580, 7017423581, 7017423582, 7017423583, 7017423584, 7017427485, 7017427486, 7017427487, 7017427488, 7017427489, 7017427490, 7017427491, 7017427492, 7017427493, 7017427494, 7017427495, 7017427496, 7017427497, 7017427498, 7017427499, 7017423558], "tags": {"place": "village"}}, {"type": "way", "id": 778744903, "nodes": [7270992228, 7270992229, 7270992230, 7270992231, 7270992232, 7270992233, 7270992234, 7270992235, 7270992236, 7270992237, 7270992238, 7270992239, 7270992240, 7270992241, 7270992242, 7270992243, 7270992244, 7270992245, 7270992246, 7270992247, 7270992248, 7270992249, 7270992250, 7270992251, 7270992252, 7270992253, 7270992254, 7270992255, 7270992256, 7270992257, 7416380403, 7270992228], "tags": {"name": "Chelakkara", "place": "village"}}, {"type": "way", "id": 800679608, "nodes": [7488875062, 7488875063, 7488875064, 7488875065, 7488875066, 7488875067, 7488875068, 7488875069, 7488875070, 7488875071, 7488875072, 7488875073, 7488875074, 7488875075, 7488875076, 7488875077, 7488875078, 7488875079, 7488875080, 7488875081, 7488875082, 7488875083, 7488875084, 7488877285, 7488877286, 7488877287, 7488877288, 7488877289, 7488875062], "tags": {"name": "Kalladipatta", "place": "village"}}, {"type": "way", "id": 835981563, "nodes": [7802846863, 7802846864, 12159079419, 7802846865, 8875508659, 7802846866, 7802876926, 7802876927, 4510130617, 7802846867, 7802846863], "tags": {"name": "Veeramangalam", "name:ml": "\u0d35\u0d40\u0d30\u0d2e\u0d02\u0d17\u0d32\u0d02", "place": "village"}}, {"type": "way", "id": 1065777278, "nodes": [9787353199, 9787353200, 9787353201, 9787353202, 9789540186, 9787353204, 9787353205, 9787353206, 9787353207, 9787353208, 9787353209, 9787353210, 9787353211, 9787353212, 9787353213, 9787353214, 9787353199], "tags": {"name": "Manathumangalam", "name:ml": "\u0d2e\u0d3e\u0d28\u0d24\u0d4d\u0d24\u0d41\u0d2e\u0d02\u0d17\u0d32\u0d02", "place": "village", "wikidata": "Q6747073", "wikipedia": "en:Manathmangalam"}}, {"type": "way", "id": 1303730668, "nodes": [12073789374, 12073789375, 12073789381, 12073789376, 12073789377, 12073789378, 12073789379, 12073789380, 12073789382, 12073789374], "tags": {"name": "Pathanapuram", "place": "village", "population": "1000"}}]}