{"version": 0.6, "generator": "Overpass API 0.7.62.1 084b4234", "osm3s": {"timestamp_osm_base": "2024-11-07T07:12:16Z", "copyright": "The data included in this document is from www.openstreetmap.org. The data is made available under ODbL."}, "elements": [{"type": "node", "id": 245585351, "lat": 9.8971614, "lon": 77.2797184, "tags": {"name": "Tevaram", "name:ml": "\u0d24\u0d47\u0d35\u0d3e\u0d30\u0d02", "name:ta": "\u0ba4\u0bc7\u0bb5\u0bbe\u0bb0\u0bae\u0bcd", "place": "village", "postal_code": "626530"}}, {"type": "node", "id": 353280830, "lat": 10.0656229, "lon": 77.107671, "tags": {"name": "Devikulam", "name:ml": "\u0d26\u0d47\u0d35\u0d3f\u0d15\u0d41\u0d33\u0d02", "name:ta": "\u0ba4\u0bc7\u0bb5\u0bbf\u0b95\u0bc1\u0bb3\u0bae\u0bcd", "place": "village", "population": "5000", "postal_code": "685613", "wikidata": "Q3530950", "wikimedia_commons": "Category:Devikulam", "wikipedia": "en:Devikulam"}}, {"type": "node", "id": 353422012, "lat": 10.0558269, "lon": 77.3125066, "tags": {"name": "Munthal", "name:ml": "\u0d2e\u0d28\u0d4d\u0d24\u0d7d", "name:ta": "\u0bae\u0ba8\u0bcd\u0ba4\u0bb2\u0bcd", "place": "village"}}, {"type": "node", "id": 560838006, "lat": 10.0497844, "lon": 77.0514777, "tags": {"name": "Pallivasal", "name:ml": "\u0d2a\u0d33\u0d4d\u0d33\u0d3f\u0d35\u0d3e\u0d38\u0d32\u0d4d\u200d", "name:ta": "\u0baa\u0bb3\u0bcd\u0bb3\u0bbf\u0bb5\u0bbe\u0b9a\u0bb2\u0bcd", "place": "village", "wikidata": "Q7127927", "wikipedia": "en:Pallivasal"}}, {"type": "node", "id": 582516426, "lat": 9.9775725, "lon": 77.2073032, "tags": {"name": "Poopara", "name:ml": "\u0d2a\u0d42\u0d2a\u0d4d\u0d2a\u0d3e\u0d31", "name:ta": "\u0baa\u0bc2\u0baa\u0bcd\u0baa\u0bbe\u0bb1\u0bc8", "place": "village", "wikidata": "Q7228749", "wikipedia": "en:Poopara"}}, {"type": "node", "id": 983262371, "lat": 9.8101646, "lon": 77.3260809}, {"type": "node", "id": 983262519, "lat": 9.8079052, "lon": 77.3313411}, {"type": "node", "id": 983262673, "lat": 9.8078388, "lon": 77.3373431}, {"type": "node", "id": 983262723, "lat": 9.7974055, "lon": 77.3237206}, {"type": "node", "id": 983262855, "lat": 9.8064433, "lon": 77.3271599}, {"type": "node", "id": 983263071, "lat": 9.8091014, "lon": 77.3290482}, {"type": "node", "id": 983263164, "lat": 9.8053219, "lon": 77.3293823}, {"type": "node", "id": 983263329, "lat": 9.6793174, "lon": 77.2436946, "tags": {"name": "Gudalur", "name:en": "Gudalur", "name:ja": "\u30af\u30fc\u30c0\u30eb\u30fc\u30eb", "name:ml": "\u0d17\u0d42\u0d21\u0d32\u0d4d\u0d32\u0d42\u0d7c", "name:ta": "\u0b95\u0bc2\u0b9f\u0bb2\u0bc2\u0bb0\u0bcd", "place": "village"}}, {"type": "node", "id": 983263379, "lat": 9.7961429, "lon": 77.3241926}, {"type": "node", "id": 983263542, "lat": 9.8039181, "lon": 77.3274297}, {"type": "node", "id": 983263641, "lat": 9.8073736, "lon": 77.340715}, {"type": "node", "id": 983263722, "lat": 9.8112279, "lon": 77.3279017}, {"type": "node", "id": 983263946, "lat": 9.80538, "lon": 77.3345107}, {"type": "node", "id": 983264171, "lat": 9.7966745, "lon": 77.3272948}, {"type": "node", "id": 983264364, "lat": 9.7998644, "lon": 77.3256088}, {"type": "node", "id": 983264592, "lat": 9.8043168, "lon": 77.3365339}, {"type": "node", "id": 983264912, "lat": 9.8006618, "lon": 77.3285761}, {"type": "node", "id": 983265066, "lat": 9.8082375, "lon": 77.3337014}, {"type": "node", "id": 983265275, "lat": 9.8081711, "lon": 77.3392314}, {"type": "node", "id": 983265351, "lat": 9.8052471, "lon": 77.3377477}, {"type": "node", "id": 1168848602, "lat": 10.0198909, "lon": 77.264551, "tags": {"name": "Bodimettu", "name:ml": "\u0d2c\u0d4b\u0d1f\u0d3f\u0d2e\u0d46\u0d1f\u0d4d\u0d1f\u0d4d", "name:ta": "\u0baa\u0bcb\u0b9f\u0bbf\u0bae\u0bc6\u0b9f\u0bcd\u0b9f\u0bc1", "place": "village"}}, {"type": "node", "id": 1667516170, "lat": 9.6478224, "lon": 77.1649081, "tags": {"name": "6th Mile", "name:ml": "6-\u0d3e\u0d02 \u0d2e\u0d48\u0d7d", "place": "village"}}, {"type": "node", "id": 1667521973, "lat": 9.6967479, "lon": 77.1617582, "tags": {"name": "Puttady", "name:ml": "\u0d2a\u0d41\u0d31\u0d4d\u0d31\u0d1f\u0d3f", "name:ta": "\u0baa\u0bc1\u0b9f\u0bcd\u0b9f\u0b9f\u0bbf", "place": "village", "wikidata": "Q18346043", "wikipedia": "en:Puttady"}}, {"type": "node", "id": 1667528264, "lat": 9.9655256, "lon": 77.2162366, "tags": {"name": "Santhanpara", "name:ml": "\u0d36\u0d3e\u0d28\u0d4d\u0d24\u0d7b\u0d2a\u0d3e\u0d31", "name:ta": "\u0b9a\u0bbe\u0ba8\u0bcd\u0ba4\u0ba9\u0bcd\u0baa\u0bbe\u0bb1\u0bc8", "place": "village", "wikidata": "Q7420150", "wikipedia": "en:Santhanpara"}}, {"type": "node", "id": 1672143338, "lat": 9.898918, "lon": 77.1781505, "tags": {"name": "Udumbanchola", "name:ml": "\u0d09\u0d1f\u0d41\u0d2e\u0d4d\u0d2a\u0d7b\u0d1a\u0d4b\u0d32", "name:ta": "\u0b89\u0b9f\u0bc1\u0bae\u0bcd\u0baa\u0b9e\u0bcd\u0b9a\u0bcb\u0bb2\u0bc8", "place": "village", "wikidata": "Q7877341", "wikipedia": "en:Udumbanchola"}}, {"type": "node", "id": 1672147222, "lat": 9.8744904, "lon": 77.1614831, "tags": {"name": "Parathode", "name:ml": "\u0d2a\u0d3e\u200d\u0d31\u0d24\u0d4d\u0d24\u0d4b\u0d1f\u0d4d", "name:ta": "\u0baa\u0bbe\u0bb1\u0bc8\u0ba4\u0bcd\u0ba4\u0bca\u0b9f\u0bc1", "place": "village"}}, {"type": "node", "id": 1919033835, "lat": 9.9694403, "lon": 77.1470526, "tags": {"name": "Rajakumari", "name:ml": "\u0d30\u0d3e\u0d1c\u0d15\u0d41\u0d2e\u0d3e\u0d30\u0d3f", "name:ta": "\u0b87\u0bb0\u0bbe\u0b9c\u0b95\u0bc1\u0bae\u0bbe\u0bb0\u0bbf", "place": "village", "wikidata": "Q7285674", "wikipedia": "en:Rajakumari, Idukki district"}}, {"type": "node", "id": 2082331415, "lat": 9.9692811, "lon": 77.1492435, "tags": {"name": "Rajakumari", "name:ml": "\u0d30\u0d3e\u0d1c\u0d15\u0d41\u0d2e\u0d3e\u0d30\u0d3f", "place": "village", "wikidata": "Q7285674", "wikipedia": "en:Rajakumari, Idukki district"}}, {"type": "node", "id": 2464026303, "lat": 9.8048215, "lon": 77.3355694}, {"type": "node", "id": 2905959012, "lat": 10.0212871, "lon": 77.2485296, "tags": {"comment": "not exact location", "is_in": "Kerala;KL;India;IN", "name": "Choondal", "name:ml": "\u0d1a\u0d42\u0d23\u0d4d\u0d1f\u0d32\u0d4d\u200d", "name:ta": "\u0b9a\u0bc2\u0ba3\u0bcd\u0b9f\u0bb2\u0bcd", "place": "village"}}, {"type": "node", "id": 2905959013, "lat": 9.9562159, "lon": 77.0840926, "tags": {"comment": "not exact location", "is_in": "Kerala;KL;India;IN", "name": "Kalungu City", "place": "village"}}, {"type": "node", "id": 2905959014, "lat": 9.9708222, "lon": 77.1788602, "tags": {"comment": "not exact location", "is_in": "Kerala;KL;India;IN", "name": "Kuruvila city", "place": "village"}}, {"type": "node", "id": 2905959015, "lat": 9.969282, "lon": 77.113908, "tags": {"comment": "not exact location", "is_in": "Kerala;KL;India;IN", "name": "NR city", "name:ml": "\u0d0e\u0d7b\u0d06\u0d7c \u0d38\u0d3f\u0d31\u0d4d\u0d31\u0d3f", "place": "village"}}, {"type": "node", "id": 2905959019, "lat": 9.9732696, "lon": 77.1949705, "tags": {"comment": "not exact location", "is_in": "Kerala;KL;India;IN", "name": "Murikkumthotti", "name:ml": "\u0d2e\u0d41\u0d30\u0d3f\u0d15\u0d4d\u0d15\u0d41\u0d02\u0d24\u0d4a\u0d1f\u0d4d\u0d1f\u0d3f", "name:ta": "\u0bae\u0bc1\u0bb1\u0bbf\u0b95\u0bcd\u0b95\u0bc1\u0bae\u0bcd\u0ba4\u0bca\u0b9f\u0bcd\u0b9f\u0bbf", "place": "village"}}, {"type": "node", "id": 3559084420, "lat": 10.079531, "lon": 77.262125, "tags": {"name": "Kottakudi", "name:ml": "\u0d15\u0d4a\u0d1f\u0d4d\u0d1f\u0d15\u0d41\u0d1f\u0d3f", "name:ta": "\u0b95\u0bca\u0b9f\u0bcd\u0b9f\u0b95\u0bc1\u0b9f\u0bbf", "place": "village"}}, {"type": "node", "id": 3559084421, "lat": 10.0842001, "lon": 77.2485813, "tags": {"name": "Kurangani", "name:ml": "\u0d15\u0d41\u0d30\u0d19\u0d4d\u0d19\u0d23\u0d3f", "name:ta": "\u0b95\u0bc1\u0bb0\u0b99\u0bcd\u0b95\u0ba3\u0bbf", "place": "village", "wikidata": "Q6445601", "wikipedia": "en:Kurangani"}}, {"type": "node", "id": 3559084422, "lat": 10.0505603, "lon": 77.1945604, "tags": {"name": "Suryanelli", "name:ml": "\u0d38\u0d42\u0d30\u0d4d\u0d2f\u0d28\u0d46\u0d32\u0d4d\u0d32\u0d3f", "name:ta": "\u0b9a\u0bc2\u0bb0\u0bbf\u0baf\u0ba8\u0bc6\u0bb2\u0bcd\u0bb2\u0bbf", "place": "village", "wikidata": "Q4004", "wikimedia_commons": "Category:Suryanelli", "wikipedia": "en:Suryanelli"}}, {"type": "node", "id": 3559087061, "lat": 10.0826541, "lon": 77.2217702, "tags": {"name": "Kolukkumalai", "name:ml": "\u0d15\u0d4a\u0d33\u0d41\u0d15\u0d4d\u0d15\u0d41\u0d2e\u0d32", "name:ta": "\u0b95\u0bca\u0bb3\u0bc1\u0b95\u0bcd\u0b95\u0bc1\u0bae\u0bb2\u0bc8", "place": "village", "wikidata": "Q16135307", "wikipedia": "en:Kolukkumalai"}}, {"type": "node", "id": 3816559467, "lat": 9.6823337, "lon": 77.0296295, "tags": {"name": "Aalady", "name:ml": "\u0d06\u0d32\u0d1f\u0d3f", "place": "village"}}, {"type": "node", "id": 3816559474, "lat": 9.6669414, "lon": 77.0221785, "tags": {"name": "K.Chappathu", "name:ml": "\u0d15\u0d46.\u0d1a\u0d2a\u0d4d\u0d2a\u0d3e\u0d24\u0d4d\u0d24\u0d4d", "name:ta": "\u0b95\u0bc7 \u0b9a\u0baa\u0bcd\u0baa\u0bbe\u0ba4\u0bcd\u0ba4\u0bc1", "place": "village", "wikidata": "Q6323267", "wikipedia": "en:K. Chappathu"}}, {"type": "node", "id": 3816559491, "lat": 9.6932461, "lon": 77.0259961, "tags": {"name": "Parappu", "name:ml": "\u0d2a\u0d30\u0d2a\u0d4d\u0d2a\u0d4d", "place": "village"}}, {"type": "node", "id": 3816574868, "lat": 9.7379997, "lon": 77.0625022, "tags": {"name": "Labbakada", "name:ml": "\u0d32\u0d2c\u0d4d\u0d2c\u0d15\u0d4d\u0d15\u0d1f", "place": "village", "wikidata": "Q101191064"}}, {"type": "node", "id": 3816580635, "lat": 9.7443003, "lon": 77.1014328, "tags": {"name": "Irupathekkar", "name:ml": "\u0d07\u0d30\u0d41\u0d2a\u0d24\u0d47\u0d15\u0d4d\u0d15\u0d7c", "place": "village"}}, {"type": "node", "id": 3816580636, "lat": 9.7499301, "lon": 77.0853393, "tags": {"name": "Kakkattukada", "name:ml": "\u0d15\u0d15\u0d4d\u0d15\u0d3e\u0d1f\u0d4d\u0d1f\u0d41\u0d15\u0d1f", "place": "village"}}, {"type": "node", "id": 3816619660, "lat": 9.7522533, "lon": 77.1518035, "tags": {"name": "Puliyanmala", "name:ml": "\u0d2a\u0d41\u0d33\u0d3f\u0d2f\u0d7b\u0d2e\u0d32", "name:ta": "\u0baa\u0bc1\u0bb3\u0bbf\u0baf\u0ba9\u0bcd\u0bae\u0bb2\u0bc8", "place": "village", "wikidata": "Q27924122", "wikipedia": "en:Puliyanmala"}}, {"type": "node", "id": 3816643520, "lat": 9.6845858, "lon": 77.1453579, "tags": {"name": "Kadassikadavu", "name:ml": "\u0d15\u0d1f\u0d36\u0d4d\u0d36\u0d3f\u0d15\u0d4d\u0d15\u0d1f\u0d35\u0d4d", "name:ta": "\u0b95\u0b9f\u0b9a\u0bbf\u0b95\u0b9f\u0bb5\u0bc1", "place": "village"}}, {"type": "node", "id": 3874495525, "lat": 9.8785611, "lon": 77.0550856, "tags": {"name": "Thopramkudy", "name:ml": "\u0d24\u0d4b\u0d2a\u0d4d\u0d30\u0d3e\u0d02\u0d15\u0d41\u0d1f\u0d3f", "place": "village", "wikidata": "Q7796027", "wikipedia": "en:Thopramkudy"}}, {"type": "node", "id": 4002191995, "lat": 9.8852768, "lon": 77.0231474, "tags": {"name": "Rajamudi", "name:ml": "\u0d30\u0d3e\u0d1c\u0d2e\u0d41\u0d1f\u0d3f", "place": "village"}}, {"type": "node", "id": 4009158822, "lat": 9.8248005, "lon": 77.1568962, "tags": {"name": "Kallar", "name:ml": "\u0d15\u0d32\u0d4d\u0d32\u0d3e\u0d7c", "place": "village"}}, {"type": "node", "id": 4214855409, "lat": 9.8116993, "lon": 77.2443676, "tags": {"name": "Ramakkalmedu", "name:ml": "\u0d30\u0d3e\u0d2e\u0d15\u0d4d\u0d15\u0d7d\u0d2e\u0d47\u0d1f\u0d4d", "name:ta": "\u0bb0\u0bbe\u0bae\u0b95\u0bcd\u0b95\u0bb2\u0bcd\u0bae\u0bc7\u0b9f\u0bc1", "place": "village", "wikidata": "Q7288793", "wikimedia_commons": "Category:Ramakkalmedu", "wikipedia": "en:Ramakkalmedu"}}, {"type": "node", "id": 4250670687, "lat": 9.7688256, "lon": 77.3337764}, {"type": "node", "id": 4250670688, "lat": 9.7691018, "lon": 77.3331413}, {"type": "node", "id": 4250670689, "lat": 9.7703168, "lon": 77.3339258}, {"type": "node", "id": 4250670690, "lat": 9.7720472, "lon": 77.3345796}, {"type": "node", "id": 4250670691, "lat": 9.7727284, "lon": 77.3339071}, {"type": "node", "id": 4250670692, "lat": 9.774919, "lon": 77.33415}, {"type": "node", "id": 4250670693, "lat": 9.7758026, "lon": 77.3354763}, {"type": "node", "id": 4250670694, "lat": 9.776944, "lon": 77.3377552}, {"type": "node", "id": 4250670695, "lat": 9.7768519, "lon": 77.3410989}, {"type": "node", "id": 4250670696, "lat": 9.7749558, "lon": 77.3423131}, {"type": "node", "id": 4250670697, "lat": 9.7736672, "lon": 77.3423505}, {"type": "node", "id": 4250670698, "lat": 9.771495, "lon": 77.3440691}, {"type": "node", "id": 4250670699, "lat": 9.770869, "lon": 77.3436394}, {"type": "node", "id": 4250670700, "lat": 9.7709243, "lon": 77.3419395}, {"type": "node", "id": 4250670701, "lat": 9.769065, "lon": 77.3405012}, {"type": "node", "id": 4250670702, "lat": 9.7666718, "lon": 77.3399595}, {"type": "node", "id": 4250670703, "lat": 9.7672425, "lon": 77.3383903}, {"type": "node", "id": 4250670704, "lat": 9.7686231, "lon": 77.3368959}, {"type": "node", "id": 4250670705, "lat": 9.769157, "lon": 77.3357004}, {"type": "node", "id": 4345655631, "lat": 9.9270339, "lon": 77.0563208, "tags": {"name": "Panickankudy", "name:ml": "\u0d2a\u0d23\u0d3f\u0d15\u0d4d\u0d15\u0d7b\u0d15\u0d41\u0d1f\u0d3f", "place": "village"}}, {"type": "node", "id": 4409796585, "lat": 9.7452995, "lon": 77.0753253, "tags": {"name": "Kanchiyar", "name:ml": "\u0d15\u0d3e\u0d1e\u0d4d\u0d1a\u0d3f\u0d2f\u0d3e\u0d7c", "place": "village", "wikidata": "Q6361079", "wikipedia": "en:Kanchiyar"}}, {"type": "node", "id": 4625678090, "lat": 10.0428441, "lon": 77.1806942, "tags": {"name": "Chinnakanal", "name:ml": "\u0d1a\u0d3f\u0d28\u0d4d\u0d28\u0d15\u0d4d\u0d15\u0d28\u0d3e\u0d7d", "name:ta": "\u0b9a\u0bbf\u0ba9\u0bcd\u0ba9\u0b95\u0bcd\u0b95\u0ba9\u0bb2\u0bcd", "place": "village", "wikidata": "Q5101157", "wikimedia_commons": "Category:Chinnakanal", "wikipedia": "en:Chinnakanal"}}, {"type": "node", "id": 4627943192, "lat": 10.0547382, "lon": 77.0667398, "tags": {"name": "Pothamedu", "name:ml": "\u0d2a\u0d4b\u0d24\u0d4d\u0d24\u0d2e\u0d47\u0d1f\u0d4d", "name:ta": "\u0baa\u0bcb\u0ba4\u0bcd\u0ba4\u0bae\u0bc7\u0b9f\u0bc1", "place": "village"}}, {"type": "node", "id": 4872675949, "lat": 9.7861448, "lon": 77.1080735, "tags": {"name": "Nathukallu", "name:ml": "\u0d28\u0d24\u0d4d\u0d24\u0d41\u0d15\u0d32\u0d4d\u0d32\u0d4d", "place": "village"}}, {"type": "node", "id": 4896668984, "lat": 9.9808755, "lon": 76.9973051, "tags": {"name": "Kallarkutty", "name:ml": "\u0d15\u0d32\u0d4d\u0d32\u0d3e\u0d7c\u0d15\u0d41\u0d1f\u0d4d\u0d1f\u0d3f", "place": "village"}}, {"type": "node", "id": 5650882718, "lat": 9.7709029, "lon": 77.3425986}, {"type": "node", "id": 5827968054, "lat": 9.9426505, "lon": 77.1416868}, {"type": "node", "id": 5827968055, "lat": 9.9425887, "lon": 77.1419622}, {"type": "node", "id": 5827968056, "lat": 9.9425853, "lon": 77.1421295}, {"type": "node", "id": 5827968057, "lat": 9.9424171, "lon": 77.1424118}, {"type": "node", "id": 5827968058, "lat": 9.9423004, "lon": 77.1427185}, {"type": "node", "id": 5827968059, "lat": 9.9421836, "lon": 77.142844}, {"type": "node", "id": 5827968060, "lat": 9.942163, "lon": 77.1429869}, {"type": "node", "id": 5827968061, "lat": 9.9422695, "lon": 77.1430044}, {"type": "node", "id": 5827968062, "lat": 9.9422832, "lon": 77.1432344}, {"type": "node", "id": 5827968063, "lat": 9.9423347, "lon": 77.1435411}, {"type": "node", "id": 5827968064, "lat": 9.9424857, "lon": 77.1434993}, {"type": "node", "id": 5827968065, "lat": 9.9425887, "lon": 77.143576}, {"type": "node", "id": 5827968066, "lat": 9.9428909, "lon": 77.1435481}, {"type": "node", "id": 5827968067, "lat": 9.9429561, "lon": 77.1434366}, {"type": "node", "id": 5827968068, "lat": 9.9428565, "lon": 77.1422584}, {"type": "node", "id": 5827968069, "lat": 9.9428428, "lon": 77.14199}, {"type": "node", "id": 5827968070, "lat": 9.9427707, "lon": 77.141631}, {"type": "node", "id": 5827968071, "lat": 9.9426952, "lon": 77.1414184}, {"type": "node", "id": 5827968072, "lat": 9.9425372, "lon": 77.1414045}, {"type": "node", "id": 5827968073, "lat": 9.9425269, "lon": 77.1415753}, {"type": "node", "id": 5827968074, "lat": 9.9425441, "lon": 77.141624}, {"type": "node", "id": 5840092437, "lat": 9.7470303, "lon": 77.2185659, "tags": {"name": "Cumbummettu", "name:ml": "\u0d15\u0d2e\u0d4d\u0d2a\u0d02\u0d2e\u0d46\u0d1f\u0d4d\u0d1f\u0d4d", "name:ta": "\u0b95\u0bae\u0bcd\u0baa\u0bae\u0bcd\u0bae\u0bc6\u0b9f\u0bcd\u0b9f\u0bc1", "place": "village"}}, {"type": "node", "id": 6263411603, "lat": 9.6636071, "lon": 77.0967593, "tags": {"alt_name:en": "Anavilasam", "name": "Aanavilasam", "name:ml": "\u0d06\u0d28\u0d35\u0d3f\u0d32\u0d3e\u0d38\u0d02", "name:ta": "\u0b86\u0ba9\u0bc8\u0bb5\u0bbf\u0bb2\u0bbe\u0b9a\u0bae\u0bcd", "place": "village"}}, {"type": "node", "id": 6264001123, "lat": 9.8754694, "lon": 77.0895149, "tags": {"name": "Melechinnar", "name:ml": "\u0d2e\u0d47\u0d32\u0d47\u0d1a\u0d3f\u0d28\u0d4d\u0d28\u0d3e\u0d7c", "place": "village"}}, {"type": "node", "id": 6265160198, "lat": 9.733137, "lon": 77.1044796, "tags": {"name": "Vallakkadavu", "name:ml": "\u0d35\u0d33\u0d4d\u0d33\u0d15\u0d4d\u0d15\u0d1f\u0d35\u0d4d", "place": "village"}}, {"type": "node", "id": 6265167785, "lat": 9.7352735, "lon": 77.0241881, "tags": {"name": "Kozhimala", "name:ml": "\u0d15\u0d4b\u0d34\u0d3f\u0d2e\u0d32", "place": "village"}}, {"type": "node", "id": 6267394282, "lat": 9.6657874, "lon": 77.00318, "tags": {"name": "Karintharuvi", "name:ml": "\u0d15\u0d30\u0d3f\u0d28\u0d4d\u0d24\u0d30\u0d41\u0d35\u0d3f", "place": "village"}}, {"type": "node", "id": 6280369658, "lat": 9.6673194, "lon": 77.05886, "tags": {"name": "Pullumedu", "name:ml": "\u0d2a\u0d41\u0d32\u0d4d\u0d32\u0d41\u0d2e\u0d47\u0d1f\u0d4d", "place": "village"}}, {"type": "node", "id": 6280524956, "lat": 9.8591221, "lon": 77.0506484, "tags": {"name": "Prakash", "name:ml": "\u0d2a\u0d4d\u0d30\u0d15\u0d3e\u0d36\u0d4d", "place": "village"}}, {"type": "node", "id": 6280524957, "lat": 9.8567408, "lon": 77.0046936, "tags": {"name": "Pandippara", "name:ml": "\u0d2a\u0d3e\u0d23\u0d4d\u0d1f\u0d3f\u0d2a\u0d4d\u0d2a\u0d3e\u0d31", "place": "village"}}, {"type": "node", "id": 6280548331, "lat": 9.8024472, "lon": 77.1876404, "tags": {"name": "Balagram", "name:ml": "\u0d2c\u0d3e\u0d32\u0d17\u0d4d\u0d30\u0d3e\u0d02", "place": "village"}}, {"type": "node", "id": 6280548332, "lat": 9.8171425, "lon": 77.1812669, "tags": {"name": "Mundiyeruma", "name:ml": "\u0d2e\u0d41\u0d23\u0d4d\u0d1f\u0d3f\u0d2f\u0d46\u0d30\u0d41\u0d2e", "name:ta": "\u0bae\u0bc1\u0ba3\u0bcd\u0b9f\u0bbf\u0baf\u0bc6\u0bb0\u0bc1\u0bae\u0bc8", "place": "village"}}, {"type": "node", "id": 6280548333, "lat": 9.8291548, "lon": 77.1706588, "tags": {"name": "Thannimoodu", "name:ml": "\u0d24\u0d3e\u0d28\u0d4d\u0d28\u0d3f\u0d2e\u0d42\u0d1f\u0d4d", "place": "village"}}, {"type": "node", "id": 6280548334, "lat": 9.7988383, "lon": 77.1599617, "tags": {"name": "Pampadumpara", "name:ml": "\u0d2a\u0d3e\u0d2e\u0d4d\u0d2a\u0d3e\u0d1f\u0d41\u0d02\u0d2a\u0d3e\u0d31", "place": "village", "wikidata": "Q7129392", "wikipedia": "en:Pampadumpara"}}, {"type": "node", "id": 6280562786, "lat": 9.6705551, "lon": 77.182972, "tags": {"name": "Chellarkovil", "name:ml": "\u0d1a\u0d46\u0d32\u0d4d\u0d32\u0d3e\u0d7c\u0d15\u0d4b\u0d35\u0d3f\u0d7d", "place": "village"}}, {"type": "node", "id": 6280592216, "lat": 9.7230717, "lon": 77.1545376, "tags": {"name": "Vandanmedu", "name:ml": "\u0d35\u0d23\u0d4d\u0d1f\u0d7b\u0d2e\u0d47\u0d1f\u0d4d", "name:ta": "\u0bb5\u0ba3\u0bcd\u0b9f\u0ba9\u0bcd\u0bae\u0bc7\u0b9f\u0bc1", "place": "village", "wikidata": "Q7914358", "wikipedia": "en:Vandanmedu"}}, {"type": "node", "id": 6283825127, "lat": 9.6456637, "lon": 77.0748422, "tags": {"name": "Chenkara", "name:ml": "\u0d1a\u0d46\u0d19\u0d4d\u0d15\u0d30", "place": "village"}}, {"type": "node", "id": 6897260749, "lat": 9.7963137, "lon": 77.1267928, "tags": {"name": "Valiyathovala", "name:ml": "\u0d35\u0d32\u0d3f\u0d2f\u0d24\u0d4b\u0d35\u0d3e\u0d33", "place": "village"}}, {"type": "node", "id": 7040972000, "lat": 9.8007436, "lon": 77.3285994}, {"type": "node", "id": 7040972001, "lat": 9.8056364, "lon": 77.3299885}, {"type": "node", "id": 7040972002, "lat": 9.8055082, "lon": 77.3322496}, {"type": "node", "id": 7396874991, "lat": 9.9288109, "lon": 76.9948941, "tags": {"name": "Mankuva", "place": "village"}}, {"type": "node", "id": 7396913906, "lat": 9.9242223, "lon": 77.0133638, "tags": {"name": "Chinnar", "place": "village"}}, {"type": "node", "id": 7400372072, "lat": 9.7381164, "lon": 77.3202753, "tags": {"name": "Kamayagoundanpatti", "name:ml": "\u0d15\u0d3e\u0d2e\u0d2f\u0d15\u0d35\u0d41\u0d23\u0d4d\u0d1f\u0d7b\u0d2a\u0d1f\u0d4d\u0d1f\u0d3f", "name:ta": "\u0b95\u0bbe\u0bae\u0baf\u0b95\u0bb5\u0bc1\u0ba3\u0bcd\u0b9f\u0ba9\u0bcd\u0baa\u0b9f\u0bcd\u0b9f\u0bbf", "place": "village"}}, {"type": "node", "id": 7467066798, "lat": 9.9780056, "lon": 77.1597018, "tags": {"name": "Rajakumary North", "place": "village"}}, {"type": "node", "id": 7467446931, "lat": 9.8856948, "lon": 77.0038708, "tags": {"name": "Upputhode", "name:ml": "\u0d09\u0d2a\u0d4d\u0d2a\u0d41\u0d24\u0d4b\u0d1f\u0d4d\u200c", "place": "village"}}, {"type": "node", "id": 7468045621, "lat": 10.0235061, "lon": 77.0238426, "tags": {"name": "Thokkupara", "name:ml": "\u0d24\u0d4b\u0d15\u0d4d\u0d15\u0d41\u0d2a\u0d3e\u0d31", "name:ta": "\u0ba4\u0bcb\u0b95\u0bcd\u0b95\u0bc1\u0baa\u0bbe\u0bb1\u0bc8", "place": "village"}}, {"type": "node", "id": 7469318415, "lat": 9.9395534, "lon": 77.0307377, "tags": {"name": "Parathodu", "name:ml": "\u0d2a\u0d3e\u0d31\u0d24\u0d4d\u0d24\u0d4b\u0d1f\u0d4d", "place": "village"}}, {"type": "node", "id": 7473381357, "lat": 10.018184, "lon": 77.0151447, "tags": {"name": "Ambazhachal", "name:ml": "\u0d05\u0d2e\u0d4d\u0d2a\u0d34\u0d1a\u0d4d\u0d1a\u0d3e\u0d7d", "name:ta": "\u0b85\u0bae\u0bcd\u0baa\u0bb4\u0b9a\u0bcd\u0b9a\u0bbe\u0bb2\u0bcd", "place": "village"}}, {"type": "node", "id": 7475351021, "lat": 9.8999793, "lon": 77.1255612, "tags": {"name": "Karithode", "name:ml": "\u0d15\u0d3e\u0d30\u0d3f\u0d24\u0d4d\u0d24\u0d4b\u0d1f\u0d4d", "place": "village"}}, {"type": "node", "id": 7950495479, "lat": 9.7793426, "lon": 77.2063901, "tags": {"name": "Koottar", "name:ml": "\u0d15\u0d42\u0d1f\u0d4d\u0d1f\u0d3e\u0d7c", "name:ta": "\u0b95\u0bc2\u0b9f\u0bcd\u0b9f\u0bbe\u0bb0\u0bcd", "place": "village"}}, {"type": "node", "id": 7950495481, "lat": 9.765542, "lon": 77.2165914, "tags": {"name": "Karunapuram", "name:ml": "\u0d15\u0d30\u0d41\u0d23\u0d3e\u0d2a\u0d41\u0d30\u0d02", "name:ta": "\u0b95\u0bb0\u0bc1\u0ba3\u0bbe\u0baa\u0bc1\u0bb0\u0bae\u0bcd", "place": "village"}}, {"type": "node", "id": 7950517896, "lat": 9.7550841, "lon": 77.1987825, "tags": {"name": "Kuzhitholu", "name:ml": "\u0d15\u0d41\u0d34\u0d3f\u0d24\u0d4d\u0d24\u0d4b\u0d33\u0d4d\u200d", "name:ta": "\u0b95\u0bc1\u0bb4\u0bbf\u0ba4\u0bcd\u0ba4\u0bca\u0bb3\u0bcd", "place": "village"}}, {"type": "node", "id": 7962312206, "lat": 9.816988, "lon": 77.2145785, "tags": {"name": "Chottupara", "name:ml": "\u0d1a\u0d4b\u0d31\u0d4d\u0d31\u0d41\u0d2a\u0d3e\u0d31", "name:ta": "\u0b9a\u0bcb\u0bb1\u0bcd\u0bb1\u0bc1\u0baa\u0bbe\u0bb1\u0bc8", "place": "village"}}, {"type": "node", "id": 7962468751, "lat": 9.8006052, "lon": 77.2067743, "tags": {"name": "Prakash Gram", "name:ml": "\u0d2a\u0d4d\u0d30\u0d15\u0d3e\u0d36\u0d4d \u0d17\u0d4d\u0d30\u0d3e\u0d02", "place": "village"}}, {"type": "node", "id": 7962512567, "lat": 9.703643, "lon": 77.1918355, "tags": {"name": "Kochera", "name:ml": "\u0d15\u0d4a\u0d1a\u0d4d\u0d1a\u0d31", "place": "village"}}, {"type": "node", "id": 7962512568, "lat": 9.7244511, "lon": 77.2069527, "tags": {"name": "Manthipara", "name:ml": "\u0d2e\u0d28\u0d4d\u0d24\u0d3f\u0d2a\u0d4d\u0d2a\u0d3e\u0d31", "name:ta": "\u0bae\u0ba8\u0bcd\u0ba4\u0bbf\u0baa\u0bcd\u0baa\u0bbe\u0bb1\u0bc8", "place": "village"}}, {"type": "node", "id": 7962535771, "lat": 9.7631388, "lon": 77.1760409, "tags": {"name": "Anyartholu", "name:ml": "\u0d05\u0d28\u0d4d\u0d2f\u0d3e\u0d7c\u0d24\u0d4a\u0d33\u0d41", "place": "village"}}, {"type": "node", "id": 7962551809, "lat": 9.6485673, "lon": 77.1485886, "tags": {"name": "Chakkupallam", "name:ml": "\u0d1a\u0d15\u0d4d\u0d15\u0d41\u0d2a\u0d33\u0d4d\u0d33\u0d02", "place": "village"}}, {"type": "node", "id": 7968716568, "lat": 9.8062794, "lon": 77.0962249, "tags": {"name": "Santhigram", "name:ml": "\u0d36\u0d3e\u0d28\u0d4d\u0d24\u0d3f\u0d17\u0d4d\u0d30\u0d3e\u0d02", "place": "village"}}, {"type": "node", "id": 7968976929, "lat": 9.8313617, "lon": 77.0484741, "tags": {"name": "Kamakshi", "name:ml": "\u0d15\u0d3e\u0d2e\u0d3e\u0d15\u0d4d\u0d37\u0d3f", "place": "village"}}, {"type": "node", "id": 7968980555, "lat": 9.8399236, "lon": 76.9975223, "tags": {"name": "Narakakkanam", "name:ml": "\u0d28\u0d3e\u0d30\u0d15\u0d15\u0d4d\u0d15\u0d3e\u0d28\u0d02", "place": "village"}}, {"type": "node", "id": 7968980556, "lat": 9.8226898, "lon": 77.0259993, "tags": {"name": "Calvary Mount", "name:ml": "\u0d15\u0d3e\u0d7d\u0d35\u0d30\u0d3f\u0d2e\u0d57\u0d23\u0d4d\u0d1f\u0d4d", "place": "village"}}, {"type": "node", "id": 8157425792, "lat": 9.9423696, "lon": 77.1435314}, {"type": "node", "id": 9561936985, "lat": 10.0792038, "lon": 77.2612961}, {"type": "node", "id": 9561936986, "lat": 10.0784006, "lon": 77.2618717}, {"type": "node", "id": 9561936987, "lat": 10.0782232, "lon": 77.2624072}, {"type": "node", "id": 9561936988, "lat": 10.0783316, "lon": 77.2628377}, {"type": "node", "id": 9561936989, "lat": 10.079056, "lon": 77.2630779}, {"type": "node", "id": 9561936990, "lat": 10.0797705, "lon": 77.2630479}, {"type": "node", "id": 9561936991, "lat": 10.0802633, "lon": 77.2622621}, {"type": "node", "id": 9561936992, "lat": 10.0801155, "lon": 77.2613561}, {"type": "node", "id": 9561936993, "lat": 10.0801894, "lon": 77.2607555}, {"type": "node", "id": 9561936994, "lat": 10.0832071, "lon": 77.2477803}, {"type": "node", "id": 9561936995, "lat": 10.0832033, "lon": 77.2474169}, {"type": "node", "id": 9561936996, "lat": 10.0842088, "lon": 77.2470956}, {"type": "node", "id": 9561936997, "lat": 10.0843632, "lon": 77.2472754}, {"type": "node", "id": 9561936998, "lat": 10.0841523, "lon": 77.2475737}, {"type": "node", "id": 9561936999, "lat": 10.0840695, "lon": 77.2478109}, {"type": "node", "id": 9561937000, "lat": 10.084254, "lon": 77.2482507}, {"type": "node", "id": 9561937001, "lat": 10.0843105, "lon": 77.2484687}, {"type": "node", "id": 9561937002, "lat": 10.0845025, "lon": 77.2484917}, {"type": "node", "id": 9561937003, "lat": 10.0846155, "lon": 77.2479294}, {"type": "node", "id": 9561937004, "lat": 10.084849, "lon": 77.2479371}, {"type": "node", "id": 9561937005, "lat": 10.0851239, "lon": 77.2476617}, {"type": "node", "id": 9561937006, "lat": 10.0852632, "lon": 77.2478338}, {"type": "node", "id": 9561937007, "lat": 10.0853348, "lon": 77.2486332}, {"type": "node", "id": 9561937008, "lat": 10.0853122, "lon": 77.2490845}, {"type": "node", "id": 9561937009, "lat": 10.0849873, "lon": 77.2492263}, {"type": "node", "id": 9561937010, "lat": 10.0850072, "lon": 77.2494014}, {"type": "node", "id": 9561937011, "lat": 10.0846956, "lon": 77.249462}, {"type": "node", "id": 9561937012, "lat": 10.084795, "lon": 77.2500007}, {"type": "node", "id": 9561937013, "lat": 10.0842182, "lon": 77.2502364}, {"type": "node", "id": 9561937014, "lat": 10.0840724, "lon": 77.249893}, {"type": "node", "id": 9561937015, "lat": 10.0844039, "lon": 77.2498459}, {"type": "node", "id": 9561937016, "lat": 10.0843044, "lon": 77.249388}, {"type": "node", "id": 9561951217, "lat": 10.0840923, "lon": 77.2491388}, {"type": "node", "id": 9561951218, "lat": 10.083953, "lon": 77.2492937}, {"type": "node", "id": 9561951219, "lat": 10.0839, "lon": 77.2498324}, {"type": "node", "id": 9561951220, "lat": 10.0837409, "lon": 77.2497516}, {"type": "node", "id": 9561951221, "lat": 10.0837409, "lon": 77.2489637}, {"type": "node", "id": 9561951222, "lat": 10.0838602, "lon": 77.2488627}, {"type": "node", "id": 9561951223, "lat": 10.0834227, "lon": 77.2483981}, {"type": "node", "id": 9561951224, "lat": 10.0834426, "lon": 77.2479402}, {"type": "node", "id": 9561951225, "lat": 10.0841386, "lon": 77.2500488}, {"type": "node", "id": 9909584556, "lat": 9.9764523, "lon": 77.0270829, "tags": {"name": "Vellathooval", "name:ml": "\u0d35\u0d46\u0d33\u0d4d\u0d33\u0d24\u0d4d\u0d24\u0d42\u0d35\u0d7d", "name:ta": "\u0bb5\u0bc6\u0bb3\u0bcd\u0bb3\u0ba4\u0bcd\u0ba4\u0bc2\u0bb5\u0bb2\u0bcd", "place": "village", "wikidata": "Q7919154", "wikipedia": "en:Vellathuval"}}, {"type": "node", "id": 10028040759, "lat": 9.7077881, "lon": 77.3017358, "tags": {"name": "Surulipatti", "name:ml": "\u0d38\u0d41\u0d30\u0d41\u0d33\u0d3f\u0d2a\u0d4d\u0d2a\u0d1f\u0d4d\u0d1f\u0d3f", "name:ta": "\u0b9a\u0bc1\u0bb0\u0bc1\u0bb3\u0bbf\u0baa\u0b9f\u0bcd\u0b9f\u0bbf", "place": "village"}}, {"type": "node", "id": 10136658995, "lat": 10.0666759, "lon": 77.1062049, "tags": {"name": "New Devikulam colony", "place": "village"}}, {"type": "node", "id": 10703214365, "lat": 10.0245082, "lon": 77.2396378, "tags": {"name": "BL Ram Colony", "name:ml": "\u0d2c\u0d3f\u0d0e\u0d7d \u0d31\u0d3e\u0d02 \u0d15\u0d4b\u0d33\u0d28\u0d3f", "place": "village"}}, {"type": "node", "id": 10831230477, "lat": 9.7157647, "lon": 77.033801, "tags": {"name": "Ayyappancoil", "name:ml": "\u0d05\u0d2f\u0d4d\u0d2f\u0d2a\u0d4d\u0d2a\u0d7b\u0d15\u0d4b\u0d35\u0d3f\u0d7d", "place": "village", "wikidata": "Q4831897", "wikipedia": "en:Ayyappancoil"}}, {"type": "node", "id": 10856294863, "lat": 9.8837509, "lon": 77.1154509, "tags": {"name": "Mavady", "name:ml": "\u0d2e\u0d3e\u0d35\u0d1f\u0d3f", "place": "village", "wikidata": "Q101190730"}}, {"type": "node", "id": 10856345073, "lat": 9.7413697, "lon": 77.0905298, "tags": {"name": "Nariampara", "name:ml": "\u0d28\u0d30\u0d3f\u0d2f\u0d02\u0d2a\u0d3e\u0d31", "name:ta": "\u0ba8\u0bb0\u0bbf\u0baf\u0bae\u0bcd\u0baa\u0bbe\u0bb1\u0bc8", "place": "village"}}, {"type": "node", "id": 10856375514, "lat": 9.8566625, "lon": 77.1405926, "tags": {"name": "Manjapetty", "name:ml": "\u0d2e\u0d1e\u0d4d\u0d1e\u0d2a\u0d4d\u0d2a\u0d46\u0d1f\u0d4d\u0d1f\u0d3f", "place": "village"}}, {"type": "node", "id": 10859794281, "lat": 9.850794, "lon": 77.0582642, "tags": {"name": "Udayagiri", "name:ml": "\u0d09\u0d26\u0d2f\u0d17\u0d3f\u0d30\u0d3f", "place": "village"}}, {"type": "node", "id": 10860057869, "lat": 9.797008, "lon": 77.0604354, "tags": {"name": "Vazhavara", "name:ml": "\u0d35\u0d3e\u0d34\u0d35\u0d30", "place": "village"}}, {"type": "node", "id": 10860057870, "lat": 9.7835313, "lon": 77.0749327, "tags": {"name": "Nirmalacity", "name:ml": "\u0d28\u0d3f\u0d7c\u0d2e\u0d4d\u0d2e\u0d32\u0d3e\u0d38\u0d3f\u0d31\u0d4d\u0d31\u0d3f", "place": "village"}}, {"type": "node", "id": 10860080976, "lat": 9.9425162, "lon": 77.0158096, "tags": {"name": "Kambilikandam", "name:ml": "\u0d15\u0d2e\u0d4d\u0d2a\u0d3f\u0d33\u0d3f\u0d15\u0d23\u0d4d\u0d1f\u0d02", "place": "village"}}, {"type": "node", "id": 10860090107, "lat": 9.9575414, "lon": 77.0275001, "tags": {"name": "Konnathady", "name:ml": "\u0d15\u0d4a\u0d28\u0d4d\u0d28\u0d24\u0d4d\u0d24\u0d1f\u0d3f", "place": "village"}}, {"type": "node", "id": 10860227322, "lat": 9.9248525, "lon": 77.1562928, "tags": {"name": "Chemmannar", "name:ml": "\u0d1a\u0d46\u0d2e\u0d4d\u0d2e\u0d23\u0d4d\u0d23\u0d3e\u0d7c", "place": "village"}}, {"type": "node", "id": 10860227326, "lat": 9.9507388, "lon": 77.1815693, "tags": {"name": "Senapathy", "name:ml": "\u0d38\u0d47\u0d28\u0d3e\u0d2a\u0d24\u0d3f", "name:ta": "\u0b9a\u0bc7\u0ba9\u0bbe\u0baa\u0ba4\u0bbf", "place": "village"}}, {"type": "node", "id": 10860826972, "lat": 9.7689001, "lon": 77.1027079, "tags": {"name": "Vellayamkudi", "name:ml": "\u0d35\u0d46\u0d33\u0d4d\u0d33\u0d2f\u0d3e\u0d02\u0d15\u0d41\u0d1f\u0d3f", "place": "village"}}, {"type": "node", "id": 10862035786, "lat": 9.9368812, "lon": 77.1087873, "tags": {"name": "Kuthumkal", "name:ml": "\u0d15\u0d41\u0d24\u0d4d\u0d24\u0d41\u0d19\u0d4d\u0d15\u0d7d", "place": "village"}}, {"type": "node", "id": 10862901287, "lat": 9.8367811, "lon": 77.0895968, "tags": {"name": "Chempakappara", "name:ml": "\u0d1a\u0d46\u0d2e\u0d4d\u0d2a\u0d15\u0d2a\u0d4d\u0d2a\u0d3e\u0d31", "place": "village"}}, {"type": "node", "id": 10872867728, "lat": 9.830848, "lon": 77.1882871, "tags": {"name": "Kombayar", "name:ml": "\u0d15\u0d4b\u0d2e\u0d4d\u0d2a\u0d2f\u0d3e\u0d7c", "place": "village", "source": "local knowledge", "wikidata": "Q101190686"}}, {"type": "node", "id": 10872872883, "lat": 9.8366565, "lon": 77.2043282, "tags": {"name": "Pushpakandam", "name:ml": "\u0d2a\u0d41\u0d37\u0d4d\u0d2a\u0d15\u0d23\u0d4d\u0d1f\u0d02", "name:ta": "\u0baa\u0bc1\u0bb7\u0bcd\u0baa\u0b95\u0ba3\u0bcd\u0b9f\u0bae\u0bcd", "place": "village", "source": "local knowledge", "wikidata": "Q101190691"}}, {"type": "node", "id": 10872899311, "lat": 9.8612874, "lon": 77.210744, "tags": {"name": "Anakkallu", "name:ml": "\u0d06\u0d28\u0d15\u0d4d\u0d15\u0d32\u0d4d\u0d32\u0d4d", "name:ta": "\u0b86\u0ba9\u0bc8\u0b95\u0bcd\u0b95\u0bb2\u0bcd\u0bb2\u0bc1", "place": "village"}}, {"type": "node", "id": 10879416463, "lat": 9.6965451, "lon": 77.0399413, "tags": {"name": "Marykulam", "name:ml": "\u0d2e\u0d47\u0d30\u0d3f\u0d15\u0d41\u0d33\u0d02", "place": "village", "wikidata": "Q31701673", "wikipedia": "en:Marykulam"}}, {"type": "node", "id": 10880906257, "lat": 9.7329886, "lon": 77.0491129, "tags": {"name": "Swaraj", "name:ml": "\u0d38\u0d4d\u0d35\u0d30\u0d3e\u0d1c\u0d4d", "place": "village"}}, {"type": "node", "id": 10881536641, "lat": 9.7026022, "lon": 77.0403652, "tags": {"name": "Mattukkatta", "name:ml": "\u0d2e\u0d3e\u0d1f\u0d4d\u0d1f\u0d41\u0d15\u0d4d\u0d15\u0d1f\u0d4d\u0d1f", "place": "village", "wikidata": "Q101191099"}}, {"type": "node", "id": 10881536642, "lat": 9.7125918, "lon": 77.050403, "tags": {"name": "Vellilamkandam", "name:ml": "\u0d35\u0d46\u0d33\u0d4d\u0d33\u0d3f\u0d32\u0d3e\u0d02\u0d15\u0d23\u0d4d\u0d1f\u0d02", "place": "village"}}, {"type": "node", "id": 10893710500, "lat": 9.699955, "lon": 77.0208998, "tags": {"name": "Upputhara", "name:ml": "\u0d09\u0d2a\u0d4d\u0d2a\u0d41\u0d24\u0d31", "name:ta": "\u0b89\u0baa\u0bcd\u0baa\u0bc1\u0ba4\u0bb1\u0bc8", "place": "village", "wikidata": "Q7899189", "wikipedia": "en:Upputhara"}}, {"type": "node", "id": 10893710501, "lat": 9.7350837, "lon": 77.1767594, "tags": {"name": "Chettukuzhi", "name:ml": "\u0d1a\u0d47\u0d31\u0d4d\u0d31\u0d41\u0d15\u0d41\u0d34\u0d3f", "name:ta": "\u0b9a\u0bc6\u0b9f\u0bcd\u0b9f\u0bc1\u0b95\u0bcd\u0b95\u0bc1\u0bb4\u0bbf", "place": "village", "wikidata": "Q101191039"}}, {"type": "node", "id": 10894021969, "lat": 9.8201644, "lon": 77.1160826, "tags": {"name": "Ezhukumvayal", "name:ml": "\u0d0e\u0d34\u0d41\u0d15\u0d41\u0d02\u0d35\u0d2f\u0d7d", "place": "village", "wikidata": "Q101190714"}}, {"type": "node", "id": 11435442702, "lat": 9.9450677, "lon": 77.3362108, "tags": {"name": "Rasingapuram", "name:ml": "\u0d30\u0d3e\u0d38\u0d3f\u0d02\u0d17\u0d2a\u0d41\u0d30\u0d02", "name:ta": "\u0b87\u0bb0\u0bbe\u0b9a\u0bbf\u0b99\u0bcd\u0b95\u0baa\u0bc1\u0bb0\u0bae\u0bcd", "place": "village"}}, {"type": "node", "id": 11435442703, "lat": 9.9085319, "lon": 77.3319944, "tags": {"name": "Sankarapuram", "name:ml": "\u0d36\u0d19\u0d4d\u0d15\u0d30\u0d3e\u0d2a\u0d41\u0d30\u0d02", "name:ta": "\u0b9a\u0b99\u0bcd\u0b95\u0bb0\u0bbe\u0baa\u0bc1\u0bb0\u0bae\u0bcd", "place": "village"}}, {"type": "node", "id": 11435442745, "lat": 9.8482199, "lon": 77.296163, "tags": {"name": "Pannaipuram", "name:ml": "\u0d2a\u0d23\u0d4d\u0d23\u0d48\u0d2a\u0d4d\u0d2a\u0d41\u0d30\u0d02", "name:ta": "\u0baa\u0ba3\u0bcd\u0ba3\u0bc8\u0baa\u0bcd\u0baa\u0bc1\u0bb0\u0bae\u0bcd", "place": "village"}}, {"type": "node", "id": 11435442747, "lat": 9.8945388, "lon": 77.2113612, "tags": {"name": "Chathurangapara", "name:ml": "\u0d1a\u0d24\u0d41\u0d30\u0d02\u0d17\u0d2a\u0d4d\u0d2a\u0d3e\u0d31", "name:ta": "\u0b9a\u0ba4\u0bc1\u0bb0\u0b99\u0bcd\u0b95\u0baa\u0bcd\u0baa\u0bbe\u0bb1\u0bc8", "place": "village", "wikidata": "Q5087740", "wikipedia": "en:Chathurangapara"}}, {"type": "node", "id": 11435442748, "lat": 9.9995118, "lon": 77.0660149, "tags": {"name": "Ellakkal", "name:ml": "\u0d07\u0d32\u0d4d\u0d32\u0d15\u0d4d\u0d15\u0d7d", "name:ta": "\u0b87\u0bb2\u0bcd\u0bb2\u0b95\u0bcd\u0b95\u0bb2\u0bcd", "place": "village"}}, {"type": "node", "id": 11690327136, "lat": 10.0115321, "lon": 77.1363391, "tags": {"name": "Muttukad", "name:ml": "\u0d2e\u0d41\u0d1f\u0d4d\u0d1f\u0d41\u0d15\u0d3e\u0d1f\u0d4d", "name:ta": "\u0bae\u0bc1\u0b9f\u0bcd\u0b9f\u0bc1\u0b95\u0bbe\u0b9f\u0bc1", "place": "village"}}, {"type": "node", "id": 11690327137, "lat": 10.0060447, "lon": 77.1094507, "tags": {"name": "Bison Valley", "name:ml": "\u0d2c\u0d48\u0d38\u0d7a \u0d35\u0d3e\u0d32\u0d3f", "name:ta": "\u0baa\u0bc8\u0b9a\u0ba9\u0bcd \u0bb5\u0bbe\u0bb2\u0bbf", "place": "village"}}, {"type": "node", "id": 11690327138, "lat": 10.0344462, "lon": 77.040336, "tags": {"name": "Chithirapuram", "name:ml": "\u0d1a\u0d3f\u0d24\u0d4d\u0d24\u0d3f\u0d30\u0d2a\u0d41\u0d30\u0d02", "name:ta": "\u0b9a\u0bbf\u0ba4\u0bcd\u0ba4\u0bbf\u0bb0\u0baa\u0bc1\u0bb0\u0bae\u0bcd", "place": "village"}}, {"type": "node", "id": 11690327154, "lat": 9.7816584, "lon": 77.3457708, "tags": {"name": "Anaimalaiyanpatti", "name:ml": "\u0d06\u0d28\u0d2e\u0d32\u0d2f\u0d3e\u0d7b\u0d2a\u0d1f\u0d4d\u0d1f\u0d3f", "name:ta": "\u0b86\u0ba9\u0bc8\u0bae\u0bb2\u0bc8\u0baf\u0bbe\u0ba9\u0bcd\u0baa\u0b9f\u0bcd\u0b9f\u0bbf", "place": "village"}}, {"type": "node", "id": 11690327155, "lat": 9.7233527, "lon": 77.3089728, "tags": {"name": "Narayanathevanpatti", "name:ml": "\u0d28\u0d3e\u0d30\u0d3e\u0d2f\u0d23\u0d24\u0d4d\u0d24\u0d47\u0d35\u0d7b\u0d2a\u0d1f\u0d4d\u0d1f\u0d3f", "name:ta": "\u0ba8\u0bbe\u0bb0\u0bbe\u0baf\u0ba3\u0ba4\u0bcd\u0ba4\u0bc7\u0bb5\u0ba9\u0bcd\u0baa\u0b9f\u0bcd\u0b9f\u0bbf", "place": "village"}}, {"type": "way", "id": 84638888, "nodes": [983265275, 983262673, 983265066, 983262519, 983263071, 983263722, 983262371, 983262855, 983263542, 983264364, 983262723, 983263379, 983264171, 983264912, 7040972000, 983263164, 7040972001, 7040972002, 983263946, 2464026303, 983264592, 983265351, 983263641, 983265275], "tags": {"AND_a_c": "10000276", "name": "Uttamapalaiyam", "place": "village"}}, {"type": "way", "id": 425759792, "nodes": [4250670687, 4250670688, 4250670689, 4250670690, 4250670691, 4250670692, 4250670693, 4250670694, 4250670695, 4250670696, 4250670697, 4250670698, 4250670699, 5650882718, 4250670700, 4250670701, 4250670702, 4250670703, 4250670704, 4250670705, 4250670687], "tags": {"addr:postcode": "625526", "landuse": "residential", "name": "Royappanpatti", "name:ml": "\u0d30\u0d3e\u0d2f\u0d2a\u0d4d\u0d2a\u0d7b\u0d2a\u0d1f\u0d4d\u0d1f\u0d3f", "name:ta": "\u0bb0\u0bbe\u0baf\u0baa\u0bcd\u0baa\u0ba9\u0bcd\u0baa\u0b9f\u0bcd\u0b9f\u0bbf", "place": "village"}}, {"type": "way", "id": 616405491, "nodes": [5827968054, 5827968055, 5827968056, 5827968057, 5827968058, 5827968059, 5827968060, 5827968061, 5827968062, 5827968063, 8157425792, 5827968064, 5827968065, 5827968066, 5827968067, 5827968068, 5827968069, 5827968070, 5827968071, 5827968072, 5827968073, 5827968074, 5827968054], "tags": {"place": "village"}}, {"type": "way", "id": 1038172119, "nodes": [9561936985, 9561936986, 9561936987, 9561936988, 9561936989, 9561936990, 9561936991, 9561936992, 9561936993, 9561936985], "tags": {"place": "village"}}, {"type": "way", "id": 1038172120, "nodes": [9561936994, 9561936995, 9561936996, 9561936997, 9561936998, 9561936999, 9561937000, 9561937001, 9561937002, 9561937003, 9561937004, 9561937005, 9561937006, 9561937007, 9561937008, 9561937009, 9561937010, 9561937011, 9561937012, 9561937013, 9561951225, 9561937014, 9561937015, 9561937016, 9561951217, 9561951218, 9561951219, 9561951220, 9561951221, 9561951222, 9561951223, 9561951224, 9561936994], "tags": {"place": "village"}}]}