{"version": 0.6, "generator": "Overpass API 0.7.62.1 084b4234", "osm3s": {"timestamp_osm_base": "2024-11-07T07:12:16Z", "copyright": "The data included in this document is from www.openstreetmap.org. The data is made available under ODbL."}, "elements": [{"type": "node", "id": 353064240, "lat": 8.9328828, "lon": 77.2714628, "tags": {"name": "Courtallam", "name:ml": "\u0d15\u0d41\u0d31\u0d4d\u0d31\u0d3e\u0d32\u0d02", "name:ta": "\u0b95\u0bc1\u0bb1\u0bcd\u0bb1\u0bbe\u0bb2\u0bae\u0bcd", "place": "village", "wikidata": "Q1026773", "wikimedia_commons": "Category:Courtallam", "wikipedia": "en:Courtallam"}}, {"type": "node", "id": 353064250, "lat": 8.9507, "lon": 77.2960936, "tags": {"name": "Melagaram", "name:ml": "\u0d2e\u0d47\u0d32\u0d17\u0d30\u0d02", "name:ta": "\u0bae\u0bc7\u0bb2\u0b95\u0bb0\u0bae\u0bcd", "place": "village"}}, {"type": "node", "id": 356673232, "lat": 8.817704, "lon": 77.0132795, "tags": {"name": "Madathara", "name:ml": "\u0d2e\u0d1f\u0d24\u0d4d\u0d24\u0d31", "place": "village"}}, {"type": "node", "id": 356683006, "lat": 8.9585789, "lon": 77.2782325, "tags": {"name": "Ilanji", "name:ml": "\u0d07\u0d32\u0d1e\u0d4d\u0d1a\u0d3f", "name:ta": "\u0b87\u0bb2\u0b9e\u0bcd\u0b9a\u0bbf", "place": "village"}}, {"type": "node", "id": 364314316, "lat": 9.0043321, "lon": 77.1884827, "tags": {"name": "Puliyarai", "name:ml": "\u0d2a\u0d41\u0d33\u0d3f\u0d2f\u0d31", "name:ta": "\u0baa\u0bc1\u0bb3\u0bbf\u0baf\u0bb1\u0bc8", "place": "village"}}, {"type": "node", "id": 961536612, "lat": 8.9652655, "lon": 77.0699638, "tags": {"name": "Thenmala", "name:hi": "\u0924\u0947\u0928\u094d\u092e\u0932\u093e", "name:ml": "\u0d24\u0d46\u0d28\u0d4d\u0d2e\u0d32", "name:ta": "\u0ba4\u0bc6\u0ba9\u0bcd\u0bae\u0bb2\u0bc8", "place": "village", "wikidata": "Q7781389", "wikimedia_commons": "Category:Thenmala", "wikipedia": "en:Thenmala"}}, {"type": "node", "id": 980053438, "lat": 9.0922383, "lon": 77.1216764, "tags": {"name": "Achankovil", "name:ml": "\u0d05\u0d1a\u0d4d\u0d1a\u0d7b\u0d15\u0d4b\u0d35\u0d3f\u0d7d", "place": "village", "wikidata": "Q17386758", "wikipedia": "ml:\u0d05\u0d1a\u0d4d\u0d1a\u0d7b\u0d15\u0d4b\u0d35\u0d3f\u0d7d"}}, {"type": "node", "id": 980053441, "lat": 9.0112948, "lon": 77.2890534, "tags": {"name": "Ilathur", "name:ml": "\u0d07\u0d32\u0d24\u0d4d\u0d24\u0d42\u0d7c", "name:ta": "\u0b87\u0bb2\u0ba4\u0bcd\u0ba4\u0bc2\u0bb0\u0bcd", "place": "village", "wikidata": "Q17055800", "wikipedia": "en:Ilathur"}}, {"type": "node", "id": 980053453, "lat": 8.9566421, "lon": 77.3289891, "tags": {"name": "Kizhapuliyur", "name:ml": "\u0d15\u0d3f\u0d34\u0d2a\u0d4d\u0d2a\u0d41\u0d32\u0d3f\u0d2f\u0d42\u0d7c", "name:ta": "\u0b95\u0bc0\u0bb4\u0baa\u0bcd\u0baa\u0bc1\u0bb2\u0bbf\u0baf\u0bc2\u0bb0\u0bcd", "place": "village"}}, {"type": "node", "id": 980053573, "lat": 9.0021659, "lon": 77.2744575, "tags": {"name": "Kanakkapillai Valasai", "name:ml": "\u0d15\u0d23\u0d15\u0d4d\u0d15\u0d2a\u0d4d\u0d2a\u0d3f\u0d33\u0d4d\u0d33\u0d35\u0d32\u0d38", "name:ta": "\u0b95\u0ba3\u0b95\u0bcd\u0b95\u0baa\u0bcd\u0baa\u0bbf\u0bb3\u0bcd\u0bb3\u0bc8\u0bb5\u0bb2\u0b9a\u0bc8", "place": "village"}}, {"type": "node", "id": 980053599, "lat": 8.9898175, "lon": 77.2946333, "tags": {"name": "Kuthukal Valasai", "name:ml": "\u0d15\u0d41\u0d24\u0d4d\u0d24\u0d41\u0d15\u0d4d\u0d15\u0d7d\u0d35\u0d32\u0d38", "name:ta": "\u0b95\u0bc1\u0ba4\u0bcd\u0ba4\u0bc1\u0b95\u0bcd\u0b95\u0bb2\u0bcd\u0bb5\u0bb2\u0b9a\u0bc8", "place": "village"}}, {"type": "node", "id": 980053605, "lat": 9.0113966, "lon": 77.3116343, "tags": {"name": "Sivaramapettai", "name:ml": "\u0d36\u0d3f\u0d35\u0d30\u0d3e\u0d2e\u0d2a\u0d47\u0d1f\u0d4d\u0d1f", "name:ta": "\u0b9a\u0bbf\u0bb5\u0bb0\u0bbe\u0bae\u0baa\u0bc7\u0b9f\u0bcd\u0b9f\u0bc8", "place": "village"}}, {"type": "node", "id": 980053668, "lat": 9.0004391, "lon": 77.3305025, "tags": {"name": "Agarakattu", "name:ml": "\u0d05\u0d17\u0d30\u0d15\u0d4d\u0d15\u0d1f\u0d4d\u0d1f\u0d4d", "name:ta": "\u0b85\u0b95\u0bb0\u0b95\u0bcd\u0b95\u0b9f\u0bcd\u0b9f\u0bc1", "place": "village"}}, {"type": "node", "id": 1499032014, "lat": 8.76, "lon": 77.115, "tags": {"name": "Ponmudi", "name:ml": "\u0d2a\u0d4a\u0d28\u0d4d\u200d\u0d2e\u0d41\u0d1f\u0d3f", "name:ta": "\u0baa\u0bca\u0ba9\u0bcd\u0bae\u0bc1\u0b9f\u0bbf", "place": "village", "wikidata": "Q2724466", "wikimedia_commons": "Category:Ponmudi", "wikipedia": "en:Ponmudi"}}, {"type": "node", "id": 1548784075, "lat": 8.9134597, "lon": 77.3298871, "tags": {"name": "Mathalamparai", "name:ml": "\u0d2e\u0d24\u0d4d\u0d24\u0d3e\u0d33\u0d2e\u0d4d\u0d2a\u0d3e\u0d31", "name:ta": "\u0bae\u0ba4\u0bcd\u0ba4\u0bbe\u0bb3\u0bae\u0bcd\u0baa\u0bbe\u0bb1\u0bc8", "place": "village"}}, {"type": "node", "id": 2141242615, "lat": 8.9344683, "lon": 77.3061394, "tags": {"name": "Ayirapperi", "name:ml": "\u0d06\u0d2f\u0d3f\u0d30\u0d2a\u0d4d\u0d2a\u0d47\u0d30\u0d3f", "name:ta": "\u0b86\u0baf\u0bbf\u0bb0\u0baa\u0bcd\u0baa\u0bc7\u0bb0\u0bbf", "place": "village"}}, {"type": "node", "id": 2141242616, "lat": 8.9378599, "lon": 77.308135, "tags": {"place": "village"}}, {"type": "node", "id": 2142308660, "lat": 8.9429905, "lon": 77.3303216, "tags": {"place": "village"}}, {"type": "node", "id": 2142308661, "lat": 8.9415067, "lon": 77.3220819, "tags": {"place": "village"}}, {"type": "node", "id": 3513910057, "lat": 8.9774094, "lon": 77.1512254, "tags": {"name": "Aryankavu", "name:ml": "\u0d06\u0d30\u0d4d\u0d2f\u0d19\u0d4d\u0d15\u0d3e\u0d35\u0d4d", "name:ta": "\u0b86\u0bb0\u0bbf\u0baf\u0b99\u0bcd\u0b95\u0bbe\u0bb5\u0bc1", "place": "village", "population": "16660", "source": "http://lsgkerala.in/aryankavupanchayat/", "wikidata": "Q13110115", "wikipedia": "ml:\u0d05\u0d30\u0d4d\u0d2f\u0d19\u0d4d\u0d15\u0d3e\u0d35\u0d4d \u0d17\u0d4d\u0d30\u0d3e\u0d2e\u0d2a\u0d1e\u0d4d\u0d1a\u0d3e\u0d2f\u0d24\u0d4d\u0d24\u0d4d"}}, {"type": "node", "id": 3541788200, "lat": 8.9846788, "lon": 77.0248475, "tags": {"name": "Urukunnu", "name:ml": "\u0d09\u0d31\u0d41\u0d15\u0d41\u0d28\u0d4d\u0d28\u0d4d", "place": "village"}}, {"type": "node", "id": 5809646755, "lat": 9.0327921, "lon": 77.2266594, "tags": {"name": "Thirumalaikovil", "name:ml": "\u0d24\u0d3f\u0d30\u0d41\u0d2e\u0d32\u0d2f\u0d4d\u0d15\u0d4d\u0d15\u0d4b\u0d35\u0d3f\u0d7d", "name:ta": "\u0ba4\u0bbf\u0bb0\u0bc1\u0bae\u0bb2\u0bc8\u0b95\u0bcd\u0b95\u0bcb\u0bb5\u0bbf\u0bb2\u0bcd", "place": "village"}}, {"type": "node", "id": 6057275177, "lat": 8.9448641, "lon": 77.3217035, "tags": {"place": "village"}}, {"type": "node", "id": 6281612985, "lat": 9.013289, "lon": 77.1928596, "tags": {"name": "Bhagavathipuram", "name:ml": "\u0d2d\u0d17\u0d35\u0d24\u0d3f\u0d2a\u0d41\u0d30\u0d02", "name:ta": "\u0baa\u0b95\u0bb5\u0ba4\u0bbf\u0baa\u0bc1\u0bb0\u0bae\u0bcd", "place": "village"}}, {"type": "node", "id": 7379744033, "lat": 8.8510209, "lon": 77.0345842, "tags": {"name": "Chozhiyakodu", "name:ml": "\u0d1a\u0d4b\u0d34\u0d3f\u0d2f\u0d15\u0d4d\u0d15\u0d4b\u0d1f\u0d4d", "place": "village"}}, {"type": "node", "id": 8640571909, "lat": 9.0201842, "lon": 77.2529538, "tags": {"name": "Panpoli", "name:ml": "\u0d2a\u0d7a\u0d2a\u0d4a\u0d34\u0d3f", "name:ta": "\u0baa\u0ba3\u0bcd\u0baa\u0bca\u0bb4\u0bbf", "place": "village"}}, {"type": "node", "id": 9780992695, "lat": 9.0301369, "lon": 77.3357463, "tags": {"name": "Idaikal", "name:ml": "\u0d07\u0d1f\u0d2f\u0d4d\u0d15\u0d4d\u0d15\u0d3e\u0d7d", "name:ta": "\u0b87\u0b9f\u0bc8\u0b95\u0bcd\u0b95\u0bbe\u0bb2\u0bcd", "place": "village"}}, {"type": "node", "id": 10280533220, "lat": 8.9704394, "lon": 77.097337, "tags": {"name": "Kazhuthurutty", "name:ml": "\u0d15\u0d34\u0d41\u0d24\u0d4d\u0d24\u0d41\u0d30\u0d41\u0d1f\u0d4d\u0d1f\u0d3f", "name:ta": "\u0b95\u0bb4\u0bc1\u0ba4\u0bcd\u0ba4\u0bc1\u0bb0\u0bc1\u0b9f\u0bcd\u0b9f\u0bbf", "place": "village"}}, {"type": "node", "id": 10867479135, "lat": 8.7525747, "lon": 77.0711982, "tags": {"name": "Idinjar", "name:ml": "\u0d07\u0d1f\u0d3f\u0d1e\u0d4d\u0d1e\u0d3e\u0d7c", "place": "village"}}, {"type": "node", "id": 11439553554, "lat": 8.9551457, "lon": 77.1527698, "tags": {"name": "Palaruvi", "name:ml": "\u0d2a\u0d3e\u0d32\u0d30\u0d41\u0d35\u0d3f", "name:ta": "\u0baa\u0bbe\u0bb2\u0bb0\u0bc1\u0bb5\u0bbf", "place": "village", "wikidata": "Q7126740", "wikipedia": "en:Palaruvi"}}, {"type": "node", "id": 11472378615, "lat": 9.0401514, "lon": 77.2737263, "tags": {"name": "Vadakarai Keezhpadugai", "name:ml": "\u0d35\u0d1f\u0d15\u0d30 \u0d15\u0d40\u0d34\u0d4d\u0d2a\u0d1f\u0d41\u0d15", "name:ta": "\u0bb5\u0b9f\u0b95\u0bb0\u0bc8 \u0b95\u0bc0\u0bb4\u0bcd\u0baa\u0b9f\u0bc1\u0b95\u0bc8", "place": "village"}}, {"type": "node", "id": 11472378616, "lat": 9.0401197, "lon": 77.2985523, "tags": {"name": "Achanpudur", "name:ml": "\u0d05\u0d1a\u0d4d\u0d1a\u0d7b\u0d2a\u0d41\u0d24\u0d42\u0d7c", "name:ta": "\u0b85\u0b9a\u0bcd\u0b9a\u0ba9\u0bcd\u0baa\u0bc1\u0ba4\u0bc2\u0bb0\u0bcd", "place": "village"}}, {"type": "node", "id": 11472378617, "lat": 9.0584721, "lon": 77.3142089, "tags": {"name": "Kasidharmam", "name:ml": "\u0d15\u0d3e\u0d36\u0d3f\u0d27\u0d7c\u0d2e\u0d4d\u0d2e\u0d02", "name:ta": "\u0b95\u0bbe\u0b9a\u0bbf\u0ba4\u0bb0\u0bcd\u0bae\u0bae\u0bcd", "place": "village"}}, {"type": "node", "id": 11472378620, "lat": 9.1232805, "lon": 77.3561813, "tags": {"name": "Thirikoodapuram", "name:ml": "\u0d24\u0d4d\u0d30\u0d3f\u0d15\u0d42\u0d1f\u0d2a\u0d41\u0d30\u0d02", "name:ta": "\u0ba4\u0bbf\u0bb0\u0bbf\u0b95\u0bc2\u0b9f\u0baa\u0bc1\u0bb0\u0bae\u0bcd", "place": "village"}}, {"type": "node", "id": 11472378626, "lat": 9.0269491, "lon": 77.3301362, "tags": {"name": "Nainaragaram", "name:ml": "\u0d28\u0d2f\u0d28\u0d3e\u0d30\u0d15\u0d30\u0d02", "name:ta": "\u0ba8\u0baf\u0bbf\u0ba9\u0bbe\u0bb0\u0b95\u0bb0\u0bae\u0bcd", "place": "village"}}, {"type": "node", "id": 11472378627, "lat": 8.9960723, "lon": 77.2153924, "tags": {"name": "Pudur", "name:ml": "\u0d2a\u0d41\u0d24\u0d42\u0d7c", "name:ta": "\u0baa\u0bc1\u0ba4\u0bc2\u0bb0\u0bcd", "place": "village"}}, {"type": "node", "id": 11472378628, "lat": 8.9609022, "lon": 77.2585907, "tags": {"name": "Vallam", "name:ml": "\u0d35\u0d32\u0d4d\u0d32\u0d02", "name:ta": "\u0bb5\u0bb2\u0bcd\u0bb2\u0bae\u0bcd", "place": "village"}}, {"type": "node", "id": 11687541310, "lat": 9.060605, "lon": 77.21893, "tags": {"name": "Mekkarai", "name:ml": "\u0d2e\u0d47\u0d15\u0d4d\u0d15\u0d30", "name:ta": "\u0bae\u0bc7\u0b95\u0bcd\u0b95\u0bb0\u0bc8", "place": "village"}}, {"type": "node", "id": 11687541353, "lat": 9.0045178, "lon": 77.2478893, "tags": {"name": "Thenpothai", "name:ml": "\u0d24\u0d47\u0d7b\u0d2a\u0d4a\u0d24\u0d4d\u0d24", "name:ta": "\u0ba4\u0bc7\u0ba9\u0bcd\u0baa\u0bca\u0ba4\u0bcd\u0ba4\u0bc8", "place": "village"}}, {"type": "node", "id": 11687541354, "lat": 8.9910706, "lon": 77.2533891, "tags": {"name": "Periyapillaivalasai", "name:ml": "\u0d2a\u0d46\u0d30\u0d3f\u0d2f\u0d2a\u0d3f\u0d33\u0d4d\u0d33\u0d35\u0d32\u0d38", "name:ta": "\u0baa\u0bc6\u0bb0\u0bbf\u0baf\u0baa\u0bbf\u0bb3\u0bcd\u0bb3\u0bc8\u0bb5\u0bb2\u0b9a\u0bc8", "place": "village"}}, {"type": "node", "id": 11710432811, "lat": 9.0000187, "lon": 77.2215204, "tags": {"name": "Poolankudiyiruppu", "name:ml": "\u0d2a\u0d42\u0d32\u0d3e\u0d19\u0d4d\u0d15\u0d41\u0d1f\u0d3f\u0d2f\u0d3f\u0d30\u0d41\u0d2a\u0d4d\u0d2a\u0d4d", "name:ta": "\u0baa\u0bc2\u0bb2\u0bbe\u0b99\u0bcd\u0b95\u0bc1\u0b9f\u0bbf\u0baf\u0bbf\u0bb0\u0bc1\u0baa\u0bcd\u0baa\u0bc1", "place": "village"}}, {"type": "node", "id": 11710432812, "lat": 8.9721604, "lon": 77.2628962, "tags": {"name": "Piranur", "name:ml": "\u0d2a\u0d3f\u0d30\u0d3e\u0d28\u0d42\u0d7c", "name:ta": "\u0baa\u0bbf\u0bb0\u0bbe\u0ba9\u0bc2\u0bb0\u0bcd", "place": "village"}}, {"type": "node", "id": 11710432813, "lat": 8.9669427, "lon": 77.2724802, "tags": {"name": "Kottakulam", "name:ml": "\u0d15\u0d4a\u0d1f\u0d4d\u0d1f\u0d3e\u0d15\u0d4d\u0d15\u0d41\u0d33\u0d02", "name:ta": "\u0b95\u0bca\u0b9f\u0bcd\u0b9f\u0bbe\u0b95\u0bcd\u0b95\u0bc1\u0bb3\u0bae\u0bcd", "place": "village"}}, {"type": "node", "id": 11745634130, "lat": 8.9916862, "lon": 77.2204255, "tags": {"name": "Kattalaikudiyiruppu", "name:ml": "\u0d15\u0d1f\u0d4d\u0d1f\u0d33\u0d15\u0d41\u0d1f\u0d3f\u0d2f\u0d3f\u0d30\u0d41\u0d2a\u0d4d\u0d2a\u0d4d", "name:ta": "\u0b95\u0b9f\u0bcd\u0b9f\u0bb3\u0bc8\u0b95\u0bc1\u0b9f\u0bbf\u0baf\u0bbf\u0bb0\u0bc1\u0baa\u0bcd\u0baa\u0bc1", "place": "village"}}, {"type": "node", "id": 11745634131, "lat": 8.9952141, "lon": 77.2081816, "tags": {"name": "Kesavapuram", "name:ml": "\u0d15\u0d47\u0d36\u0d35\u0d2a\u0d41\u0d30\u0d02", "name:ta": "\u0b95\u0bc7\u0b9a\u0bb5\u0baa\u0bc1\u0bb0\u0bae\u0bcd", "place": "village"}}, {"type": "node", "id": 11871439896, "lat": 8.9272742, "lon": 77.0112065, "tags": {"name": "Marthandankara", "name:ml": "\u0d2e\u0d3e\u0d7c\u0d24\u0d4d\u0d24\u0d3e\u0d23\u0d4d\u0d21\u0d7b\u0d15\u0d30", "place": "village"}}, {"type": "node", "id": 11994919237, "lat": 8.9259222, "lon": 77.063663, "tags": {"name": "Neduvannurkadavu", "place": "village"}}, {"type": "node", "id": 11994924006, "lat": 8.9199973, "lon": 77.1754199, "tags": {"name": "Rosemala", "place": "village"}}, {"type": "node", "id": 11997812304, "lat": 8.9822192, "lon": 77.2098005, "tags": {"name": "Karkudi", "place": "village"}}, {"type": "node", "id": 12037444199, "lat": 8.9004203, "lon": 77.0146322, "tags": {"name": "Kadamankodu", "place": "village"}}]}