{"version": 0.6, "generator": "Overpass API 0.7.62.1 084b4234", "osm3s": {"timestamp_osm_base": "2024-11-07T07:12:16Z", "copyright": "The data included in this document is from www.openstreetmap.org. The data is made available under ODbL."}, "elements": [{"type": "node", "id": 245601884, "lat": 12.0373542, "lon": 75.3602841, "tags": {"name": "Taliparamba", "name:hi": "\u0924\u0932\u093f\u092a\u0930\u092e\u094d\u092c", "name:kn": "\u0ca4\u0cb3\u0cbf\u0caa\u0ccd\u0caa\u0cb0\u0c82\u0cac", "name:ml": "\u0d24\u0d33\u0d3f\u0d2a\u0d4d\u0d2a\u0d31\u0d2e\u0d4d\u0d2a\u0d4d", "name:ta": "\u0ba4\u0bb3\u0bbf\u0baa\u0bcd\u0baa\u0bb1\u0bae\u0bcd\u0baa\u0bbe", "name:te": "\u0c24\u0c33\u0c3f\u0c2a\u0c4d\u0c2a\u0c30\u0c02\u0c2c", "place": "town", "population": "1000", "postal_code": "670141", "wikidata": "Q2568358", "wikimedia_commons": "Category:Taliparamba", "wikipedia": "en:Taliparamba"}}, {"type": "node", "id": 245601929, "lat": 12.0472242, "lon": 75.5104585, "tags": {"alt_name": "Sreekandapuram", "name": "Sreekandapuram", "name:kn": "\u0cb6\u0ccd\u0cb0\u0cc0\u0c95\u0c82\u0ca1\u0cbe\u0caa\u0cc1\u0cb0\u0c82", "name:ml": "\u0d36\u0d4d\u0d30\u0d40\u0d15\u0d23\u0d4d\u0d1f\u0d3e\u0d2a\u0d41\u0d30\u0d02", "place": "town", "postal_code": "670631", "wikidata": "Q7585699", "wikimedia_commons": "Category:Sreekandapuram", "wikipedia": "en:Sreekandapuram"}}, {"type": "node", "id": 585132465, "lat": 11.9307557, "lon": 75.5712639, "tags": {"name": "Mattannur", "name:kn": "\u0cae\u0c9f\u0ccd\u0c9f\u0ca8\u0ccd\u0ca8\u0cc2\u0cb0\u0cc1", "name:ml": "\u0d2e\u0d1f\u0d4d\u0d1f\u0d28\u0d4d\u0d28\u0d42\u0d7c", "name:ta": "\u0bae\u0b9f\u0bcd\u0b9f\u0ba9\u0bcd\u0ba9\u0bc2\u0bb0\u0bcd", "name:te": "\u0c2e\u0c1f\u0c4d\u0c1f\u0c28\u0c4d\u0c28\u0c42\u0c30\u0c41", "place": "town", "wikidata": "Q2475713", "wikipedia": "en:Mattanur"}}, {"type": "node", "id": 585132490, "lat": 11.9872395, "lon": 75.5494735, "tags": {"name": "Irikkoor", "name:kn": "\u0c87\u0cb0\u0cbf\u0c95\u0ccd\u0c95\u0cc2\u0cb0\u0cc1", "name:ml": "\u0d07\u0d30\u0d3f\u0d15\u0d4d\u0d15\u0d42\u0d7c", "place": "town", "wikidata": "Q13110440", "wikipedia": "en:Irikkur"}}, {"type": "node", "id": 585132501, "lat": 12.0625114, "lon": 75.5813475, "tags": {"name": "Payyavoor", "name:kn": "\u0caa\u0caf\u0ccd\u0caf\u0cbe\u0cb5\u0cc2\u0cb0\u0cc1", "name:ml": "\u0d2a\u0d2f\u0d4d\u0d2f\u0d3e\u0d35\u0d42\u0d7c", "place": "town", "wikidata": "Q3595437", "wikimedia_commons": "Category:Payyavoor", "wikipedia": "en:Payyavoor"}}, {"type": "node", "id": 585132503, "lat": 12.1211282, "lon": 75.48296, "tags": {"name": "Naduvil", "name:kn": "\u0ca8\u0ca1\u0cc1\u0cb5\u0cbf\u0cb2\u0ccd", "name:ml": "\u0d28\u0d1f\u0d41\u0d35\u0d3f\u0d7d", "place": "town", "wikipedia": "en:Naduvil and Kudianmala"}}, {"type": "node", "id": 585132511, "lat": 12.2726529, "lon": 75.3611234, "tags": {"name": "Cherupuzha", "name:kn": "\u0c9a\u0cc6\u0cb0\u0cc1\u0caa\u0cc1\u0c9d", "name:ml": "\u0d1a\u0d46\u0d31\u0d41\u0d2a\u0d41\u0d34", "place": "town", "wikidata": "Q5092623", "wikimedia_commons": "Category:Cherupuzha, Kannur", "wikipedia": "en:Cherupuzha (Kannur)"}}, {"type": "node", "id": 587633211, "lat": 12.191555, "lon": 75.4671357, "tags": {"alt_name:en": "Alakkode", "name": "Alakode", "name:kn": "\u0c86\u0cb2\u0c95\u0ccd\u0c95\u0ccb\u0ca1\u0ccd", "name:ml": "\u0d06\u0d32\u0d15\u0d4d\u0d15\u0d4b\u0d1f\u0d4d", "place": "town", "wikidata": "Q3525198", "wikimedia_commons": "Category:Alakkode", "wikipedia": "en:Alakode, Kannur district"}}, {"type": "node", "id": 603017864, "lat": 12.167433, "lon": 75.4621946, "tags": {"name": "Karuvanchal", "name:kn": "\u0c95\u0cb0\u0cc1\u0cb5\u0cbe\u0c82\u0c9a\u0cb2\u0ccd", "name:ml": "\u0d15\u0d30\u0d41\u0d35\u0d3e\u0d1e\u0d4d\u0d1a\u0d3e\u0d32\u0d4d\u200d", "place": "town", "wikidata": "Q105906176", "wikipedia": "en:Karuvanchal"}}, {"type": "node", "id": 660607469, "lat": 11.9877972, "lon": 75.6768689, "tags": {"name": "Iritty", "name:ar": "\u0625\u064a\u0631\u064a\u062a\u064a", "name:en": "Iritty", "name:hi": "\u0907\u0930\u093f\u091f\u094d\u091f\u0940", "name:kn": "\u0c87\u0cb0\u0cbf\u0c9f\u0ccd\u0c9f\u0cbf", "name:ml": "\u0d07\u0d30\u0d3f\u0d1f\u0d4d\u0d1f\u0d3f", "name:ta": "\u0b87\u0bb0\u0bbf\u0b9f\u0bcd\u0b9f\u0bbf", "name:te": "\u0c07\u0c30\u0c3f\u0c1f\u0c4d\u0c1f\u0c3f", "place": "town", "wikidata": "Q6071873", "wikipedia": "en:Iritty"}}, {"type": "node", "id": 3840911485, "lat": 11.9372933, "lon": 75.7064695, "tags": {"name": "Kakkayangad", "name:kn": "\u0c95\u0cbe\u0c95\u0ccd\u0c95\u0caf\u0c82\u0c97\u0cbe\u0ca1\u0ccd", "name:ml": "\u0d15\u0d3e\u0d15\u0d4d\u0d15\u0d2f\u0d19\u0d4d\u0d19\u0d3e\u0d1f\u0d4d", "place": "town"}}, {"type": "node", "id": 7884829596, "lat": 11.9463813, "lon": 75.6090818, "tags": {"name": "Chavassery", "name:ml": "\u0d1a\u0d3e\u0d35\u0d36\u0d4d\u0d36\u0d47\u0d30\u0d3f", "place": "town", "wikidata": "Q5088479"}}, {"type": "node", "id": 8674710996, "lat": 11.9792946, "lon": 75.3167749, "tags": {"name": "Kannapuram", "name:kn": "\u0c95\u0ca3\u0ccd\u0ca3\u0caa\u0cc1\u0cb0\u0c82", "name:ml": "\u0d15\u0d23\u0d4d\u0d23\u0d2a\u0d41\u0d30\u0d02", "place": "town"}}, {"type": "node", "id": 9106061457, "lat": 12.0958199, "lon": 75.5471122, "tags": {"description": "Chemperi is a town on the bank of the Chemperi River, in the Western Ghat, in the Kannur district of South India. Chemperi is often referred as the education city of Kannur with the establishment of Vimal Jyothi Engineering College, Chemperi.", "image": "https://mapio.net/images-p/57629804.jpg", "name": "Chemperi", "name:en": "Chemperi", "name:hi": "\u091a\u0947\u092e\u094d\u092a\u0947\u0930\u0940", "name:kn": "\u0c9a\u0cc6\u0c82\u0caa\u0cc7\u0cb0\u0cbf", "name:ml": "\u0d1a\u0d46\u0d2e\u0d4d\u0d2a\u0d47\u0d30\u0d3f", "name:ta": "\u0b9a\u0bc6\u0bae\u0bcd\u0baa\u0bc7\u0bb0\u0bbf", "place": "town", "website": "https://en.wikipedia.org/wiki/Chemperi", "wikidata": "Q5090640", "wikipedia": "en:Chemperi"}}, {"type": "node", "id": 10704925521, "lat": 11.9864839, "lon": 75.3793645, "tags": {"name": "Anthoor", "name:kn": "\u0c86\u0c82\u0ca4\u0cc2\u0cb0\u0cc1", "name:ml": "\u0d06\u0d28\u0d4d\u0d24\u0d42\u0d30\u0d4d\u200d", "place": "town", "wikidata": "Q20065232"}}, {"type": "node", "id": 10977453536, "lat": 12.0430312, "lon": 75.3595793, "tags": {"name": "Kappalam", "name:ml": "\u0d15\u0d2a\u0d4d\u0d2a\u0d3e\u0d32\u0d02", "place": "town"}}, {"type": "node", "id": 10977453537, "lat": 12.0431465, "lon": 75.3557344, "tags": {"name": "Chiravakku", "place": "town"}}]}