{"version": 0.6, "generator": "Overpass API 0.7.62.1 084b4234", "osm3s": {"timestamp_osm_base": "2024-11-07T07:13:19Z", "copyright": "The data included in this document is from www.openstreetmap.org. The data is made available under ODbL."}, "elements": [{"type": "node", "id": 594877391, "lat": 9.7685613, "lon": 76.3182441, "tags": {"name": "Thuravoor", "name:ml": "\u0d24\u0d41\u0d31\u0d35\u0d42\u0d7c", "place": "village", "wikidata": "Q12071007", "wikimedia_commons": "Category:Thuravoor, Cherthala", "wikipedia": "en:Thuravoor, Cherthala"}}, {"type": "node", "id": 594903677, "lat": 9.8526538, "lon": 76.362496, "tags": {"name": "Perumbalam", "name:ml": "\u0d2a\u0d46\u0d30\u0d41\u0d2e\u0d4d\u0d2a\u0d33\u0d02", "place": "village", "wikidata": "Q7171054", "wikipedia": "en:Perumbalam"}}, {"type": "node", "id": 594903700, "lat": 9.8653102, "lon": 76.3237204, "tags": {"alt_name:en": "Arookutty", "name": "Arukutti", "name:ml": "\u0d05\u0d30\u0d42\u0d15\u0d4d\u0d15\u0d41\u0d31\u0d4d\u0d31\u0d3f", "place": "village", "wikidata": "Q2449457", "wikipedia": "en:Arookutty"}}, {"type": "node", "id": 594937932, "lat": 9.93336, "lon": 76.50003, "tags": {"is_in:country": "india", "is_in:district": "Ernakulam", "is_in:state": "kerala", "name": "Ramamangalam", "name:ml": "\u0d30\u0d3e\u0d2e\u0d2e\u0d02\u0d17\u0d32\u0d02", "place": "village", "wikidata": "Q7288856", "wikipedia": "en:Ramamangalam"}}, {"type": "node", "id": 617875104, "lat": 10.044776, "lon": 76.3151306, "tags": {"is_in": "Ernakulam;Kerala;KL;India;IN", "is_in:country": "india", "is_in:district": "Ernakulam", "is_in:state": "kerala", "name": "South Kalamassery", "name:ml": "\u0d38\u0d57\u0d24\u0d4d\u0d24\u0d4d \u0d15\u0d33\u0d2e\u0d36\u0d4d\u0d36\u0d47\u0d30\u0d3f", "place": "village"}}, {"type": "node", "id": 671562798, "lat": 9.7941725, "lon": 76.302707, "tags": {"name": "Ezhupunna South", "place": "village"}}, {"type": "node", "id": 675512591, "lat": 9.745602, "lon": 76.5304454, "tags": {"name": "Kanjirathanam", "name:ml": "\u0d15\u0d3e\u0d1e\u0d4d\u0d1e\u0d3f\u0d30\u0d24\u0d4d\u0d24\u0d3e\u0d28\u0d02", "place": "village", "wikidata": "Q6363496", "wikipedia": "en:Kanjirathanam"}}, {"type": "node", "id": 983508976, "lat": 9.6760292, "lon": 76.3921457, "tags": {"name": "Thaneermukkom", "name:ml": "\u0d24\u0d23\u0d4d\u0d23\u0d40\u0d30\u0d4d\u200d\u0d2e\u0d41\u0d15\u0d4d\u0d15\u0d02", "place": "village", "population": "31525", "source:population": "https://censusindia.gov.in", "ward": "6", "wikidata": "Q7710607", "wikipedia": "en:Thanneermukkom"}}, {"type": "node", "id": 1111328797, "lat": 9.9698663, "lon": 76.4383386, "tags": {"is_in": "Ernakulam;Kerala;KL;India;IN", "is_in:country": "india", "is_in:district": "Ernakulam", "is_in:state": "kerala", "name": "Choondy", "name:ml": "\u0d1a\u0d42\u0d23\u0d4d\u0d1f\u0d3f", "place": "village"}}, {"type": "node", "id": 1111329103, "lat": 9.948234, "lon": 76.4573325, "tags": {"is_in": "Ernakulam;Kerala;KL;India;IN", "is_in:country": "india", "is_in:district": "Ernakulam", "is_in:state": "kerala", "name": "Meempara", "name:ml": "\u0d2e\u0d40\u0d2e\u0d4d\u0d2a\u0d3e\u0d31", "place": "village"}}, {"type": "node", "id": 1111330238, "lat": 9.9233069, "lon": 76.4583721, "tags": {"is_in": "Ernakulam;Kerala;KL;India;IN", "is_in:country": "india", "is_in:district": "Ernakulam", "is_in:state": "kerala", "name": "Ezhakkaranad", "name:ml": "\u0d0f\u0d34\u0d15\u0d4d\u0d15\u0d30\u0d28\u0d3e\u0d1f\u0d4d", "place": "village"}}, {"type": "node", "id": 1111438312, "lat": 10.0250461, "lon": 76.4496282, "tags": {"is_in": "Ernakulam;Kerala;KL;India;IN", "is_in:country": "india", "is_in:district": "Ernakulam", "is_in:state": "kerala", "name": "Pattimattom", "name:ml": "\u0d2a\u0d1f\u0d4d\u0d1f\u0d3f\u0d2e\u0d31\u0d4d\u0d31\u0d02", "place": "village", "wikidata": "Q7148583", "wikipedia": "en:Pattimattom"}}, {"type": "node", "id": 1116406963, "lat": 9.9424591, "lon": 76.4717452, "tags": {"is_in": "Ernakulam;Kerala;KL;India;IN", "is_in:country": "india", "is_in:district": "Ernakulam", "is_in:state": "kerala", "name": "Perumpayipady", "name:ml": "\u0d2a\u0d46\u0d30\u0d41\u0d2e\u0d4d\u0d2a\u0d3e\u0d2f\u0d3f\u0d2a\u0d1f\u0d3f", "place": "village"}}, {"type": "node", "id": 1116407104, "lat": 9.9438963, "lon": 76.4685266, "tags": {"is_in": "Poothrikka;Ernakulam;Kerala;KL;India;IN", "is_in:country": "india", "is_in:district": "Ernakulam", "is_in:state": "kerala", "name": "Blayilpady", "name:ml": "\u0d2c\u0d4d\u0d32\u0d3e\u0d2f\u0d3f\u0d7d\u0d2a\u0d1f\u0d3f", "place": "village"}}, {"type": "node", "id": 1116411734, "lat": 9.9569656, "lon": 76.4893164, "tags": {"is_in": "Ernakulam;Kerala;KL;India;IN", "is_in:country": "india", "is_in:district": "Ernakulam", "is_in:state": "kerala", "name": "Karukappilly", "name:ml": "\u0d15\u0d31\u0d41\u0d15\u0d2a\u0d4d\u0d2a\u0d33\u0d4d\u0d33\u0d3f", "place": "village"}}, {"type": "node", "id": 1126485561, "lat": 9.66114, "lon": 76.2994454, "tags": {"name": "Arthunkal", "name:ml": "\u0d05\u0d30\u0d4d\u200d\u0d24\u0d4d\u0d24\u0d41\u0d19\u0d4d\u0d15\u0d32\u0d4d\u200d", "place": "village", "wikidata": "Q2089595", "wikimedia_commons": "Category:Arthunkal", "wikipedia": "en:Arthunkal"}}, {"type": "node", "id": 1195407506, "lat": 10.0592947, "lon": 76.3949773, "tags": {"name": "Pukkattupady", "name:ml": "\u0d2a\u0d42\u0d15\u0d4d\u0d15\u0d3e\u0d1f\u0d4d\u0d1f\u0d41\u0d2a\u0d1f\u0d3f", "place": "village", "wikidata": "Q7259140", "wikipedia": "en:Pukkattupadi"}}, {"type": "node", "id": 1516567918, "lat": 10.0714367, "lon": 76.3865521, "tags": {"is_in:country": "india", "is_in:district": "Ernakulam", "is_in:state": "kerala", "name": "Edathala", "name:ml": "\u0d0e\u0d1f\u0d24\u0d4d\u0d24\u0d32", "place": "village"}}, {"type": "node", "id": 1668551333, "lat": 9.8229307, "lon": 76.3106548, "tags": {"name": "Eramalloor", "name:ml": "\u0d0e\u0d30\u0d2e\u0d32\u0d4d\u0d32\u0d42\u0d7c", "place": "village", "wikidata": "Q5384838", "wikipedia": "en:Eramalloor"}}, {"type": "node", "id": 1725477391, "lat": 9.8906366, "lon": 76.3123749, "tags": {"name": "Kumbalam", "name:ml": "\u0d15\u0d41\u0d2e\u0d4d\u0d2a\u0d33\u0d02", "place": "village", "wikidata": "Q6443705", "wikimedia_commons": "Category:Kumbalam, Ernakulam", "wikipedia": "en:Kumbalam, Ernakulam"}}, {"type": "node", "id": 2271279525, "lat": 9.7546261, "lon": 76.5429111, "tags": {"is_in": "kottayam;Kerala;India", "is_in:country": "india", "is_in:district": "kottayam", "is_in:state": "kerala", "name": "Thottuva", "name:ml": "\u0d24\u0d4b\u0d1f\u0d4d\u0d1f\u0d41\u0d35", "place": "village"}}, {"type": "node", "id": 2271997240, "lat": 9.7165797, "lon": 76.559878, "tags": {"name": "Vempally North", "name:ml": "\u0d35\u0d46\u0d2e\u0d4d\u0d2a\u0d33\u0d4d\u0d33\u0d3f", "place": "village"}}, {"type": "node", "id": 2368847623, "lat": 9.8695373, "lon": 76.4560174, "tags": {"alt_name:en": "Veliyanad", "name": "Veliyanadu", "name:ml": "\u0d35\u0d46\u0d33\u0d3f\u0d2f\u0d28\u0d3e\u0d1f\u0d4d", "place": "village", "wikidata": "Q7919057", "wikipedia": "en:Veliyanad"}}, {"type": "node", "id": 2368847625, "lat": 9.8833098, "lon": 76.4593058, "tags": {"name": "Peppathy", "name:ml": "\u0d2a\u0d47\u0d2a\u0d4d\u0d2a\u0d24\u0d3f", "place": "village"}}, {"type": "node", "id": 2425416421, "lat": 10.0153095, "lon": 76.5243548, "tags": {"name": "Nellad", "name:ml": "\u0d28\u0d46\u0d32\u0d4d\u0d32\u0d3e\u0d1f\u0d4d", "place": "village", "wikidata": "Q101192537"}}, {"type": "node", "id": 2712321384, "lat": 10.0368297, "lon": 76.4069394, "tags": {"name": "Kizhakkambalam", "name:ml": "\u0d15\u0d3f\u0d34\u0d15\u0d4d\u0d15\u0d2e\u0d4d\u0d2a\u0d32\u0d02", "place": "village", "wikidata": "Q6419187", "wikipedia": "en:Kizhakkambalam"}}, {"type": "node", "id": 2905510875, "lat": 9.6993624, "lon": 76.5556258, "tags": {"comment": "May not be the exact location", "is_in": "Kottayam;Kerala;KL;India;IN", "name": "Pattithanam", "name:ml": "\u0d2a\u0d1f\u0d4d\u0d1f\u0d3f\u0d24\u0d4d\u0d24\u0d3e\u0d28\u0d02", "place": "village", "wikidata": "Q7148603", "wikipedia": "en:Pattithanam"}}, {"type": "node", "id": 2905522656, "lat": 9.7361053, "lon": 76.5611854, "tags": {"comment": "May not be the exact location", "is_in": "Kottayam;Kerala;KL;India;IN", "name": "Kuriam", "name:ml": "\u0d15\u0d41\u0d30\u0d4d\u0d2f\u0d02", "place": "village"}}, {"type": "node", "id": 2905522657, "lat": 9.7438714, "lon": 76.560386, "tags": {"comment": "May not be the exact location", "is_in": "Kottayam;Kerala;KL;India;IN", "name": "Pakalomattom", "name:ml": "\u0d2a\u0d15\u0d32\u0d4b\u0d2e\u0d31\u0d4d\u0d31\u0d02", "place": "village"}}, {"type": "node", "id": 2905549875, "lat": 10.0855565, "lon": 76.5046492, "tags": {"comment": "not exact location", "is_in": "Kerala;KL;India;IN", "name": "Pulluvazhi", "name:ml": "\u0d2a\u0d41\u0d32\u0d4d\u0d32\u0d41\u0d35\u0d34\u0d3f", "place": "village", "wikidata": "Q19678302", "wikipedia": "en:Pulluvazhy"}}, {"type": "node", "id": 2905560263, "lat": 9.8537485, "lon": 76.402041, "tags": {"comment": "not exact location", "is_in": "Kerala;KL;India;IN", "name": "Kanjiramattom", "name:ml": "\u0d15\u0d3e\u0d1e\u0d4d\u0d1e\u0d3f\u0d30\u0d2e\u0d31\u0d4d\u0d31\u0d02", "place": "village", "wikidata": "Q6363465", "wikipedia": "en:Kanjiramattom"}}, {"type": "node", "id": 2905560264, "lat": 9.9008567, "lon": 76.3888568, "tags": {"comment": "not exact location", "name": "Mulanthuruthy", "name:ml": "\u0d2e\u0d41\u0d33\u0d28\u0d4d\u0d24\u0d41\u0d30\u0d41\u0d24\u0d4d\u0d24\u0d3f", "name:ta": "\u0bae\u0bc1\u0bb3\u0ba8\u0bcd\u0ba4\u0bc1\u0bb0\u0bc1\u0ba4\u0bcd\u0ba4\u0bbf", "name:te": "\u0c2e\u0c41\u0c32\u0c02\u0c24\u0c41\u0c30\u0c41\u0c24\u0c4d\u0c24\u0c3f", "place": "village", "wikidata": "Q12062155", "wikimedia_commons": "Category:Mulanthuruthy", "wikipedia": "en:Mulanthuruthy"}}, {"type": "node", "id": 2905560265, "lat": 9.8981453, "lon": 76.3688981, "tags": {"name": "Nadakkavu", "name:ml": "\u0d28\u0d1f\u0d15\u0d4d\u0d15\u0d3e\u0d35\u0d4d", "place": "village"}}, {"type": "node", "id": 2905560266, "lat": 9.8452823, "lon": 76.3868676, "tags": {"name": "Poothotta", "name:ml": "\u0d2a\u0d42\u0d24\u0d4d\u0d24\u0d4b\u0d1f\u0d4d\u0d1f", "place": "village"}}, {"type": "node", "id": 2905560267, "lat": 9.8634107, "lon": 76.3823364, "tags": {"name": "South Paravoor", "name:ml": "\u0d24\u0d46\u0d15\u0d4d\u0d15\u0d7b \u0d2a\u0d31\u0d35\u0d42\u0d7c", "place": "village"}}, {"type": "node", "id": 2905560268, "lat": 9.9142717, "lon": 76.3626707, "tags": {"name": "Udayamperoor", "name:ml": "\u0d09\u0d26\u0d2f\u0d02\u0d2a\u0d47\u0d30\u0d42\u0d7c", "place": "village", "wikidata": "Q7877007", "wikimedia_commons": "Category:Udayamperoor", "wikipedia": "en:Udayamperoor"}}, {"type": "node", "id": 2914448779, "lat": 9.8219855, "lon": 76.4313723, "tags": {"name": "Neerpara", "name:ml": "\u0d28\u0d40\u0d7c\u0d2a\u0d4d\u0d2a\u0d3e\u0d31", "place": "village"}}, {"type": "node", "id": 2914448780, "lat": 9.7896966, "lon": 76.4600172, "tags": {"name": "Thalapara", "name:ml": "\u0d24\u0d32\u0d2a\u0d4d\u0d2a\u0d3e\u0d31", "place": "village"}}, {"type": "node", "id": 2914448781, "lat": 9.8255035, "lon": 76.429971, "tags": {"name": "Arayankavu", "name:ml": "\u0d05\u0d30\u0d2f\u0d7b\u0d15\u0d3e\u0d35\u0d4d", "place": "village", "wikidata": "Q4784552", "wikipedia": "en:Arayankavu"}}, {"type": "node", "id": 2920646960, "lat": 9.6502535, "lon": 76.5638811, "tags": {"is_in": "Kottayam:Kerala;KL;India;IN", "name": "KandanChira(Peroor)", "name:en": "KandanChira(Peroor)", "name:ml": "\u0d15\u0d23\u0d4d\u0d1f\u0d7b\u0d1a\u0d3f\u0d31(\u0d2a\u0d47\u0d30\u0d42\u0d7c)", "place": "village", "source": "survey"}}, {"type": "node", "id": 2921833773, "lat": 9.7560576, "lon": 76.4993496, "tags": {"name": "Muttuchira", "name:ml": "\u0d2e\u0d41\u0d1f\u0d4d\u0d1f\u0d41\u0d1a\u0d3f\u0d31", "place": "village", "wikidata": "Q6944124", "wikipedia": "en:Muttuchira"}}, {"type": "node", "id": 2922112919, "lat": 9.7726949, "lon": 76.395308, "tags": {"name": "Udayanapuram", "name:ml": "\u0d09\u0d26\u0d2f\u0d28\u0d3e\u0d2a\u0d41\u0d30\u0d02", "place": "village"}}, {"type": "node", "id": 2961041627, "lat": 9.7119917, "lon": 76.3921183, "tags": {"name": "T V Puram", "place": "village"}}, {"type": "node", "id": 3391973990, "lat": 9.7752637, "lon": 76.5425022, "tags": {"name": "Chayammavu Kavala", "place": "village"}}, {"type": "node", "id": 3391974394, "lat": 9.7912648, "lon": 76.5489112, "tags": {"name": "Vadakkenirappu", "name:ml": "\u0d35\u0d1f\u0d15\u0d4d\u0d15\u0d47\u0d28\u0d3f\u0d30\u0d2a\u0d4d\u0d2a\u0d4d", "place": "village"}}, {"type": "node", "id": 3400302357, "lat": 9.8086444, "lon": 76.5501115, "tags": {"name": "Maduka", "name:ml": "\u0d2e\u0d1f\u0d41\u0d15\u0d4d\u0d15", "place": "village"}}, {"type": "node", "id": 3400302358, "lat": 9.8100929, "lon": 76.5408009, "tags": {"name": "Marangoly", "name:ml": "\u0d2e\u0d30\u0d19\u0d4d\u0d19\u0d4b\u0d32\u0d3f", "place": "village"}}, {"type": "node", "id": 3402091321, "lat": 9.730258, "lon": 76.538197, "tags": {"name": "Sleevapuram", "name:ml": "\u0d38\u0d4d\u0d32\u0d40\u0d35\u0d3e\u0d2a\u0d41\u0d30\u0d02", "place": "village"}}, {"type": "node", "id": 3752720284, "lat": 9.6921463, "lon": 76.4742078, "tags": {"name": "Perunthuruthu", "name:ml": "\u0d2a\u0d46\u0d30\u0d41\u0d28\u0d4d\u0d24\u0d41\u0d30\u0d41\u0d24\u0d4d\u0d24\u0d4d", "place": "village"}}, {"type": "node", "id": 3864517957, "lat": 9.7908599, "lon": 76.2779086, "tags": {"name": "Chellanam", "name:ml": "\u0d1a\u0d46\u0d32\u0d4d\u0d32\u0d3e\u0d28\u0d02", "place": "village", "wikidata": "Q5089913", "wikipedia": "en:Chellanam"}}, {"type": "node", "id": 3864816857, "lat": 10.029049, "lon": 76.3852835, "tags": {"name": "Manakkakadavu", "name:ml": "\u0d2e\u0d28\u0d2f\u0d4d\u0d15\u0d4d\u0d15\u0d15\u0d4d\u0d15\u0d1f\u0d35\u0d4d", "place": "village"}}, {"type": "node", "id": 3864816858, "lat": 10.0256394, "lon": 76.4033185, "tags": {"name": "Pallikkara", "name:ml": "\u0d2a\u0d33\u0d4d\u0d33\u0d3f\u0d15\u0d4d\u0d15\u0d30", "place": "village"}}, {"type": "node", "id": 3874232960, "lat": 9.6779444, "lon": 76.4208901, "tags": {"name": "Vechur", "name:ml": "\u0d35\u0d46\u0d1a\u0d4d\u0d1a\u0d42\u0d7c", "place": "village", "wikidata": "Q7917746", "wikimedia_commons": "Category:Vechoor", "wikipedia": "en:Vechoor"}}, {"type": "node", "id": 3874242974, "lat": 9.8311491, "lon": 76.5443798, "tags": {"name": "Elanji", "name:ml": "\u0d07\u0d32\u0d1e\u0d4d\u0d1e\u0d3f", "place": "village", "wikidata": "Q5353447", "wikipedia": "en:Elanji"}}, {"type": "node", "id": 3875838709, "lat": 9.7476822, "lon": 76.4781972, "tags": {"name": "Ayamkudy", "name:ml": "\u0d06\u0d2f\u0d3e\u0d02\u0d15\u0d41\u0d1f\u0d3f", "place": "village", "wikidata": "Q4830905", "wikimedia_commons": "Category:Ayamkudy", "wikipedia": "en:Ayamkudy"}}, {"type": "node", "id": 3875946117, "lat": 9.7928907, "lon": 76.5263341, "tags": {"name": "Njeezhoor", "name:ml": "\u0d1e\u0d40\u0d34\u0d42\u0d7c", "place": "village", "wikidata": "Q7042410", "wikimedia_commons": "Category:Njeezhoor", "wikipedia": "en:Njeezhoor"}}, {"type": "node", "id": 3876053160, "lat": 9.9045646, "lon": 76.5166104, "tags": {"name": "Anchelpetty", "name:ml": "\u0d05\u0d1e\u0d4d\u0d1a\u0d46\u0d7d\u0d2a\u0d46\u0d1f\u0d4d\u0d1f\u0d3f", "place": "village"}}, {"type": "node", "id": 3876053162, "lat": 9.8955717, "lon": 76.5314875, "tags": {"name": "Kakkoor", "name:ml": "\u0d15\u0d3e\u0d15\u0d4d\u0d15\u0d42\u0d7c", "place": "village", "wikidata": "Q30591998", "wikipedia": "en:Kakkoor"}}, {"type": "node", "id": 3876053164, "lat": 9.8899341, "lon": 76.5024605, "tags": {"name": "Onakkoor", "name:ml": "\u0d13\u0d23\u0d15\u0d4d\u0d15\u0d42\u0d7c", "place": "village", "wikidata": "Q7091680", "wikipedia": "en:Onakkoor"}}, {"type": "node", "id": 3876053167, "lat": 9.8890754, "lon": 76.5502092, "tags": {"name": "Thirumarady", "name:ml": "\u0d24\u0d3f\u0d30\u0d41\u0d2e\u0d3e\u0d31\u0d3e\u0d1f\u0d3f", "place": "village", "wikidata": "Q7785346", "wikipedia": "en:Thirumarady"}}, {"type": "node", "id": 4723463715, "lat": 9.8318474, "lon": 76.4536287, "tags": {"name": "Velloor", "name:ml": "\u0d35\u0d46\u0d33\u0d4d\u0d33\u0d42\u0d7c", "place": "village", "wikidata": "Q16137991", "wikipedia": "en:Velloor"}}, {"type": "node", "id": 5890512315, "lat": 9.8560009, "lon": 76.2699303, "tags": {"name": "Kandakkadavu", "name:ml": "\u0d15\u0d23\u0d4d\u0d1f\u0d15\u0d4d\u0d15\u0d1f\u0d35\u0d4d", "place": "village"}}, {"type": "node", "id": 6540235887, "lat": 10.0639411, "lon": 76.2148506, "tags": {"name": "Nayarambalam", "name:ml": "\u0d28\u0d3e\u0d2f\u0d30\u0d2e\u0d4d\u0d2a\u0d32\u0d02", "place": "village", "postal_code": "682509"}}, {"type": "node", "id": 6781487320, "lat": 10.0420124, "lon": 76.2192723, "tags": {"alt_name": "Narakkal", "name": "Njarackal", "name:ml": "\u0d1e\u0d3e\u0d31\u0d15\u0d4d\u0d15\u0d7d", "place": "village", "wikidata": "Q7042396", "wikipedia": "en:Njarackal"}}, {"type": "node", "id": 7195273579, "lat": 10.0842233, "lon": 76.3064567, "tags": {"name": "Binanipuram", "name:ml": "\u0d2c\u0d3f\u0d28\u0d3e\u0d28\u0d3f\u0d2a\u0d41\u0d30\u0d02", "place": "village"}}, {"type": "node", "id": 7195273581, "lat": 10.0876476, "lon": 76.3029105, "tags": {"name": "Edayar", "name:ml": "\u0d0e\u0d1f\u0d2f\u0d3e\u0d7c", "place": "village", "wikidata": "Q5335732", "wikipedia": "en:Edayar"}}, {"type": "node", "id": 7205758890, "lat": 10.030615, "lon": 76.2220886, "tags": {"name": "Elamkunnapuzha", "name:ml": "\u0d0e\u0d33\u0d02\u0d15\u0d41\u0d28\u0d4d\u0d28\u0d2a\u0d41\u0d34", "place": "village", "wikidata": "Q5353375", "wikipedia": "en:Elamkunnapuzha"}}, {"type": "node", "id": 7213667189, "lat": 10.0849543, "lon": 76.2089157, "tags": {"name": "Edavanakkad", "name:ml": "\u0d0e\u0d1f\u0d35\u0d28\u0d15\u0d4d\u0d15\u0d3e\u0d1f\u0d4d", "place": "village", "wikidata": "Q5335722", "wikimedia_commons": "Category:Edavanakad", "wikipedia": "en:Edavanakad"}}, {"type": "node", "id": 7357948949, "lat": 9.9876471, "lon": 76.4856541, "tags": {"name": "Njeriyam Kuzhi", "name:ml": "\u0d1e\u0d46\u0d30\u0d3f\u0d2f\u0d3e\u0d02 \u0d15\u0d41\u0d34\u0d3f", "place": "village"}}, {"type": "node", "id": 7385356082, "lat": 10.0930213, "lon": 76.2663138, "tags": {"name": "Thirumuppam", "name:ml": "\u0d24\u0d3f\u0d30\u0d41\u0d2e\u0d41\u0d2a\u0d4d\u0d2a\u0d02", "place": "village"}}, {"type": "node", "id": 7416617258, "lat": 9.9642242, "lon": 76.4072612, "tags": {"name": "Varikkoli", "name:en": "Varikkoli", "name:ml": "\u0d35\u0d30\u0d3f\u0d15\u0d4d\u0d15\u0d4b\u0d32\u0d3f", "place": "village"}}, {"type": "node", "id": 7416617260, "lat": 9.9434669, "lon": 76.373653, "tags": {"name": "Thiruvankulam", "name:en": "Thiruvamkulam", "name:ml": "\u0d24\u0d3f\u0d30\u0d41\u0d35\u0d3e\u0d19\u0d4d\u0d15\u0d41\u0d33\u0d02", "place": "village", "wikipedia": "en:Thiruvamkulam"}}, {"type": "node", "id": 7467949675, "lat": 9.9128911, "lon": 76.2827473, "tags": {"name": "Edakochi", "name:ml": "\u0d07\u0d1f\u0d15\u0d4a\u0d1a\u0d4d\u0d1a\u0d3f", "place": "village", "wikidata": "Q5335670", "wikipedia": "en:Edakochi"}}, {"type": "node", "id": 7481947111, "lat": 10.0454673, "lon": 76.5334432, "tags": {"name": "Mannoor", "name:ml": "\u0d2e\u0d23\u0d4d\u0d23\u0d42\u0d7c", "place": "village", "wikidata": "Q28173039", "wikipedia": "en:Mannoor, Ernakulam"}}, {"type": "node", "id": 7484137939, "lat": 10.0604809, "lon": 76.5064919, "tags": {"name": "Airapuram", "name:ml": "\u0d10\u0d30\u0d3e\u0d2a\u0d41\u0d30\u0d02", "place": "village"}}, {"type": "node", "id": 7674559424, "lat": 9.9131158, "lon": 76.3804539, "tags": {"name": "Kandanad", "name:ml": "\u0d15\u0d23\u0d4d\u0d1f\u0d28\u0d3e\u0d1f\u0d4d", "place": "village"}}, {"type": "node", "id": 7674559427, "lat": 9.9198895, "lon": 76.3913877, "tags": {"name": "Kanayannur", "name:ml": "\u0d15\u0d23\u0d2f\u0d28\u0d4d\u0d28\u0d42\u0d7c", "place": "village"}}, {"type": "node", "id": 7883418601, "lat": 9.9178589, "lon": 76.3540444, "tags": {"name": "Manakunnam", "name:ml": "\u0d2e\u0d28\u0d15\u0d41\u0d28\u0d4d\u0d28\u0d02", "place": "village"}}, {"type": "node", "id": 7884755381, "lat": 10.0405599, "lon": 76.2805116, "tags": {"name": "Cheranallur", "name:ml": "\u0d1a\u0d47\u0d30\u0d3e\u0d28\u0d32\u0d4d\u0d32\u0d42\u0d7c", "place": "village"}}, {"type": "node", "id": 8068175431, "lat": 9.9806773, "lon": 76.5204298, "tags": {"name": "Valakom", "name:ml": "\u0d35\u0d3e\u0d33\u0d15\u0d02", "place": "village", "wikidata": "Q7909219", "wikipedia": "en:Valakam, Ernakulam district"}}, {"type": "node", "id": 8113716767, "lat": 9.6694712, "lon": 76.5063039, "tags": {"name": "Kaipuzha", "name:ml": "\u0d15\u0d48\u0d2a\u0d4d\u0d2a\u0d41\u0d34", "place": "village", "postal_code": "686602", "wikipedia": "en:Kaipuzha"}}, {"type": "node", "id": 8395876466, "lat": 9.8978298, "lon": 76.4507364, "tags": {"name": "Memmugham", "name:ml": "\u0d2e\u0d47\u0d2e\u0d4d\u0d2e\u0d41\u0d16\u0d02", "place": "village"}}, {"type": "node", "id": 8410963182, "lat": 9.7836626, "lon": 76.4576622}, {"type": "node", "id": 8410963183, "lat": 9.7835131, "lon": 76.4581365}, {"type": "node", "id": 8410963184, "lat": 9.7830083, "lon": 76.4581554}, {"type": "node", "id": 8410963185, "lat": 9.7830083, "lon": 76.4576486}, {"type": "node", "id": 8410963186, "lat": 9.7830857, "lon": 76.4576513}, {"type": "node", "id": 8556189476, "lat": 9.7426929, "lon": 76.5472765, "tags": {"name": "Nazareth Hill", "name:ml": "\u0d15\u0d33\u0d24\u0d4d\u0d24\u0d42\u0d7c", "place": "village"}}, {"type": "node", "id": 8597707028, "lat": 9.7259843, "lon": 76.5609975, "tags": {"comment": "May not be the exact location", "is_in": "Kottayam;Kerala;KL;India;IN", "name": "Kalikavu", "name:ml": "\u0d15\u0d3e\u0d33\u0d3f\u0d15\u0d3e\u0d35\u0d4d", "place": "village", "wikidata": "Q15233010", "wikipedia": "en:Kalikave"}}, {"type": "node", "id": 8644069748, "lat": 9.9057974, "lon": 76.4576611, "tags": {"name": "Maneed", "place": "village"}}, {"type": "node", "id": 8659587699, "lat": 9.7198025, "lon": 76.5443608, "tags": {"name": "Kalathoor", "name:ml": "\u0d15\u0d33\u0d24\u0d4d\u0d24\u0d42\u0d7c", "place": "village"}}, {"type": "node", "id": 8660054707, "lat": 9.7287041, "lon": 76.5192838, "tags": {"name": "Manjoor", "name:ml": "\u0d2e\u0d3e\u0d1e\u0d4d\u0d1e\u0d42\u0d7c", "place": "village", "wikidata": "Q6750413", "wikipedia": "en:Manjoor (village)"}}, {"type": "node", "id": 8660054708, "lat": 9.7194698, "lon": 76.5267406, "tags": {"name": "Kothanalloor", "name:ml": "\u0d15\u0d4b\u0d24\u0d28\u0d32\u0d4d\u0d32\u0d42\u0d30\u0d4d\u200d", "place": "village"}}, {"type": "node", "id": 8730210272, "lat": 10.0854173, "lon": 76.2373528, "tags": {"name": "Chathanad", "name:ml": "\u0d1a\u0d3e\u0d24\u0d4d\u0d24\u0d28\u0d3e\u0d1f\u0d4d", "place": "village"}}, {"type": "node", "id": 8833291161, "lat": 9.93392, "lon": 76.4248118, "tags": {"name": "Thiruvaniyoor", "name:ml": "\u0d24\u0d3f\u0d30\u0d41\u0d35\u0d3e\u0d23\u0d3f\u0d2f\u0d42\u0d7c", "place": "village"}}, {"type": "node", "id": 8869891592, "lat": 9.8267676, "lon": 76.5639032, "tags": {"name": "Mutholapuram", "place": "village"}}, {"type": "node", "id": 9069114580, "lat": 9.9273625, "lon": 76.3765025, "tags": {"name": "Kurikad", "name:ml": "\u0d15\u0d41\u0d30\u0d40\u0d15\u0d4d\u0d15\u0d3e\u0d1f\u0d4d", "place": "village"}}, {"type": "node", "id": 10015282133, "lat": 9.7185185, "lon": 76.337456, "tags": {"name": "Vayalar", "name:ml": "\u0d35\u0d2f\u0d32\u0d3e\u0d7c", "place": "village", "wikidata": "Q3529962", "wikimedia_commons": "Category:Vayalar", "wikipedia": "en:Vayalar"}}, {"type": "node", "id": 10025119179, "lat": 9.9197039, "lon": 76.5208241, "tags": {"name": "Pampakuda", "name:ml": "\u0d2a\u0d3e\u0d2e\u0d4d\u0d2a\u0d3e\u0d15\u0d4d\u0d15\u0d41\u0d1f", "place": "village", "wikidata": "Q7129396", "wikipedia": "en:Pampakuda"}}, {"type": "node", "id": 10041250564, "lat": 9.6965266, "lon": 76.3612224, "tags": {"name": "Varanad", "name:ml": "\u0d35\u0d30\u0d28\u0d3e\u0d1f\u0d4d", "place": "village"}}, {"type": "node", "id": 10048942078, "lat": 9.8210605, "lon": 76.2986273, "tags": {"name": "Ezhupunna", "name:ml": "\u0d0e\u0d34\u0d41\u0d2a\u0d41\u0d28\u0d4d\u0d28", "place": "village", "wikidata": "Q5423287", "wikimedia_commons": "Category:Ezhupunna", "wikipedia": "en:Ezhupunna"}}, {"type": "node", "id": 10049205630, "lat": 9.7605593, "lon": 76.3626011, "tags": {"alt_name": "Pallipuram", "name": "Pallippuram", "name:ml": "\u0d2a\u0d33\u0d4d\u0d33\u0d3f\u0d2a\u0d4d\u0d2a\u0d41\u0d31\u0d02", "place": "village", "wikidata": "Q13113157", "wikimedia_commons": "Category:Pallippuram, Alappuzha", "wikipedia": "en:Pallippuram, Alappuzha"}}, {"type": "node", "id": 10049207070, "lat": 9.8008428, "lon": 76.3536554, "tags": {"name": "Poochakkal", "name:ml": "\u0d2a\u0d42\u0d1a\u0d4d\u0d1a\u0d3e\u0d15\u0d4d\u0d15\u0d7d", "place": "village", "wikidata": "Q7228497"}}, {"type": "node", "id": 10049446827, "lat": 9.7734811, "lon": 76.342421, "tags": {"alt_name": "Thaikkattussery", "name": "Thycattussery", "name:ml": "\u0d24\u0d48\u0d15\u0d4d\u0d15\u0d3e\u0d1f\u0d4d\u0d1f\u0d41\u0d36\u0d4d\u0d36\u0d47\u0d30\u0d3f", "place": "village", "wikidata": "Q7709210", "wikimedia_commons": "Category:Thaikattussery", "wikipedia": "en:Thaikattussery"}}, {"type": "node", "id": 10051699659, "lat": 9.8740593, "lon": 76.2894421, "tags": {"name": "Kumbalangi", "name:ml": "\u0d15\u0d41\u0d2e\u0d4d\u0d2a\u0d33\u0d19\u0d4d\u0d19\u0d3f", "place": "village", "wikidata": "Q388666", "wikimedia_commons": "Category:Kumbalangi", "wikipedia": "en:Kumbalangi"}}, {"type": "node", "id": 10065234906, "lat": 9.6521041, "lon": 76.3179589, "tags": {"name": "Cherthala South", "name:ml": "\u0d1a\u0d47\u0d7c\u0d24\u0d4d\u0d24\u0d32 \u0d24\u0d46\u0d15\u0d4d\u0d15\u0d4d", "place": "village", "wikidata": "Q5092580", "wikipedia": "en:Cherthala South"}}, {"type": "node", "id": 10213956207, "lat": 9.8505703, "lon": 76.3275448, "tags": {"name": "Vaduthala", "name:ml": "\u0d35\u0d1f\u0d41\u0d24\u0d32", "place": "village"}}, {"type": "node", "id": 10288032077, "lat": 10.0024294, "lon": 76.4577397, "tags": {"name": "Kadayiruppu", "name:ml": "\u0d15\u0d1f\u0d2f\u0d3f\u0d30\u0d41\u0d2a\u0d4d\u0d2a\u0d4d", "place": "village"}}, {"type": "node", "id": 10288032078, "lat": 9.9896046, "lon": 76.3997053, "tags": {"name": "Karimugal", "name:ml": "\u0d15\u0d30\u0d3f\u0d2e\u0d41\u0d17\u0d7e", "place": "village"}}, {"type": "node", "id": 10575989296, "lat": 9.8685928, "lon": 76.2650889, "tags": {"name": "Puthanthodu", "name:ml": "\u0d2a\u0d41\u0d24\u0d4d\u0d24\u0d7b\u0d24\u0d4b\u0d1f\u0d4d", "place": "village"}}, {"type": "node", "id": 10575989297, "lat": 9.8934263, "lon": 76.2589788, "tags": {"name": "Cheriyakadavu", "name:ml": "\u0d1a\u0d46\u0d31\u0d3f\u0d2f\u0d15\u0d1f\u0d35\u0d4d", "place": "village"}}, {"type": "node", "id": 10608577644, "lat": 9.8276849, "lon": 76.5011261, "tags": {"name": "Peruva", "name:ml": "\u0d2a\u0d46\u0d30\u0d41\u0d35", "place": "village"}}, {"type": "node", "id": 10608577646, "lat": 9.8033348, "lon": 76.4807414, "tags": {"name": "Keezhoor", "name:ml": "\u0d15\u0d40\u0d34\u0d42\u0d7c", "place": "village"}}, {"type": "node", "id": 10608577647, "lat": 9.8865406, "lon": 76.4293609, "tags": {"name": "Arakkunnam", "name:ml": "\u0d06\u0d30\u0d15\u0d4d\u0d15\u0d41\u0d28\u0d4d\u0d28\u0d02", "place": "village", "wikidata": "Q4783855", "wikipedia": "en:Arakkunnam"}}, {"type": "node", "id": 10901453182, "lat": 9.7923448, "lon": 76.3163767, "tags": {"alt_name": "Kuthiyathode", "name": "Kuthiathode", "name:ml": "\u0d15\u0d41\u0d24\u0d4d\u0d24\u0d3f\u0d2f\u0d24\u0d4b\u0d1f\u0d4d", "name:ta": "\u0b95\u0bc1\u0ba4\u0bcd\u0ba4\u0bbf\u0baf\u0ba4\u0bcb\u0b9f\u0bc1", "place": "village", "population": "23669", "source:population": "https://censusindia.gov.in", "ward": "7", "wikidata": "Q101146679"}}, {"type": "node", "id": 11111121642, "lat": 9.7108342, "lon": 76.5570908, "tags": {"name": "Vempally South", "name:ml": "\u0d35\u0d46\u0d2e\u0d4d\u0d2a\u0d33\u0d4d\u0d33\u0d3f", "place": "village"}}, {"type": "node", "id": 11420167582, "lat": 10.0347797, "lon": 76.5461501, "tags": {"name": "Thrikkalathoor", "name:ml": "\u0d24\u0d43\u0d15\u0d4d\u0d15\u0d33\u0d24\u0d4d\u0d24\u0d42\u0d7c", "place": "village", "wikidata": "Q7798154", "wikipedia": "en:Thrikkalathoor"}}, {"type": "node", "id": 11420167583, "lat": 10.0198565, "lon": 76.5616964, "tags": {"name": "Pezhakkappilly", "name:ml": "\u0d2a\u0d47\u0d34\u0d4d\u0d15\u0d4d\u0d15\u0d3e\u0d2a\u0d4d\u0d2a\u0d3f\u0d33\u0d4d\u0d33\u0d3f", "place": "village", "wikidata": "Q7179666", "wikipedia": "en:Pezhakkappilly"}}, {"type": "node", "id": 11420328600, "lat": 9.9995818, "lon": 76.5574551, "tags": {"name": "Mudavoor", "name:ml": "\u0d2e\u0d41\u0d1f\u0d35\u0d42\u0d7c", "place": "village", "wikidata": "Q101193192"}}, {"type": "node", "id": 11637194612, "lat": 9.8462571, "lon": 76.3591298, "tags": {"name": "Perumbalam", "place": "village"}}, {"type": "node", "id": 11775719079, "lat": 9.9441697, "lon": 76.4912194, "tags": {"name": "Ramamangalam", "name:ml": "\u0d30\u0d3e\u0d2e\u0d2e\u0d02\u0d17\u0d32\u0d02", "place": "village", "wikidata": "Q7288856"}}, {"type": "node", "id": 11804131709, "lat": 9.7310049, "lon": 76.3924783, "tags": {"alt_name": "Pallipurathussery", "name": "Pallippurathussery", "name:ml": "\u0d2a\u0d33\u0d4d\u0d33\u0d3f\u0d2a\u0d4d\u0d2a\u0d41\u0d31\u0d24\u0d4d\u0d24\u0d41\u0d36\u0d4d\u0d36\u0d47\u0d30\u0d3f", "place": "village"}}, {"type": "node", "id": 11804172360, "lat": 9.8589173, "lon": 76.4021135, "tags": {"alt_name": "Amballoor", "name": "Amballur", "name:ml": "\u0d06\u0d2e\u0d4d\u0d2a\u0d32\u0d4d\u0d32\u0d42\u0d30\u0d4d\u200d", "place": "village", "wikidata": "Q4741002"}}, {"type": "node", "id": 11826426326, "lat": 9.8389898, "lon": 76.3092429, "tags": {"name": "Chandiroor", "name:ml": "\u0d1a\u0d3e\u0d28\u0d4d\u0d26\u0d3f\u0d30\u0d42\u0d7c", "place": "village", "wikidata": "Q5071102"}}, {"type": "node", "id": 11826434257, "lat": 9.747633, "lon": 76.2849326, "tags": {"name": "Andhakaranazhy", "name:ml": "\u0d05\u0d28\u0d4d\u0d27\u0d15\u0d3e\u0d30\u0d28\u0d34\u0d3f", "place": "village", "wikidata": "Q4754326"}}, {"type": "node", "id": 11826538439, "lat": 9.7287273, "lon": 76.3136201, "tags": {"alt_name": "Pattanakad", "name": "Pattanakkad", "name:ml": "\u0d2a\u0d1f\u0d4d\u0d1f\u0d23\u0d15\u0d4d\u0d15\u0d3e\u0d1f\u0d4d", "place": "village", "wikidata": "Q7148312"}}, {"type": "node", "id": 11826600577, "lat": 9.6851643, "lon": 76.3013657, "tags": {"alt_name": "Thaickal", "name": "Thyckal", "name:ml": "\u0d24\u0d48\u0d15\u0d4d\u0d15\u0d7d", "place": "village"}}, {"type": "node", "id": 11826763698, "lat": 9.8162131, "lon": 76.351317, "tags": {"name": "Panavally", "name:ml": "\u0d2a\u0d3e\u0d23\u0d3e\u0d35\u0d33\u0d4d\u0d33\u0d3f", "place": "village", "wikidata": "Q7130125"}}, {"type": "node", "id": 11826794324, "lat": 9.8036221, "lon": 76.301003, "tags": {"name": "Kodamthuruth", "name:ml": "\u0d15\u0d4b\u0d1f\u0d02\u0d24\u0d41\u0d30\u0d41\u0d24\u0d4d\u0d24\u0d4d", "place": "village", "wikidata": "Q6425201"}}, {"type": "node", "id": 11870635834, "lat": 9.8029478, "lon": 76.3319061, "tags": {"alt_name": "Olavaypu", "name": "Ulavaipu", "place": "village", "wikidata": "Q7878771"}}, {"type": "node", "id": 11899334669, "lat": 9.8626906, "lon": 76.2921938, "tags": {"name": "Pazhangadu", "name:ml": "\u0d2a\u0d34\u0d19\u0d4d\u0d19\u0d3e\u0d1f\u0d4d", "place": "village"}}, {"type": "node", "id": 12304215951, "lat": 9.9709934, "lon": 76.3813312, "tags": {"name": "Ambalamugal", "name:ml": "\u0d05\u0d2e\u0d4d\u0d2a\u0d32\u0d2e\u0d41\u0d17\u0d7e", "place": "village", "wikidata": "Q4740970"}}, {"type": "way", "id": 905716069, "nodes": [8410963182, 8410963183, 8410963184, 8410963185, 8410963186, 8410963182], "tags": {"name": "VILLAS AND APARTMENTS", "place": "village"}}]}