{"version": 0.6, "generator": "Overpass API 0.7.62.1 084b4234", "osm3s": {"timestamp_osm_base": "2024-11-07T08:37:43Z", "copyright": "The data included in this document is from www.openstreetmap.org. The data is made available under ODbL."}, "elements": [{"type": "node", "id": 364314316, "lat": 9.0043321, "lon": 77.1884827, "tags": {"name": "Puliyarai", "name:ml": "\u0d2a\u0d41\u0d33\u0d3f\u0d2f\u0d31", "name:ta": "\u0baa\u0bc1\u0bb3\u0bbf\u0baf\u0bb1\u0bc8", "place": "village"}}, {"type": "node", "id": 3513910057, "lat": 8.9774094, "lon": 77.1512254, "tags": {"name": "Aryankavu", "name:ml": "\u0d06\u0d30\u0d4d\u0d2f\u0d19\u0d4d\u0d15\u0d3e\u0d35\u0d4d", "name:ta": "\u0b86\u0bb0\u0bbf\u0baf\u0b99\u0bcd\u0b95\u0bbe\u0bb5\u0bc1", "place": "village", "population": "16660", "source": "http://lsgkerala.in/aryankavupanchayat/", "wikidata": "Q13110115", "wikipedia": "ml:\u0d05\u0d30\u0d4d\u0d2f\u0d19\u0d4d\u0d15\u0d3e\u0d35\u0d4d \u0d17\u0d4d\u0d30\u0d3e\u0d2e\u0d2a\u0d1e\u0d4d\u0d1a\u0d3e\u0d2f\u0d24\u0d4d\u0d24\u0d4d"}}, {"type": "node", "id": 6281612985, "lat": 9.013289, "lon": 77.1928596, "tags": {"name": "Bhagavathipuram", "name:ml": "\u0d2d\u0d17\u0d35\u0d24\u0d3f\u0d2a\u0d41\u0d30\u0d02", "name:ta": "\u0baa\u0b95\u0bb5\u0ba4\u0bbf\u0baa\u0bc1\u0bb0\u0bae\u0bcd", "place": "village"}}, {"type": "node", "id": 11439553554, "lat": 8.9551457, "lon": 77.1527698, "tags": {"name": "Palaruvi", "name:ml": "\u0d2a\u0d3e\u0d32\u0d30\u0d41\u0d35\u0d3f", "name:ta": "\u0baa\u0bbe\u0bb2\u0bb0\u0bc1\u0bb5\u0bbf", "place": "village", "wikidata": "Q7126740", "wikipedia": "en:Palaruvi"}}]}