{"version": 0.6, "generator": "Overpass API 0.7.62.1 084b4234", "osm3s": {"timestamp_osm_base": "2024-11-07T07:13:19Z", "copyright": "The data included in this document is from www.openstreetmap.org. The data is made available under ODbL."}, "elements": [{"type": "node", "id": 245582056, "lat": 8.8618736, "lon": 76.7052829, "tags": {"name": "Adichanallur", "name:ml": "\u0d05\u0d1f\u0d3f\u0d1a\u0d4d\u0d1a\u0d28\u0d32\u0d4d\u0d32\u0d42\u0d7c", "place": "village", "population": "5000", "postal_code": "691573"}}, {"type": "node", "id": 1842778359, "lat": 8.8234714, "lon": 76.8823652, "tags": {"name": "Nilamel", "name:ml": "\u0d28\u0d3f\u0d32\u0d2e\u0d47\u0d7d", "name:ta": "\u0ba8\u0bbf\u0bb2\u0bae\u0bc7\u0bb2\u0bcd", "place": "village", "population": "14208", "website": "http://lsgkerala.in/nilamelpanchayat", "wikidata": "Q13564516", "wikipedia": "en:Nilamel"}}, {"type": "node", "id": 1917672465, "lat": 8.8126644, "lon": 76.7584102, "tags": {"name": "Parippally", "name:kn": "\u0caa\u0cbe\u0cb0\u0cbf\u0caa\u0ccd\u0caa\u0cb2\u0ccd\u0cb2\u0cbf", "name:ml": "\u0d2a\u0d3e\u0d30\u0d3f\u0d2a\u0d4d\u0d2a\u0d33\u0d4d\u0d33\u0d3f", "name:ta": "\u0baa\u0bbe\u0bb0\u0bbf\u0baa\u0bcd\u0baa\u0bb3\u0bcd\u0bb3\u0bbf", "place": "village", "wikidata": "Q7137154", "wikipedia": "en:Parippally"}}, {"type": "node", "id": 1917673621, "lat": 8.8312511, "lon": 76.7458561, "tags": {"name": "Kalluvathukkal", "name:ml": "\u0d15\u0d32\u0d4d\u0d32\u0d41\u0d35\u0d3e\u0d24\u0d41\u0d15\u0d4d\u0d15\u0d7d", "place": "village", "wikidata": "Q6353986", "wikimedia_commons": "Category:Kalluvathukkal", "wikipedia": "en:Kalluvathukkal"}}, {"type": "node", "id": 1917681268, "lat": 8.8492369, "lon": 76.7526424, "tags": {"name": "Nadakkal", "name:ml": "\u0d28\u0d1f\u0d2f\u0d4d\u200c\u0d15\u0d4d\u0d15\u0d7d", "place": "village", "wikidata": "Q15260739", "wikipedia": "en:Nadakkal"}}, {"type": "node", "id": 1917687930, "lat": 8.8499785, "lon": 76.7336084, "tags": {"name": "Karamcode", "name:ml": "\u0d15\u0d3e\u0d30\u0d02\u0d15\u0d4b\u0d1f\u0d4d", "place": "village"}}, {"type": "node", "id": 2495945497, "lat": 9.0232575, "lon": 76.8472134, "tags": {"name": "Kunnikode", "name:ml": "\u0d15\u0d41\u0d28\u0d4d\u0d28\u0d3f\u0d15\u0d4d\u0d15\u0d4b\u0d1f\u0d4d", "name:ta": "\u0b95\u0bc1\u0ba9\u0bcd\u0ba9\u0bbf\u0b95\u0bcd\u0b95\u0bcb\u0b9f\u0bc1", "place": "village"}}, {"type": "node", "id": 2613046574, "lat": 8.8575548, "lon": 76.6174437, "tags": {"name": "Eravipuram", "name:ml": "\u0d07\u0d30\u0d35\u0d3f\u0d2a\u0d41\u0d30\u0d02", "place": "village", "wikidata": "Q5385069", "wikimedia_commons": "Category:Eravipuram", "wikipedia": "en:Eravipuram"}}, {"type": "node", "id": 2804259259, "lat": 9.1735496, "lon": 76.6083688, "tags": {"name": "Charummoodu", "name:ml": "\u0d1a\u0d3e\u0d30\u0d41\u0d2e\u0d4d\u0d2e\u0d42\u0d1f\u0d4d", "name:ta": "\u0b9a\u0bbe\u0bb0\u0bc1\u0bae\u0bcd\u0bae\u0bc2\u0b9f\u0bc1", "place": "village"}}, {"type": "node", "id": 2887272577, "lat": 8.8551067, "lon": 76.8747388, "tags": {"name": "Kannankode", "name:ml": "\u0d15\u0d23\u0d4d\u0d23\u0d19\u0d4d\u0d15\u0d4b\u0d1f\u0d4d", "place": "village"}}, {"type": "node", "id": 2887307367, "lat": 8.8411167, "lon": 76.8801465, "tags": {"name": "Murukkumon", "name:ml": "\u0d2e\u0d41\u0d30\u0d41\u0d15\u0d4d\u0d15\u0d41\u0d2e\u0d7a", "place": "village"}}, {"type": "node", "id": 2905479311, "lat": 9.0908251, "lon": 76.7552635, "tags": {"is_in": "Kerala;KL;India;IN", "name": "Enaathu", "name:ml": "\u0d0f\u0d28\u0d3e\u0d24\u0d4d\u0d24\u0d4d", "place": "village"}}, {"type": "node", "id": 2905479314, "lat": 9.0291587, "lon": 76.7839481, "tags": {"comment": "May not be the exact location", "name": "Mylom", "name:ml": "\u0d2e\u0d48\u0d32\u0d02", "place": "village", "population": "30443", "website": "http://lsgkerala.in/mylompanchayat", "wikidata": "Q16137846", "wikipedia": "ml:\u0d2e\u0d48\u0d32\u0d02 \u0d17\u0d4d\u0d30\u0d3e\u0d2e\u0d2a\u0d1e\u0d4d\u0d1a\u0d3e\u0d2f\u0d24\u0d4d\u0d24\u0d4d"}}, {"type": "node", "id": 2905845602, "lat": 8.9269599, "lon": 76.6397759, "tags": {"comment": "not exact location", "is_in": "Kerala;KL;India;IN", "name": "Chandanathope", "name:ml": "\u0d1a\u0d28\u0d4d\u0d26\u0d28\u0d24\u0d4d\u0d24\u0d4b\u0d2a\u0d4d\u0d2a\u0d4d", "place": "village", "wikidata": "Q5070954", "wikimedia_commons": "Category:Chandanathope", "wikipedia": "en:Chandanathope"}}, {"type": "node", "id": 2915692446, "lat": 8.9869462, "lon": 76.7343377, "tags": {"name": "Ambalathumkala", "name:ml": "\u0d05\u0d2e\u0d4d\u0d2a\u0d32\u0d24\u0d4d\u0d24\u0d41\u0d02\u0d15\u0d3e\u0d32", "place": "village"}}, {"type": "node", "id": 3273630280, "lat": 8.8799401, "lon": 76.588454, "tags": {"name": "Thamarakkulam village", "name:ml": "\u0d24\u0d3e\u0d2e\u0d30\u0d15\u0d4d\u0d15\u0d41\u0d33\u0d02", "place": "village"}}, {"type": "node", "id": 3463922673, "lat": 8.980645, "lon": 76.719235, "tags": {"name": "Ezhukone", "name:ml": "\u0d0e\u0d34\u0d41\u0d15\u0d4b\u0d7a", "place": "village", "population": "22531", "postal_code": "691505", "website": "http://lsgkerala.in/ezhukonepanchayat", "wikidata": "Q13110707", "wikipedia": "ml:\u0d0e\u0d34\u0d41\u0d15\u0d4b\u0d7a \u0d17\u0d4d\u0d30\u0d3e\u0d2e\u0d2a\u0d1e\u0d4d\u0d1a\u0d3e\u0d2f\u0d24\u0d4d\u0d24\u0d4d"}}, {"type": "node", "id": 3463922674, "lat": 8.9904103, "lon": 76.718799, "tags": {"name": "Irumpanangadu", "place": "village", "postal_code": "691505"}}, {"type": "node", "id": 3466927406, "lat": 9.0356649, "lon": 76.8305322, "tags": {"name": "Thalavoor", "name:ml": "\u0d24\u0d32\u0d35\u0d42\u0d7c", "place": "village", "wikidata": "Q7709587", "wikimedia_commons": "Category:Thalavoor", "wikipedia": "en:Thalavoor"}}, {"type": "node", "id": 3473130233, "lat": 9.01396, "lon": 76.8259116, "tags": {"name": "Chengamanadu", "name:ml": "\u0d1a\u0d46\u0d19\u0d4d\u0d19\u0d2e\u0d28\u0d3e\u0d1f\u0d4d", "place": "village"}}, {"type": "node", "id": 3473130234, "lat": 8.9989249, "lon": 76.8264496, "tags": {"name": "Vettikkavala", "name:ml": "\u0d35\u0d46\u0d1f\u0d4d\u0d1f\u0d3f\u0d15\u0d4d\u0d15\u0d35\u0d32", "place": "village"}}, {"type": "node", "id": 3495626849, "lat": 9.0300126, "lon": 76.8648525, "tags": {"name": "Vilakkudi", "name:ml": "\u0d35\u0d3f\u0d33\u0d15\u0d4d\u0d15\u0d41\u0d1f\u0d3f", "place": "village"}}, {"type": "node", "id": 3512712787, "lat": 9.1535061, "lon": 76.7712232, "tags": {"name": "Ezhamkulam", "name:ml": "\u0d0f\u0d34\u0d02\u0d15\u0d41\u0d33\u0d02", "place": "village"}}, {"type": "node", "id": 3513905037, "lat": 8.8805138, "lon": 76.7118791, "tags": {"name": "Adichanalloor", "name:ml": "\u0d06\u0d26\u0d3f\u0d1a\u0d4d\u0d1a\u0d28\u0d32\u0d4d\u0d32\u0d42\u0d7c", "place": "village"}}, {"type": "node", "id": 3513908115, "lat": 8.9004707, "lon": 76.9550755, "tags": {"name": "Alayamon", "name:ml": "\u0d05\u0d32\u0d2f\u0d2e\u0d7a", "place": "village", "population": "18538"}}, {"type": "node", "id": 3513919937, "lat": 8.8301643, "lon": 76.7241066, "tags": {"name": "Chirakkara", "name:ml": "\u0d1a\u0d3f\u0d31\u0d15\u0d4d\u0d15\u0d30", "place": "village", "population": "23824", "website": "http://lsgkerala.in/chirakkarapanchayat/", "wikidata": "Q16137777", "wikipedia": "ml:\u0d1a\u0d3f\u0d31\u0d15\u0d4d\u0d15\u0d30 \u0d17\u0d4d\u0d30\u0d3e\u0d2e\u0d2a\u0d1e\u0d4d\u0d1a\u0d3e\u0d2f\u0d24\u0d4d\u0d24\u0d4d"}}, {"type": "node", "id": 3513922405, "lat": 8.8149645, "lon": 76.9671898, "tags": {"name": "Chithara", "name:ml": "\u0d1a\u0d3f\u0d24\u0d31", "place": "village", "population": "42206", "website": "http://lsgkerala.in/chitharapanchayat", "wikidata": "Q20578505", "wikipedia": "ml:\u0d1a\u0d3f\u0d24\u0d31 \u0d17\u0d4d\u0d30\u0d3e\u0d2e\u0d2a\u0d1e\u0d4d\u0d1a\u0d3e\u0d2f\u0d24\u0d4d\u0d24\u0d4d"}}, {"type": "node", "id": 3513926217, "lat": 8.9038956, "lon": 76.8697199, "tags": {"name": "Edamulackal", "name:ml": "\u0d07\u0d1f\u0d2e\u0d41\u0d33\u0d2f\u0d4d\u0d15\u0d4d\u0d15\u0d7d", "place": "village", "population": "35978", "wikidata": "Q13110375", "wikipedia": "ml:\u0d07\u0d1f\u0d2e\u0d41\u0d33\u0d2f\u0d4d\u0d15\u0d4d\u0d15\u0d7d \u0d17\u0d4d\u0d30\u0d3e\u0d2e\u0d2a\u0d1e\u0d4d\u0d1a\u0d3e\u0d2f\u0d24\u0d4d\u0d24\u0d4d"}}, {"type": "node", "id": 3513930270, "lat": 8.8978269, "lon": 76.8353962, "tags": {"name": "Elamadu", "name:ml": "\u0d07\u0d33\u0d2e\u0d3e\u0d1f\u0d4d", "place": "village", "population": "23941", "website": "http://lsgkerala.in/elamadupanchayat", "wikidata": "Q5353357", "wikipedia": "ml:\u0d07\u0d33\u0d2e\u0d3e\u0d1f\u0d4d \u0d17\u0d4d\u0d30\u0d3e\u0d2e\u0d2a\u0d1e\u0d4d\u0d1a\u0d3e\u0d2f\u0d24\u0d4d\u0d24\u0d4d"}}, {"type": "node", "id": 3513935136, "lat": 8.9560073, "lon": 76.6709397, "tags": {"addr:postcode": "691501", "name": "Elampalloor", "name:ml": "\u0d07\u0d33\u0d2e\u0d4d\u0d2a\u0d33\u0d4d\u0d33\u0d42\u0d7c", "name:ta": "\u0b87\u0bb3\u0bae\u0bcd\u0baa\u0bb3\u0bcd\u0bb3\u0bc2\u0bb0\u0bcd", "place": "village", "population": "45427", "website": "http://lsgkerala.in/elampalloorpanchayat/", "wikidata": "Q13110464", "wikipedia": "ml:\u0d07\u0d33\u0d02\u0d2a\u0d33\u0d4d\u0d33\u0d42\u0d7c \u0d17\u0d4d\u0d30\u0d3e\u0d2e\u0d2a\u0d1e\u0d4d\u0d1a\u0d3e\u0d2f\u0d24\u0d4d\u0d24\u0d4d"}}, {"type": "node", "id": 3513939819, "lat": 8.935959, "lon": 76.9456082, "tags": {"name": "Yeroor", "name:ml": "\u0d0f\u0d30\u0d42\u0d7c", "place": "village", "population": "32723", "website": "http://lsgkerala.in/yeroorpanchayat", "wikidata": "Q13110772", "wikipedia": "ml:\u0d0f\u0d30\u0d42\u0d7c \u0d17\u0d4d\u0d30\u0d3e\u0d2e\u0d2a\u0d1e\u0d4d\u0d1a\u0d3e\u0d2f\u0d24\u0d4d\u0d24\u0d4d"}}, {"type": "node", "id": 3513945089, "lat": 8.8608055, "lon": 76.9208785, "tags": {"name": "Ittiva", "name:ml": "\u0d07\u0d1f\u0d4d\u0d1f\u0d3f\u0d35", "place": "village", "population": "33571", "website": "http://lsgkerala.in/ittivapanchayat", "wikidata": "Q13110382", "wikipedia": "ml:\u0d07\u0d1f\u0d4d\u0d1f\u0d3f\u0d35 \u0d17\u0d4d\u0d30\u0d3e\u0d2e\u0d2a\u0d1e\u0d4d\u0d1a\u0d3e\u0d2f\u0d24\u0d4d\u0d24\u0d4d"}}, {"type": "node", "id": 3513945766, "lat": 8.8336484, "lon": 76.9226998, "tags": {"name": "Kadakkal", "name:ml": "\u0d15\u0d1f\u0d2f\u0d4d\u0d15\u0d4d\u0d15\u0d7d", "place": "village", "population": "45291", "website": "http://lsgkerala.in/kadakkalpanchayat", "wikidata": "Q16136890", "wikipedia": "ml:\u0d15\u0d1f\u0d2f\u0d4d\u0d15\u0d4d\u0d15\u0d7d \u0d17\u0d4d\u0d30\u0d3e\u0d2e\u0d2a\u0d1e\u0d4d\u0d1a\u0d3e\u0d2f\u0d24\u0d4d\u0d24\u0d4d"}}, {"type": "node", "id": 3513947417, "lat": 8.9807724, "lon": 76.9250357, "tags": {"name": "Karavaloor", "name:ml": "\u0d15\u0d30\u0d35\u0d3e\u0d33\u0d42\u0d7c", "place": "village", "population": "21727", "website": "http://lsgkerala.in/karavaloorpanchayat", "wikidata": "Q13110996", "wikipedia": "ml:\u0d15\u0d30\u0d35\u0d3e\u0d33\u0d42\u0d7c \u0d17\u0d4d\u0d30\u0d3e\u0d2e\u0d2a\u0d1e\u0d4d\u0d1a\u0d3e\u0d2f\u0d24\u0d4d\u0d24\u0d4d"}}, {"type": "node", "id": 3513960410, "lat": 9.0099478, "lon": 76.6552388, "tags": {"name": "Kizhakkekallada", "name:ml": "\u0d15\u0d3f\u0d34\u0d15\u0d4d\u0d15\u0d47\u0d15\u0d4d\u0d15\u0d32\u0d4d\u0d32\u0d1f", "place": "village", "population": "20811", "website": "http://lsgkerala.in/eastkalladapanchayat", "wikidata": "Q13111262", "wikipedia": "ml:\u0d15\u0d3f\u0d34\u0d15\u0d4d\u0d15\u0d47\u0d15\u0d4d\u0d15\u0d32\u0d4d\u0d32\u0d1f \u0d17\u0d4d\u0d30\u0d3e\u0d2e\u0d2a\u0d1e\u0d4d\u0d1a\u0d3e\u0d2f\u0d24\u0d4d\u0d24\u0d4d"}}, {"type": "node", "id": 3514041159, "lat": 9.1023671, "lon": 76.837834, "tags": {"name": "Puthuval", "name:ml": "\u0d2a\u0d41\u0d24\u0d41\u0d35\u0d7d", "place": "village"}}, {"type": "node", "id": 3514041160, "lat": 9.134198, "lon": 76.8112506, "tags": {"name": "Enadimangalam", "name:ml": "\u0d0f\u0d28\u0d3e\u0d26\u0d3f\u0d2e\u0d02\u0d17\u0d32\u0d02", "place": "village", "wikidata": "Q5375163", "wikipedia": "en:Enadimangalam"}}, {"type": "node", "id": 3526233530, "lat": 8.9243151, "lon": 76.8542668, "tags": {"name": "Vayakkal", "name:ml": "\u0d35\u0d2f\u0d15\u0d4d\u0d15\u0d7d", "place": "village"}}, {"type": "node", "id": 3551373339, "lat": 9.0653183, "lon": 76.6887975, "tags": {"addr:postcode": "691507", "name": "Kunnathur", "name:ml": "\u0d15\u0d41\u0d28\u0d4d\u0d28\u0d24\u0d4d\u0d24\u0d42\u0d7c", "place": "village", "website": "http://lsgkerala.in/kunnathoorpanchayat/", "wikidata": "Q13111316", "wikipedia": "ml:\u0d15\u0d41\u0d28\u0d4d\u0d28\u0d24\u0d4d\u0d24\u0d42\u0d7c \u0d17\u0d4d\u0d30\u0d3e\u0d2e\u0d2a\u0d1e\u0d4d\u0d1a\u0d3e\u0d2f\u0d24\u0d4d\u0d24\u0d4d"}}, {"type": "node", "id": 3551376025, "lat": 8.7952771, "lon": 76.9229676, "tags": {"name": "Kummil", "name:en": "Kummil", "name:ml": "\u0d15\u0d41\u0d2e\u0d4d\u0d2e\u0d3f\u0d7e", "place": "village", "website": "http://www.lsgkerala.in/kummilpanchayat", "wikidata": "Q16136429", "wikipedia": "ml:\u0d15\u0d41\u0d2e\u0d4d\u0d2e\u0d3f\u0d7e \u0d17\u0d4d\u0d30\u0d3e\u0d2e\u0d2a\u0d1e\u0d4d\u0d1a\u0d3e\u0d2f\u0d24\u0d4d\u0d24\u0d4d"}}, {"type": "node", "id": 3551400889, "lat": 9.0107868, "lon": 76.8518536, "tags": {"name": "Melila", "name:ml": "\u0d2e\u0d47\u0d32\u0d3f\u0d32", "place": "village", "population": "21124", "website": "http://lsgkerala.in/melilapanchayat", "wikidata": "Q13114232", "wikipedia": "ml:\u0d2e\u0d47\u0d32\u0d3f\u0d32 \u0d17\u0d4d\u0d30\u0d3e\u0d2e\u0d2a\u0d1e\u0d4d\u0d1a\u0d3e\u0d2f\u0d24\u0d4d\u0d24\u0d4d"}}, {"type": "node", "id": 3551431358, "lat": 8.9946151, "lon": 76.6135811, "tags": {"name": "Munroe Thuruth", "name:ml": "\u0d2e\u0d7a\u0d31\u0d4b\u0d24\u0d41\u0d30\u0d41\u0d24\u0d4d\u0d24\u0d4d", "name:ta": "\u0bae\u0ba9\u0bcd\u0bb1\u0bcb\u0ba4\u0bc1\u0bb0\u0bc1\u0ba4\u0bcd\u0ba4\u0bc1", "name_1": "Munroe Island", "place": "village", "population": "10380", "website": "http://lsgkerala.in/munroethuruthpanchayat/", "wikidata": "Q13114277", "wikipedia": "ml:\u0d2e\u0d7a\u0d31\u0d4b\u0d24\u0d41\u0d30\u0d41\u0d24\u0d4d\u0d24\u0d4d \u0d17\u0d4d\u0d30\u0d3e\u0d2e\u0d2a\u0d1e\u0d4d\u0d1a\u0d3e\u0d2f\u0d24\u0d4d\u0d24\u0d4d"}}, {"type": "node", "id": 3551478797, "lat": 9.039542, "lon": 76.5840215, "tags": {"name": "Mynagappally", "name:ml": "\u0d2e\u0d48\u0d28\u0d3e\u0d17\u0d2a\u0d4d\u0d2a\u0d33\u0d4d\u0d33\u0d3f", "place": "village", "population": "36391", "wikidata": "Q13114253", "wikipedia": "ml:\u0d2e\u0d48\u0d28\u0d3e\u0d17\u0d2a\u0d4d\u0d2a\u0d33\u0d4d\u0d33\u0d3f \u0d17\u0d4d\u0d30\u0d3e\u0d2e\u0d2a\u0d1e\u0d4d\u0d1a\u0d3e\u0d2f\u0d24\u0d4d\u0d24\u0d4d"}}, {"type": "node", "id": 3582263749, "lat": 9.0803412, "lon": 76.7961666, "tags": {"name": "Pattazhy", "name:ml": "\u0d2a\u0d1f\u0d4d\u0d1f\u0d3e\u0d34\u0d3f", "place": "village", "wikidata": "Q7148342", "wikimedia_commons": "Category:Pattazhy", "wikipedia": "en:Pattazhy"}}, {"type": "node", "id": 3590404181, "lat": 8.9954402, "lon": 76.7399321, "tags": {"name": "Neduvathoor", "name:ml": "\u0d28\u0d46\u0d1f\u0d41\u0d35\u0d24\u0d4d\u0d24\u0d42\u0d7c", "place": "village", "population": "26186", "website": "http://lsgkerala.in/neduvathoorpanchayat", "wikidata": "Q16136196", "wikipedia": "ml:\u0d28\u0d46\u0d1f\u0d41\u0d35\u0d24\u0d4d\u0d24\u0d42\u0d7c \u0d17\u0d4d\u0d30\u0d3e\u0d2e\u0d2a\u0d1e\u0d4d\u0d1a\u0d3e\u0d2f\u0d24\u0d4d\u0d24\u0d4d"}}, {"type": "node", "id": 3590406123, "lat": 8.9087479, "lon": 76.694503, "tags": {"name": "Nedumpana", "name:ml": "\u0d28\u0d46\u0d1f\u0d41\u0d2e\u0d4d\u0d2a\u0d28", "place": "village", "population": "42357", "website": "http://lsgkerala.in/nedumpanapanchayat", "wikidata": "Q13112966", "wikipedia": "ml:\u0d28\u0d46\u0d1f\u0d41\u0d2e\u0d4d\u0d2a\u0d28 \u0d17\u0d4d\u0d30\u0d3e\u0d2e\u0d2a\u0d1e\u0d4d\u0d1a\u0d3e\u0d2f\u0d24\u0d4d\u0d24\u0d4d"}}, {"type": "node", "id": 3590410853, "lat": 8.8242666, "lon": 76.8815467, "tags": {"name": "Nilamel", "name:ml": "\u0d28\u0d3f\u0d32\u0d2e\u0d47\u0d7d", "place": "village"}}, {"type": "node", "id": 3608958141, "lat": 8.9295757, "lon": 76.5709648, "tags": {"name": "Sambranikodi", "name:ml": "\u0d38\u0d3e\u0d02\u0d2c\u0d4d\u0d30\u0d3e\u0d23\u0d3f\u0d15\u0d4b\u0d1f\u0d3f", "place": "village"}}, {"type": "node", "id": 3625757982, "lat": 8.9205959, "lon": 76.5943123, "tags": {"name": "Thrikkadavoor", "name:ml": "\u0d24\u0d43\u0d15\u0d4d\u0d15\u0d1f\u0d35\u0d42\u0d7c", "place": "village", "wikidata": "Q13112584", "wikipedia": "ml:\u0d24\u0d43\u0d15\u0d4d\u0d15\u0d1f\u0d35\u0d42\u0d7c \u0d17\u0d4d\u0d30\u0d3e\u0d2e\u0d2a\u0d1e\u0d4d\u0d1a\u0d3e\u0d2f\u0d24\u0d4d\u0d24\u0d4d"}}, {"type": "node", "id": 3625760612, "lat": 8.9067337, "lon": 76.6672421, "tags": {"name": "Thrikkovilvattom", "name:ml": "\u0d24\u0d43\u0d15\u0d4d\u0d15\u0d4b\u0d35\u0d3f\u0d7d\u0d35\u0d1f\u0d4d\u0d1f\u0d02", "place": "village", "wikidata": "Q13112611", "wikipedia": "ml:\u0d24\u0d43\u0d15\u0d4d\u0d15\u0d4b\u0d35\u0d3f\u0d7d\u0d35\u0d1f\u0d4d\u0d1f\u0d02 \u0d17\u0d4d\u0d30\u0d3e\u0d2e\u0d2a\u0d1e\u0d4d\u0d1a\u0d3e\u0d2f\u0d24\u0d4d\u0d24\u0d4d"}}, {"type": "node", "id": 3625766461, "lat": 9.0114387, "lon": 76.6066872, "tags": {"name": "West Kallada", "name:ml": "\u0d2a\u0d1f\u0d3f\u0d1e\u0d4d\u0d1e\u0d3e\u0d31\u0d47\u0d15\u0d32\u0d4d\u0d32\u0d1f", "place": "village", "wikidata": "Q7985595", "wikipedia": "en:West Kallada"}}, {"type": "node", "id": 3625767286, "lat": 8.8692492, "lon": 76.7863541, "tags": {"name": "Velinelloor", "name:ml": "\u0d35\u0d46\u0d33\u0d3f\u0d28\u0d32\u0d4d\u0d32\u0d42\u0d7c", "place": "village", "wikidata": "Q13114792", "wikipedia": "ml:\u0d35\u0d46\u0d33\u0d3f\u0d28\u0d32\u0d4d\u0d32\u0d42\u0d7c \u0d17\u0d4d\u0d30\u0d3e\u0d2e\u0d2a\u0d1e\u0d4d\u0d1a\u0d3e\u0d2f\u0d24\u0d4d\u0d24\u0d4d"}}, {"type": "node", "id": 3625771635, "lat": 8.9462468, "lon": 76.598201, "tags": {"name": "Thrikkaruva", "name:ml": "\u0d24\u0d43\u0d15\u0d4d\u0d15\u0d30\u0d41\u0d35", "place": "village", "wikidata": "Q16137705", "wikipedia": "ml:\u0d24\u0d43\u0d15\u0d4d\u0d15\u0d30\u0d41\u0d35 \u0d17\u0d4d\u0d30\u0d3e\u0d2e\u0d2a\u0d1e\u0d4d\u0d1a\u0d3e\u0d2f\u0d24\u0d4d\u0d24\u0d4d"}}, {"type": "node", "id": 3625772210, "lat": 8.9336242, "lon": 76.8211024, "tags": {"name": "Ummannoor", "name:ml": "\u0d09\u0d2e\u0d4d\u0d2e\u0d28\u0d4d\u0d28\u0d42\u0d7c", "place": "village", "wikidata": "Q13110532", "wikipedia": "ml:\u0d09\u0d2e\u0d4d\u0d2e\u0d28\u0d4d\u0d28\u0d42\u0d7c \u0d17\u0d4d\u0d30\u0d3e\u0d2e\u0d2a\u0d1e\u0d4d\u0d1a\u0d3e\u0d2f\u0d24\u0d4d\u0d24\u0d4d"}}, {"type": "node", "id": 3625776090, "lat": 9.0750768, "lon": 76.5754692, "tags": {"name": "Thodiyoor", "name:ml": "\u0d24\u0d4a\u0d1f\u0d3f\u0d2f\u0d42\u0d7c", "place": "village", "wikidata": "Q13112632", "wikipedia": "ml:\u0d24\u0d4a\u0d1f\u0d3f\u0d2f\u0d42\u0d7c \u0d17\u0d4d\u0d30\u0d3e\u0d2e\u0d2a\u0d1e\u0d4d\u0d1a\u0d3e\u0d2f\u0d24\u0d4d\u0d24\u0d4d"}}, {"type": "node", "id": 3625778441, "lat": 8.9976716, "lon": 76.5782434, "tags": {"name": "Thevalakkara", "name:ml": "\u0d24\u0d47\u0d35\u0d32\u0d15\u0d4d\u0d15\u0d30", "name:ta": "\u0ba4\u0bc7\u0bb5\u0bb2\u0b95\u0bcd\u0b95\u0bb0\u0bc8", "place": "village", "wikidata": "Q7783603", "wikipedia": "ml:\u0d24\u0d47\u0d35\u0d32\u0d15\u0d4d\u0d15\u0d30 \u0d17\u0d4d\u0d30\u0d3e\u0d2e\u0d2a\u0d1e\u0d4d\u0d1a\u0d3e\u0d2f\u0d24\u0d4d\u0d24\u0d4d"}}, {"type": "node", "id": 3637820690, "lat": 9.0880647, "lon": 76.6140213, "tags": {"name": "Sooranad South", "name:ml": "\u0d36\u0d42\u0d30\u0d28\u0d3e\u0d1f\u0d4d \u0d24\u0d46\u0d15\u0d4d\u0d15\u0d4d", "place": "village", "wikidata": "Q20583971", "wikipedia": "ml:\u0d36\u0d42\u0d30\u0d28\u0d3e\u0d1f\u0d4d \u0d24\u0d46\u0d15\u0d4d\u0d15\u0d4d \u0d17\u0d4d\u0d30\u0d3e\u0d2e\u0d2a\u0d1e\u0d4d\u0d1a\u0d3e\u0d2f\u0d24\u0d4d\u0d24\u0d4d"}}, {"type": "node", "id": 3637826907, "lat": 9.0439541, "lon": 76.6258478, "tags": {"name": "Sasthamkotta", "name:ml": "\u0d36\u0d3e\u0d38\u0d4d\u0d24\u0d3e\u0d02\u0d15\u0d4b\u0d1f\u0d4d\u0d1f", "place": "village", "wikidata": "Q20583921", "wikipedia": "ml:\u0d36\u0d3e\u0d38\u0d4d\u0d24\u0d3e\u0d02\u0d15\u0d4b\u0d1f\u0d4d\u0d1f \u0d17\u0d4d\u0d30\u0d3e\u0d2e\u0d2a\u0d1e\u0d4d\u0d1a\u0d3e\u0d2f\u0d24\u0d4d\u0d24\u0d4d"}}, {"type": "node", "id": 3637829335, "lat": 9.0726261, "lon": 76.6555, "tags": {"name": "Poruvazhy", "name:ml": "\u0d2a\u0d4b\u0d30\u0d41\u0d35\u0d34\u0d3f", "place": "village", "wikidata": "Q20581913", "wikipedia": "ml:\u0d2a\u0d4b\u0d30\u0d41\u0d35\u0d34\u0d3f \u0d17\u0d4d\u0d30\u0d3e\u0d2e\u0d2a\u0d1e\u0d4d\u0d1a\u0d3e\u0d2f\u0d24\u0d4d\u0d24\u0d4d"}}, {"type": "node", "id": 3637832563, "lat": 8.9076004, "lon": 76.7623489, "tags": {"name": "Pooyappally", "name:ml": "\u0d2a\u0d42\u0d2f\u0d2a\u0d4d\u0d2a\u0d33\u0d4d\u0d33\u0d3f", "place": "village", "wikidata": "Q20581738", "wikipedia": "ml:\u0d2a\u0d42\u0d2f\u0d2a\u0d4d\u0d2a\u0d33\u0d4d\u0d33\u0d3f \u0d17\u0d4d\u0d30\u0d3e\u0d2e\u0d2a\u0d1e\u0d4d\u0d1a\u0d3e\u0d2f\u0d24\u0d4d\u0d24\u0d4d"}}, {"type": "node", "id": 3637833648, "lat": 8.8164403, "lon": 76.7062533, "tags": {"name": "Ammarathumukku", "name:ml": "\u0d2a\u0d42\u0d24\u0d15\u0d4d\u0d15\u0d41\u0d33\u0d02", "place": "village", "wikidata": "Q13113403", "wikipedia": "ml:\u0d2a\u0d42\u0d24\u0d15\u0d4d\u0d15\u0d41\u0d33\u0d02 \u0d17\u0d4d\u0d30\u0d3e\u0d2e\u0d2a\u0d1e\u0d4d\u0d1a\u0d3e\u0d2f\u0d24\u0d4d\u0d24\u0d4d"}}, {"type": "node", "id": 3637838807, "lat": 9.063013, "lon": 76.902723, "tags": {"name": "Piravanthur", "name:ml": "\u0d2a\u0d3f\u0d31\u0d35\u0d28\u0d4d\u0d24\u0d42\u0d7c", "place": "village", "wikidata": "Q13113293", "wikipedia": "ml:\u0d2a\u0d3f\u0d31\u0d35\u0d28\u0d4d\u0d24\u0d42\u0d7c \u0d17\u0d4d\u0d30\u0d3e\u0d2e\u0d2a\u0d1e\u0d4d\u0d1a\u0d3e\u0d2f\u0d24\u0d4d\u0d24\u0d4d"}}, {"type": "node", "id": 3637839313, "lat": 8.942126, "lon": 76.612091, "tags": {"name": "Perinad", "name:ml": "\u0d2a\u0d46\u0d30\u0d3f\u0d28\u0d3e\u0d1f\u0d4d", "place": "village", "wikidata": "Q13113441", "wikipedia": "ml:\u0d2a\u0d46\u0d30\u0d3f\u0d28\u0d3e\u0d1f\u0d4d \u0d17\u0d4d\u0d30\u0d3e\u0d2e\u0d2a\u0d1e\u0d4d\u0d1a\u0d3e\u0d2f\u0d24\u0d4d\u0d24\u0d4d"}}, {"type": "node", "id": 3641028270, "lat": 9.0969438, "lon": 76.8065967, "tags": {"alt_name": "Pattazhi Vadakkekkara", "name": "Pattazhy Vadakkekkara", "name:ml": "\u0d2a\u0d1f\u0d4d\u0d1f\u0d3e\u0d34\u0d3f \u0d35\u0d1f\u0d15\u0d4d\u0d15\u0d47\u0d15\u0d4d\u0d15\u0d30", "place": "village", "wikidata": "Q13113052", "wikipedia": "ml:\u0d2a\u0d1f\u0d4d\u0d1f\u0d3e\u0d34\u0d3f \u0d35\u0d1f\u0d15\u0d4d\u0d15\u0d47\u0d15\u0d4d\u0d15\u0d30 \u0d17\u0d4d\u0d30\u0d3e\u0d2e\u0d2a\u0d1e\u0d4d\u0d1a\u0d3e\u0d2f\u0d24\u0d4d\u0d24\u0d4d"}}, {"type": "node", "id": 3641040693, "lat": 8.962758, "lon": 76.6189148, "tags": {"name": "Panayam", "name:ml": "\u0d2a\u0d28\u0d2f\u0d02", "place": "village", "wikidata": "Q13113083", "wikipedia": "ml:\u0d2a\u0d28\u0d2f\u0d02 \u0d17\u0d4d\u0d30\u0d3e\u0d2e\u0d2a\u0d1e\u0d4d\u0d1a\u0d3e\u0d2f\u0d24\u0d4d\u0d24\u0d4d"}}, {"type": "node", "id": 3652395695, "lat": 9.1050826, "lon": 76.6651146, "tags": {"addr:city": "Kollam District", "addr:postcode": "691552", "addr:street": "Ezhammile Edakkad Thegamam Pazhakulam Road", "name": "Edakkad", "name:ml": "\u0d0e\u0d1f\u0d15\u0d4d\u0d15\u0d3e\u0d1f\u0d4d", "place": "village"}}, {"type": "node", "id": 3870918377, "lat": 9.0596893, "lon": 76.6373503, "tags": {"name": "Bharanikavu", "name:ml": "\u0d2d\u0d30\u0d23\u0d3f\u0d15\u0d4d\u0d15\u0d3e\u0d35\u0d4d", "place": "village", "wikidata": "Q4901086", "wikipedia": "en:Bharanikkavu"}}, {"type": "node", "id": 3997786575, "lat": 9.0030806, "lon": 76.9825555, "tags": {"name": "Edamon", "name:ml": "\u0d0e\u0d1f\u0d2e\u0d23\u0d4d\u200d", "name:ta": "\u0b8e\u0b9f\u0bae\u0ba9\u0bcd", "place": "village", "wikidata": "Q5335678", "wikipedia": "en:Edamon"}}, {"type": "node", "id": 4031456360, "lat": 8.9006168, "lon": 76.7164298, "tags": {"name": "Pallimon", "name:ml": "\u0d2a\u0d33\u0d4d\u0d33\u0d3f\u0d2e\u0d4b\u0d7b", "place": "village"}}, {"type": "node", "id": 4449346992, "lat": 9.0597089, "lon": 76.6381905, "tags": {"name": "Bharanikkavu", "place": "village", "wikidata": "Q4901086", "wikipedia": "en:Bharanikkavu"}}, {"type": "node", "id": 4593918254, "lat": 9.1451159, "lon": 76.6144086, "tags": {"name": "Thamarakulam", "name:ml": "\u0d24\u0d3e\u0d2e\u0d30\u0d15\u0d4d\u0d15\u0d41\u0d33\u0d02", "place": "village"}}, {"type": "node", "id": 6894773020, "lat": 9.037024, "lon": 76.887917, "tags": {"name": "Kariyara", "name:ml": "\u0d15\u0d30\u0d3f\u0d2f\u0d31", "place": "village"}}, {"type": "node", "id": 7076833498, "lat": 9.0656163, "lon": 76.6557077, "tags": {"name": "idinjukuzhi", "place": "village"}}, {"type": "node", "id": 7142350361, "lat": 8.9060568, "lon": 76.5786458, "tags": {"name": "Kottayathukadavu", "name:ml": "\u0d15\u0d4b\u0d1f\u0d4d\u0d1f\u0d2f\u0d24\u0d4d\u0d24\u0d41\u0d15\u0d1f\u0d35\u0d4d", "place": "village"}}, {"type": "node", "id": 7388876187, "lat": 8.8116454, "lon": 76.820591, "tags": {"name": "Madavoor", "name:ml": "\u0d2e\u0d1f\u0d35\u0d42\u0d7c", "place": "village", "wikidata": "Q6726543", "wikimedia_commons": "Category:Madavoor-Pallickal", "wikipedia": "en:Madavoor-Pallickal"}}, {"type": "node", "id": 7470811256, "lat": 9.1067162, "lon": 76.5728999, "tags": {"name": "Manappally", "name:ml": "\u0d2e\u0d23\u0d2a\u0d4d\u0d2a\u0d33\u0d4d\u0d33\u0d3f", "place": "village"}}, {"type": "node", "id": 7472042025, "lat": 8.9823435, "lon": 76.6480048, "tags": {"name": "Padappakara", "name:ml": "\u0d2a\u0d1f\u0d2a\u0d4d\u0d2a\u0d15\u0d4d\u0d15\u0d30", "place": "village", "wikidata": "Q7123247", "wikipedia": "en:Padappakkara"}}, {"type": "node", "id": 7475652316, "lat": 8.9453357, "lon": 76.8477209, "tags": {"name": "Maragattukonam", "name:ml": "\u0d2e\u0d30\u0d19\u0d4d\u0d19\u0d3e\u0d1f\u0d4d\u0d1f\u0d41\u0d15\u0d4b\u0d23\u0d02", "place": "village"}}, {"type": "node", "id": 7490046904, "lat": 8.9804582, "lon": 76.6715901, "tags": {"name": "Perayam", "name:ml": "\u0d2a\u0d47\u0d30\u0d2f\u0d02", "place": "village"}}, {"type": "node", "id": 7495031603, "lat": 8.9510576, "lon": 76.7206468, "tags": {"name": "Kareepra", "name:ml": "\u0d15\u0d30\u0d40\u0d2a\u0d4d\u0d30", "place": "village", "website": "http://lsgkerala.in/kareeprapanchayat", "wikidata": "Q13111021", "wikipedia": "ml:\u0d15\u0d30\u0d40\u0d2a\u0d4d\u0d30 \u0d17\u0d4d\u0d30\u0d3e\u0d2e\u0d2a\u0d1e\u0d4d\u0d1a\u0d3e\u0d2f\u0d24\u0d4d\u0d24\u0d4d"}}, {"type": "node", "id": 7499282064, "lat": 8.9906954, "lon": 76.6616148, "tags": {"name": "Kumbalam", "name:ml": "\u0d15\u0d41\u0d2e\u0d4d\u0d2a\u0d33\u0d02", "place": "village", "wikidata": "Q6443702", "wikipedia": "en:Kumbalam"}}, {"type": "node", "id": 7611799949, "lat": 9.1910941, "lon": 76.7048446, "tags": {"name": "Paranthal", "name:ml": "\u0d2a\u0d31\u0d28\u0d4d\u0d24\u0d7d", "place": "village"}}, {"type": "node", "id": 7613296619, "lat": 9.1852298, "lon": 76.7707225, "tags": {"name": "Kodumon", "name:ml": "\u0d15\u0d4a\u0d1f\u0d41\u0d2e\u0d7a", "place": "village"}}, {"type": "node", "id": 7613334966, "lat": 9.1653374, "lon": 76.6432582, "tags": {"name": "Nooranad", "name:ml": "\u0d28\u0d42\u0d31\u0d28\u0d3e\u0d1f\u0d4d", "place": "village"}}, {"type": "node", "id": 7615923487, "lat": 9.1921412, "lon": 76.6715133, "tags": {"name": "Kudassanad", "name:ml": "\u0d15\u0d41\u0d1f\u0d36\u0d4d\u0d36\u0d28\u0d3e\u0d1f\u0d4d", "place": "village", "wikidata": "Q6441668"}}, {"type": "node", "id": 7640129165, "lat": 8.7896036, "lon": 76.6917261}, {"type": "node", "id": 7640129166, "lat": 8.7899262, "lon": 76.690094}, {"type": "node", "id": 7640129167, "lat": 8.7896722, "lon": 76.6897758}, {"type": "node", "id": 7640129168, "lat": 8.789718, "lon": 76.6893962}, {"type": "node", "id": 7640129169, "lat": 8.7898526, "lon": 76.6884634}, {"type": "node", "id": 7640129170, "lat": 8.7889589, "lon": 76.6877048}, {"type": "node", "id": 7640129171, "lat": 8.7886833, "lon": 76.6878765}, {"type": "node", "id": 7640129172, "lat": 8.7885348, "lon": 76.6877907}, {"type": "node", "id": 7640129173, "lat": 8.7882167, "lon": 76.6871577}, {"type": "node", "id": 7640129174, "lat": 8.7883864, "lon": 76.686353}, {"type": "node", "id": 7640129175, "lat": 8.7884076, "lon": 76.6858595}, {"type": "node", "id": 7640129176, "lat": 8.7885348, "lon": 76.6857415}, {"type": "node", "id": 7640129177, "lat": 8.7884606, "lon": 76.6856127}, {"type": "node", "id": 7640129178, "lat": 8.7883122, "lon": 76.6856127}, {"type": "node", "id": 7640129179, "lat": 8.7879623, "lon": 76.6853338}, {"type": "node", "id": 7640129180, "lat": 8.7879411, "lon": 76.6851085}, {"type": "node", "id": 7640129181, "lat": 8.7881213, "lon": 76.6848135}, {"type": "node", "id": 7640129182, "lat": 8.7878668, "lon": 76.6847437}, {"type": "node", "id": 7640129183, "lat": 8.7878138, "lon": 76.6844004}, {"type": "node", "id": 7640129184, "lat": 8.7879411, "lon": 76.6842931}, {"type": "node", "id": 7640130085, "lat": 8.787729, "lon": 76.683821}, {"type": "node", "id": 7640130086, "lat": 8.7874851, "lon": 76.6837995}, {"type": "node", "id": 7640130087, "lat": 8.7866369, "lon": 76.6828554}, {"type": "node", "id": 7640130088, "lat": 8.7858152, "lon": 76.6828233}, {"type": "node", "id": 7640130089, "lat": 8.7855686, "lon": 76.683011}, {"type": "node", "id": 7640130090, "lat": 8.7852797, "lon": 76.6829949}, {"type": "node", "id": 7640130091, "lat": 8.7844898, "lon": 76.6829492}, {"type": "node", "id": 7640130092, "lat": 8.7843996, "lon": 76.6831138}, {"type": "node", "id": 7640130093, "lat": 8.784001, "lon": 76.6831349}, {"type": "node", "id": 7640130094, "lat": 8.784135, "lon": 76.6839813}, {"type": "node", "id": 7640130095, "lat": 8.7847284, "lon": 76.6848295}, {"type": "node", "id": 7640130096, "lat": 8.784898, "lon": 76.6856771}, {"type": "node", "id": 7640130097, "lat": 8.7848595, "lon": 76.6857848}, {"type": "node", "id": 7640130098, "lat": 8.7844001, "lon": 76.6859241}, {"type": "node", "id": 7640130099, "lat": 8.7843679, "lon": 76.686353}, {"type": "node", "id": 7640130100, "lat": 8.7848662, "lon": 76.6863959}, {"type": "node", "id": 7640130101, "lat": 8.7845481, "lon": 76.6874474}, {"type": "node", "id": 7640130102, "lat": 8.7846011, "lon": 76.6879301}, {"type": "node", "id": 7640130103, "lat": 8.7848026, "lon": 76.6879194}, {"type": "node", "id": 7640130104, "lat": 8.784898, "lon": 76.6888206}, {"type": "node", "id": 7640130105, "lat": 8.7853433, "lon": 76.6898935}, {"type": "node", "id": 7640130106, "lat": 8.7853219, "lon": 76.6899967}, {"type": "node", "id": 7640130107, "lat": 8.7851758, "lon": 76.6900953}, {"type": "node", "id": 7640130108, "lat": 8.7852367, "lon": 76.6903479}, {"type": "node", "id": 7640130109, "lat": 8.7853463, "lon": 76.6905821}, {"type": "node", "id": 7640130110, "lat": 8.7854011, "lon": 76.69073}, {"type": "node", "id": 7640130111, "lat": 8.7853037, "lon": 76.6911552}, {"type": "node", "id": 7640130130, "lat": 8.7882234, "lon": 76.6920026}, {"type": "node", "id": 7640130131, "lat": 8.7876198, "lon": 76.6921564}, {"type": "node", "id": 7640130132, "lat": 8.7884881, "lon": 76.6918132}, {"type": "node", "id": 7640130133, "lat": 8.7869035, "lon": 76.6921954}, {"type": "node", "id": 7640130134, "lat": 8.7859974, "lon": 76.6920333}, {"type": "node", "id": 7640130135, "lat": 8.7865906, "lon": 76.6921701}, {"type": "node", "id": 7640130136, "lat": 8.7852155, "lon": 76.6917492}, {"type": "node", "id": 7640130151, "lat": 8.7894949, "lon": 76.6880382}, {"type": "node", "id": 7651615101, "lat": 8.7839981, "lon": 76.6835369}, {"type": "node", "id": 7651615102, "lat": 8.7843862, "lon": 76.6844266}, {"type": "node", "id": 7651615103, "lat": 8.7863612, "lon": 76.6826999}, {"type": "node", "id": 7651615104, "lat": 8.7871405, "lon": 76.6832899}, {"type": "node", "id": 7651615105, "lat": 8.7883599, "lon": 76.6867554}, {"type": "node", "id": 7651615106, "lat": 8.7887463, "lon": 76.691716}, {"type": "node", "id": 7651615107, "lat": 8.7890424, "lon": 76.6917291}, {"type": "node", "id": 7813276044, "lat": 9.1896947, "lon": 76.659144, "tags": {"name": "Palamel", "name:ml": "\u0d2a\u0d3e\u0d32\u0d2e\u0d47\u0d7d", "place": "village", "wikidata": "Q7126661", "wikipedia": "en:Palamel"}}, {"type": "node", "id": 7826901105, "lat": 9.0909314, "lon": 76.6848228, "tags": {"name": "Kadampanad", "name:en": "Kadampanad", "name:ml": "\u0d15\u0d1f\u0d2e\u0d4d\u0d2a\u0d28\u0d3e\u0d1f\u0d4d", "place": "village"}}, {"type": "node", "id": 7826901106, "lat": 9.1274971, "lon": 76.7159724, "tags": {"name": "Manakala", "name:ml": "\u0d2e\u0d23\u0d15\u0d4d\u0d15\u0d3e\u0d32", "place": "village", "wikidata": "Q6746782", "wikipedia": "en:Manakala"}}, {"type": "node", "id": 7826901107, "lat": 9.1501773, "lon": 76.7374922, "tags": {"name": "Kannamkode", "place": "village"}}, {"type": "node", "id": 7830491865, "lat": 9.0547541, "lon": 76.7695495, "tags": {"name": "Kalayapuram", "name:ml": "\u0d15\u0d32\u0d2f\u0d2a\u0d41\u0d30\u0d02", "place": "village", "wikidata": "Q6351709", "wikipedia": "en:Kalayapuram"}}, {"type": "node", "id": 7830491869, "lat": 9.0644383, "lon": 76.7576883, "tags": {"name": "Thekkethery", "name:ml": "\u0d24\u0d46\u0d15\u0d4d\u0d15\u0d47\u0d24\u0d4d\u0d24\u0d47\u0d30\u0d3f", "place": "village"}}, {"type": "node", "id": 7830500390, "lat": 9.0880298, "lon": 76.737411, "tags": {"name": "Mannady", "name:ml": "\u0d2e\u0d23\u0d4d\u0d23\u0d1f\u0d3f", "place": "village"}}, {"type": "node", "id": 7830500634, "lat": 9.1830581, "lon": 76.7552636, "tags": {"name": "Aickadu", "name:ml": "\u0d10\u0d15\u0d4d\u0d15\u0d3e\u0d1f\u0d4d", "place": "village"}}, {"type": "node", "id": 7869340762, "lat": 8.9517395, "lon": 76.6523877, "tags": {"name": "Vellimon", "name:ml": "\u0d35\u0d46\u0d33\u0d4d\u0d33\u0d3f\u0d2e\u0d7a", "place": "village"}}, {"type": "node", "id": 8567035963, "lat": 8.9335298, "lon": 76.8182591}, {"type": "node", "id": 8567035964, "lat": 8.9336251, "lon": 76.8183382}, {"type": "node", "id": 8567035965, "lat": 8.9335708, "lon": 76.8184039}, {"type": "node", "id": 8567035966, "lat": 8.9335271, "lon": 76.8183677}, {"type": "node", "id": 8567035967, "lat": 8.9334966, "lon": 76.8184012}, {"type": "node", "id": 8567035968, "lat": 8.9334516, "lon": 76.818357}, {"type": "node", "id": 8567035969, "lat": 8.9334807, "lon": 76.8183342}, {"type": "node", "id": 8567035970, "lat": 8.9334609, "lon": 76.8183114}, {"type": "node", "id": 8868257743, "lat": 8.8748253, "lon": 76.773481, "tags": {"name": "Oyoor", "name:ml": "\u0d13\u0d2f\u0d42\u0d7c", "place": "village", "wikidata": "Q7116301", "wikipedia": "en:Oyoor"}}, {"type": "node", "id": 8874716605, "lat": 8.9441645, "lon": 76.7715639, "tags": {"name": "Odanavattam", "name:ml": "\u0d13\u0d1f\u0d28\u0d3e\u0d35\u0d1f\u0d4d\u0d1f\u0d02", "place": "village", "wikidata": "Q7077266", "wikipedia": "en:Odanavattam"}}, {"type": "node", "id": 8941941823, "lat": 9.1205607, "lon": 76.7435586, "tags": {"name": "Kilivayal", "name:ml": "\u0d15\u0d3f\u0d33\u0d3f\u0d35\u0d2f\u0d7d", "place": "village"}}, {"type": "node", "id": 8941941824, "lat": 9.072538, "lon": 76.7534577, "tags": {"name": "Kulakkada", "name:ml": "\u0d15\u0d41\u0d33\u0d15\u0d4d\u0d15\u0d1f", "place": "village"}}, {"type": "node", "id": 8943634756, "lat": 9.1751982, "lon": 76.7411951, "tags": {"alt_name": "Anandapally", "name": "Anandappally", "name:ml": "\u0d06\u0d28\u0d28\u0d4d\u0d26\u0d2a\u0d4d\u0d2a\u0d33\u0d4d\u0d33\u0d3f", "place": "village"}}, {"type": "node", "id": 8944144658, "lat": 9.1768788, "lon": 76.5633262, "tags": {"name": "Kattanam", "name:ml": "\u0d15\u0d31\u0d4d\u0d31\u0d3e\u0d28\u0d02", "place": "village", "wikidata": "Q6378302", "wikimedia_commons": "Category:Kattanam", "wikipedia": "en:Kattanam"}}, {"type": "node", "id": 8992507362, "lat": 9.1200515, "lon": 76.8507813, "tags": {"name": "Kalanjoor", "name:ml": "\u0d15\u0d32\u0d1e\u0d4d\u0d1e\u0d42\u0d7c", "place": "village"}}, {"type": "node", "id": 9125905069, "lat": 9.0707515, "lon": 76.6462463}, {"type": "node", "id": 9125905070, "lat": 9.0705548, "lon": 76.6462626}, {"type": "node", "id": 9125905071, "lat": 9.0703501, "lon": 76.6450267}, {"type": "node", "id": 9125905072, "lat": 9.0705629, "lon": 76.6450023}, {"type": "node", "id": 9125905073, "lat": 9.0706512, "lon": 76.6456202}, {"type": "node", "id": 9237526413, "lat": 9.1621064, "lon": 76.7460777, "tags": {"name": "Pannivizha", "name:ml": "\u0d2a\u0d28\u0d4d\u0d28\u0d3f\u0d35\u0d3f\u0d34", "place": "village"}}, {"type": "node", "id": 9661375383, "lat": 9.1655869, "lon": 76.6858976, "tags": {"name": "Pazhakulam", "name:ml": "\u0d2a\u0d34\u0d15\u0d41\u0d33\u0d02", "place": "village"}}, {"type": "node", "id": 9661375384, "lat": 9.1675015, "lon": 76.6656297, "tags": {"name": "Athikkattukulangara", "name:ml": "\u0d06\u0d26\u0d3f\u0d15\u0d4d\u0d15\u0d3e\u0d1f\u0d4d\u0d1f\u0d41\u0d15\u0d41\u0d33\u0d19\u0d4d\u0d19\u0d30", "place": "village"}}, {"type": "node", "id": 9661375385, "lat": 9.1040599, "lon": 76.6332878, "tags": {"name": "Sooranad", "name:ml": "\u0d36\u0d42\u0d30\u0d28\u0d3e\u0d1f\u0d4d", "place": "village"}}, {"type": "node", "id": 10043148881, "lat": 9.1219305, "lon": 76.7000435, "tags": {"name": "Nellimukal", "name:ml": "\u0d28\u0d46\u0d32\u0d4d\u0d32\u0d3f\u0d2e\u0d41\u0d15\u0d7e", "place": "village"}}, {"type": "node", "id": 10143187339, "lat": 9.1216668, "lon": 76.6562759, "tags": {"name": "Thengamam", "name:ml": "\u0d24\u0d46\u0d19\u0d4d\u0d19\u0d2e\u0d02", "place": "village"}}, {"type": "node", "id": 10143187341, "lat": 8.9319953, "lon": 76.6952554, "tags": {"name": "Kudavattoor", "name:ml": "\u0d15\u0d41\u0d1f\u0d35\u0d1f\u0d4d\u0d1f\u0d42\u0d7c", "place": "village"}}, {"type": "node", "id": 10143187342, "lat": 8.9151418, "lon": 76.7658981, "tags": {"name": "Veliyam", "name:ml": "\u0d35\u0d46\u0d33\u0d3f\u0d2f\u0d02", "place": "village", "wikidata": "Q7919056", "wikipedia": "en:Veliyam"}}, {"type": "node", "id": 10143187343, "lat": 8.9247811, "lon": 76.7355162, "tags": {"name": "Nedumonkavu", "name:ml": "\u0d28\u0d46\u0d1f\u0d41\u0d2e\u0d7a\u0d15\u0d3e\u0d35\u0d4d", "place": "village"}}, {"type": "node", "id": 10574432879, "lat": 8.7833217, "lon": 76.8444513, "tags": {"name": "Ponganadu", "name:en": "Ponganadu", "name:ml": "\u0d2a\u0d4b\u0d19\u0d4d\u0d19\u0d28\u0d3e\u0d1f\u0d4d", "place": "village"}}, {"type": "node", "id": 10574432880, "lat": 9.1274516, "lon": 76.6329216, "tags": {"name": "Anayadi", "name:ml": "\u0d06\u0d28\u0d2f\u0d1f\u0d3f", "place": "village"}}, {"type": "node", "id": 10574432898, "lat": 9.021089, "lon": 76.596526, "tags": {"name": "Kovoor", "name:ml": "\u0d15\u0d4b\u0d35\u0d42\u0d7c", "place": "village"}}, {"type": "node", "id": 10574432899, "lat": 9.1113121, "lon": 76.5957204, "tags": {"name": "Pavumba", "name:ml": "\u0d2a\u0d3e\u0d35\u0d41\u0d2e\u0d4d\u0d2a", "place": "village"}}, {"type": "node", "id": 11176266154, "lat": 8.9731198, "lon": 76.8245157, "tags": {"name": "Panavely", "name:ml": "\u0d2a\u0d28\u0d35\u0d47\u0d32\u0d3f", "place": "village"}}, {"type": "node", "id": 11176266155, "lat": 8.9876934, "lon": 76.9124481, "tags": {"name": "Mathra", "name:ml": "\u0d2e\u0d3e\u0d24\u0d4d\u0d30", "place": "village", "wikidata": "Q6787313", "wikipedia": "en:Mathra"}}, {"type": "node", "id": 11176266156, "lat": 8.9814516, "lon": 76.8376377, "tags": {"name": "Chirattakonam", "name:ml": "\u0d1a\u0d3f\u0d30\u0d1f\u0d4d\u0d1f\u0d15\u0d4d\u0d15\u0d4b\u0d23\u0d02", "place": "village"}}, {"type": "node", "id": 11176266157, "lat": 8.9807756, "lon": 76.8715854, "tags": {"name": "Kokkad", "name:ml": "\u0d15\u0d4a\u0d15\u0d4d\u0d15\u0d3e\u0d1f\u0d4d", "place": "village"}}, {"type": "node", "id": 11176266158, "lat": 9.0258682, "lon": 76.8831065, "tags": {"name": "Elampal", "name:ml": "\u0d07\u0d33\u0d2e\u0d4d\u0d2a\u0d7d", "place": "village", "wikidata": "Q5353376", "wikipedia": "en:Elampal"}}, {"type": "node", "id": 11176266159, "lat": 9.0492819, "lon": 76.9187978, "tags": {"name": "Vettithitta", "name:ml": "\u0d35\u0d46\u0d1f\u0d4d\u0d1f\u0d3f\u0d24\u0d4d\u0d24\u0d3f\u0d1f\u0d4d\u0d1f", "place": "village"}}, {"type": "node", "id": 11176266160, "lat": 9.0832227, "lon": 76.9144404, "tags": {"name": "Punnala", "name:ml": "\u0d2a\u0d41\u0d28\u0d4d\u0d28\u0d32", "place": "village", "wikidata": "Q7260456", "wikipedia": "en:Punnala"}}, {"type": "node", "id": 11176266161, "lat": 9.1238113, "lon": 76.8985765, "tags": {"name": "Mancode", "name:ml": "\u0d2e\u0d3e\u0d19\u0d4d\u0d15\u0d4b\u0d1f\u0d4d", "place": "village", "wikidata": "Q6747653", "wikipedia": "en:Mancode"}}, {"type": "node", "id": 11176266162, "lat": 9.1388877, "lon": 76.8552143, "tags": {"name": "Koodal", "name:ml": "\u0d15\u0d42\u0d1f\u0d7d", "place": "village"}}, {"type": "node", "id": 11425334569, "lat": 9.1339625, "lon": 76.7379283, "tags": {"name": "Vadakkadathukavu", "name:ml": "\u0d35\u0d1f\u0d15\u0d4d\u0d15\u0d1f\u0d24\u0d4d\u0d24\u0d41\u0d15\u0d3e\u0d35\u0d4d", "place": "village"}}, {"type": "node", "id": 11710432809, "lat": 8.95226, "lon": 76.9212801, "tags": {"name": "Kuruvikonam", "name:ml": "\u0d15\u0d41\u0d30\u0d41\u0d35\u0d3f\u0d15\u0d4d\u0d15\u0d4b\u0d23\u0d02", "place": "village"}}, {"type": "node", "id": 11710432810, "lat": 8.9561986, "lon": 76.87705, "tags": {"name": "Thadicad", "name:ml": "\u0d24\u0d1f\u0d3f\u0d15\u0d4d\u0d15\u0d3e\u0d1f\u0d4d", "place": "village"}}, {"type": "node", "id": 11763599634, "lat": 8.7519683, "lon": 76.9388209, "tags": {"name": "Kallara", "name:ml": "\u0d15\u0d32\u0d4d\u0d32\u0d31", "place": "village", "wikidata": "Q6353591"}}, {"type": "node", "id": 11768693355, "lat": 9.0553403, "lon": 76.7512471, "tags": {"name": "Poovattoor", "name:ml": "\u0d2a\u0d42\u0d35\u0d31\u0d4d\u0d31\u0d42\u0d7c", "place": "village", "wikidata": "Q7228904"}}, {"type": "node", "id": 11816377724, "lat": 8.9818423, "lon": 76.8988851, "tags": {"junction": "yes", "name": "Venchempu", "name:ml": "\u0d35\u0d46\u0d1e\u0d4d\u0d1a\u0d47\u0d2e\u0d4d\u0d2a\u0d4d", "place": "village"}}, {"type": "node", "id": 11871439897, "lat": 8.8862825, "lon": 76.9606493, "tags": {"name": "Channapeta", "name:ml": "\u0d1a\u0d23\u0d4d\u0d23\u0d2a\u0d4d\u0d2a\u0d47\u0d1f\u0d4d\u0d1f", "place": "village"}}, {"type": "node", "id": 11871439898, "lat": 8.8652449, "lon": 76.9458206, "tags": {"name": "Kattampalli", "name:ml": "\u0d15\u0d3e\u0d1f\u0d4d\u0d1f\u0d3e\u0d02\u0d2a\u0d33\u0d4d\u0d33\u0d3f", "place": "village"}}, {"type": "node", "id": 11871439899, "lat": 8.8779832, "lon": 76.9374183, "tags": {"name": "Mannoor", "name:ml": "\u0d2e\u0d23\u0d4d\u0d23\u0d42\u0d7c", "place": "village"}}, {"type": "node", "id": 11871439900, "lat": 8.882829, "lon": 76.9296918, "tags": {"name": "Vayala", "name:ml": "\u0d35\u0d2f\u0d32\u0d3e", "place": "village"}}, {"type": "node", "id": 11871439901, "lat": 8.8976236, "lon": 76.9046027, "tags": {"name": "Kottukkal", "name:ml": "\u0d15\u0d4b\u0d1f\u0d4d\u0d1f\u0d41\u0d15\u0d4d\u0d15\u0d7d", "place": "village"}}, {"type": "node", "id": 11871439904, "lat": 8.7547863, "lon": 76.8581691, "tags": {"name": "Chemmarathumukku", "name:ml": "\u0d1a\u0d46\u0d2e\u0d4d\u0d2e\u0d30\u0d24\u0d4d\u0d24\u0d41\u0d2e\u0d41\u0d15\u0d4d\u0d15\u0d4d", "place": "village"}}, {"type": "node", "id": 11871439906, "lat": 8.7538901, "lon": 76.8118935, "tags": {"name": "Thottakkadu", "name:ml": "\u0d24\u0d4b\u0d1f\u0d4d\u0d1f\u0d15\u0d4d\u0d15\u0d3e\u0d1f\u0d4d", "place": "village"}}, {"type": "node", "id": 11902875840, "lat": 9.1859076, "lon": 76.5922135, "tags": {"name": "Komalloor", "name:ml": "\u0d15\u0d4b\u0d2e\u0d32\u0d4d\u0d32\u0d42\u0d7c", "place": "village"}}, {"type": "node", "id": 11909347622, "lat": 9.1300718, "lon": 76.57298, "tags": {"name": "Vallikunnnam", "name:ml": "\u0d35\u0d33\u0d4d\u0d33\u0d3f\u0d15\u0d41\u0d28\u0d4d\u0d28\u0d02", "place": "village", "wikidata": "Q7912420"}}, {"type": "way", "id": 818041658, "nodes": [7640129165, 7640129166, 7640129167, 7640129168, 7640129169, 7640130151, 7640129170, 7640129171, 7640129172, 7640129173, 7651615105, 7640129174, 7640129175, 7640129176, 7640129177, 7640129178, 7640129179, 7640129180, 7640129181, 7640129182, 7640129183, 7640129184, 7640130085, 7640130086, 7651615104, 7640130087, 7651615103, 7640130088, 7640130089, 7640130090, 7640130091, 7640130092, 7640130093, 7651615101, 7640130094, 7651615102, 7640130095, 7640130096, 7640130097, 7640130098, 7640130099, 7640130100, 7640130101, 7640130102, 7640130103, 7640130104, 7640130105, 7640130106, 7640130107, 7640130108, 7640130109, 7640130110, 7640130111, 7640130136, 7640130134, 7640130135, 7640130133, 7640130131, 7640130130, 7640130132, 7651615106, 7651615107, 7640129165], "tags": {"name": "Nellettil", "name:ml": "\u0d28\u0d46\u0d32\u0d4d\u0d32\u0d47\u0d31\u0d4d\u0d31\u0d3f\u0d7d", "place": "village"}}, {"type": "way", "id": 922868499, "nodes": [8567035963, 8567035964, 8567035965, 8567035966, 8567035967, 8567035968, 8567035969, 8567035970, 8567035963], "tags": {"name": "village office ummanoor", "place": "village"}}, {"type": "way", "id": 987308010, "nodes": [9125905069, 9125905070, 9125905071, 9125905072, 9125905073, 9125905069], "tags": {"name": "Koshanattu Colony", "place": "village", "tag": "colony"}}]}