{"version": 0.6, "generator": "Overpass API 0.7.62.1 084b4234", "osm3s": {"timestamp_osm_base": "2024-11-07T07:13:19Z", "copyright": "The data included in this document is from www.openstreetmap.org. The data is made available under ODbL."}, "elements": [{"type": "node", "id": 3513906719, "lat": 9.0626871, "lon": 76.4988405, "tags": {"name": "Alappad", "name:ml": "\u0d06\u0d32\u0d2a\u0d4d\u0d2a\u0d3e\u0d1f\u0d4d", "place": "village"}}, {"type": "node", "id": 3513918574, "lat": 8.9753627, "lon": 76.5350494, "tags": {"name": "Chavara", "name:ml": "\u0d1a\u0d35\u0d31", "name:ta": "\u0b9a\u0bb5\u0bb1\u0bc8", "place": "village", "population": "38309", "wikidata": "Q13111887", "wikipedia": "ml:\u0d1a\u0d35\u0d31 \u0d17\u0d4d\u0d30\u0d3e\u0d2e\u0d2a\u0d1e\u0d4d\u0d1a\u0d3e\u0d2f\u0d24\u0d4d\u0d24\u0d4d"}}, {"type": "node", "id": 3513924346, "lat": 9.100677, "lon": 76.4943052, "tags": {"name": "Clappana", "name:ml": "\u0d15\u0d4d\u0d32\u0d3e\u0d2a\u0d4d\u0d2a\u0d28", "place": "village", "population": "21114", "website": "http://lsgkerala.in/clappanapanchayat", "wikidata": "Q13111747", "wikipedia": "ml:\u0d15\u0d4d\u0d32\u0d3e\u0d2a\u0d4d\u0d2a\u0d28 \u0d17\u0d4d\u0d30\u0d3e\u0d2e\u0d2a\u0d1e\u0d4d\u0d1a\u0d3e\u0d2f\u0d24\u0d4d\u0d24\u0d4d"}}, {"type": "node", "id": 3551366009, "lat": 9.0912416, "lon": 76.5160835, "tags": {"name": "Kulasekharapuram", "name:ml": "\u0d15\u0d41\u0d32\u0d36\u0d47\u0d16\u0d30\u0d2a\u0d41\u0d30\u0d02", "place": "village", "website": "http://lsgkerala.in/kulasekharapurampanchayat", "wikidata": "Q20576769", "wikipedia": "ml:\u0d15\u0d41\u0d32\u0d36\u0d47\u0d16\u0d30\u0d2a\u0d41\u0d30\u0d02 \u0d17\u0d4d\u0d30\u0d3e\u0d2e\u0d2a\u0d1e\u0d4d\u0d1a\u0d3e\u0d2f\u0d24\u0d4d\u0d24\u0d4d"}}, {"type": "node", "id": 3590408849, "lat": 8.9428812, "lon": 76.538628, "tags": {"name": "Neendakara", "name:ml": "\u0d28\u0d40\u0d23\u0d4d\u0d1f\u0d15\u0d30", "name:ta": "\u0ba8\u0bc0\u0ba3\u0bcd\u0b9f\u0b95\u0bb0\u0bc8", "place": "village", "population": "15424", "website": "http://lsgkerala.in/neendakarapanchayat", "wikidata": "Q13112937", "wikipedia": "ml:\u0d28\u0d40\u0d23\u0d4d\u0d1f\u0d15\u0d30 \u0d17\u0d4d\u0d30\u0d3e\u0d2e\u0d2a\u0d1e\u0d4d\u0d1a\u0d3e\u0d2f\u0d24\u0d4d\u0d24\u0d4d"}}, {"type": "node", "id": 3637817492, "lat": 8.9620476, "lon": 76.5611345, "tags": {"name": "Thekkumbhagam", "name:ml": "\u0d24\u0d46\u0d15\u0d4d\u0d15\u0d41\u0d02\u0d2d\u0d3e\u0d17\u0d02", "place": "village", "wikidata": "Q16137866", "wikipedia": "ml:\u0d24\u0d46\u0d15\u0d4d\u0d15\u0d41\u0d02\u0d2d\u0d3e\u0d17\u0d02 \u0d17\u0d4d\u0d30\u0d3e\u0d2e\u0d2a\u0d1e\u0d4d\u0d1a\u0d3e\u0d2f\u0d24\u0d4d\u0d24\u0d4d"}}, {"type": "node", "id": 3637820427, "lat": 9.0964987, "lon": 76.5530468, "tags": {"name": "Thazhava", "name:ml": "\u0d24\u0d34\u0d35", "place": "village", "wikidata": "Q20579465", "wikipedia": "ml:\u0d24\u0d34\u0d35 \u0d17\u0d4d\u0d30\u0d3e\u0d2e\u0d2a\u0d1e\u0d4d\u0d1a\u0d3e\u0d2f\u0d24\u0d4d\u0d24\u0d4d"}}, {"type": "node", "id": 3641030295, "lat": 9.0082147, "lon": 76.5425181, "tags": {"name": "Panmana", "name:ml": "\u0d2a\u0d28\u0d4d\u0d2e\u0d28", "place": "village", "wikidata": "Q16137374", "wikipedia": "ml:\u0d2a\u0d28\u0d4d\u0d2e\u0d28 \u0d17\u0d4d\u0d30\u0d3e\u0d2e\u0d2a\u0d1e\u0d4d\u0d1a\u0d3e\u0d2f\u0d24\u0d4d\u0d24\u0d4d"}}, {"type": "node", "id": 3641040816, "lat": 9.1303868, "lon": 76.5146262, "tags": {"name": "Oachira", "name:ml": "\u0d13\u0d1a\u0d4d\u0d1a\u0d3f\u0d31", "name:ta": "\u0b92\u0b9a\u0bcd\u0b9a\u0bbf\u0bb1\u0bc8", "place": "village", "wikidata": "Q20575242", "wikipedia": "ml:\u0d13\u0d1a\u0d4d\u0d1a\u0d3f\u0d31 \u0d17\u0d4d\u0d30\u0d3e\u0d2e\u0d2a\u0d1e\u0d4d\u0d1a\u0d3e\u0d2f\u0d24\u0d4d\u0d24\u0d4d"}}, {"type": "node", "id": 3641041381, "lat": 9.1147929, "lon": 76.47423, "tags": {"name": "Azheekal", "name:en": "Azheekal", "name:ml": "\u0d05\u0d34\u0d40\u0d15\u0d4d\u0d15\u0d7d", "place": "village", "wikipedia": "ml:\u0d06\u0d32\u0d2a\u0d4d\u0d2a\u0d3e\u0d1f\u0d4d \u0d17\u0d4d\u0d30\u0d3e\u0d2e\u0d2a\u0d1e\u0d4d\u0d1a\u0d3e\u0d2f\u0d24\u0d4d\u0d24\u0d4d"}}, {"type": "node", "id": 3906957866, "lat": 8.929425, "lon": 76.5487542, "tags": {"name": "Sakthikulangara", "name:ml": "\u0d36\u0d15\u0d4d\u0d24\u0d3f\u0d15\u0d41\u0d33\u0d19\u0d4d\u0d19\u0d30", "place": "village", "wikidata": "Q7403113", "wikimedia_commons": "Category:Sakthikulangara", "wikipedia": "en:Sakthikulangara"}}, {"type": "node", "id": 8903485648, "lat": 9.0720746, "lon": 76.5089608}, {"type": "node", "id": 8903485649, "lat": 9.0719225, "lon": 76.509007}, {"type": "node", "id": 8903485650, "lat": 9.0719742, "lon": 76.5091734}, {"type": "node", "id": 8903485651, "lat": 9.0721142, "lon": 76.5091426}, {"type": "node", "id": 10574432896, "lat": 9.0303307, "lon": 76.542934, "tags": {"name": "Kuttivattom", "name:ml": "\u0d15\u0d41\u0d31\u0d4d\u0d31\u0d3f\u0d35\u0d1f\u0d4d\u0d1f\u0d02", "place": "village"}}, {"type": "node", "id": 10574432897, "lat": 9.0227629, "lon": 76.5499312, "tags": {"name": "Parambimukku", "name:ml": "\u0d2a\u0d31\u0d2e\u0d4d\u0d2a\u0d3f\u0d2e\u0d41\u0d15\u0d4d\u0d15\u0d4d", "place": "village"}}, {"type": "node", "id": 10574432900, "lat": 9.1496776, "lon": 76.5320221, "tags": {"name": "Krishnapuram", "name:ml": "\u0d15\u0d43\u0d37\u0d4d\u0d23\u0d2a\u0d41\u0d30\u0d02", "place": "village"}}, {"type": "node", "id": 11871388051, "lat": 9.1751361, "lon": 76.469723, "tags": {"name": "Kandalloor", "name:ml": "\u0d15\u0d23\u0d4d\u0d1f\u0d32\u0d4d\u0d32\u0d42\u0d7c", "place": "village", "wikidata": "Q6361265"}}, {"type": "way", "id": 962513721, "nodes": [8903485648, 8903485649, 8903485650, 8903485651, 8903485648], "tags": {"name": "Aadinadu Village office", "place": "village"}}]}