{"version": 0.6, "generator": "Overpass API 0.7.62.1 084b4234", "osm3s": {"timestamp_osm_base": "2024-11-07T07:10:15Z", "copyright": "The data included in this document is from www.openstreetmap.org. The data is made available under ODbL."}, "elements": [{"type": "node", "id": 245582090, "lat": 8.8879509, "lon": 76.5955013, "tags": {"alt_name": "Quilon", "capital": "5", "name": "Kollam", "name:ar": "\u0643\u0648\u0644\u0627\u0645", "name:bn": "\u0995\u09cb\u09b2\u09cd\u09b2\u09ae", "name:en": "Kollam", "name:he": "\u05db\u05d5\u05dc\u05d0\u05dd", "name:hi": "\u0915\u094b\u0932\u094d\u0932\u092e", "name:ja": "\u30b3\u30c3\u30e9\u30e0", "name:kn": "\u0c95\u0cca\u0cb2\u0ccd\u0cb2\u0c82", "name:mg": "Kollam", "name:ml": "\u0d15\u0d4a\u0d32\u0d4d\u0d32\u0d02", "name:mr": "\u0915\u094b\u0932\u094d\u0932\u092e", "name:new": "\u0915\u094b\u0932\u094d\u0932\u092e", "name:pa": "\u0a15\u0a4b\u0a32\u0a2e", "name:pt": "Coul\u00e3o", "name:ru": "\u041a\u043e\u043b\u043b\u0430\u043c", "name:sa": "\u0915\u094b\u0932\u094d\u0932\u092e\u094d", "name:sat": "\u1c60\u1c5a\u1c5e\u1c5e\u1c5f\u1c62", "name:sr": "\u041a\u043e\u043b\u0430\u043c", "name:ta": "\u0b95\u0bca\u0bb2\u0bcd\u0bb2\u0bae\u0bcd", "name:te": "\u0c15\u0c4a\u0c32\u0c4d\u0c32\u0c02", "name:vi": "Kollam", "name:war": "Kollam", "name:zh": "\u594e\u9686", "place": "city", "postal_code": "691001", "website": "http://kollam.nic.in/", "wikidata": "Q321475", "wikipedia": "en:Kollam"}}]}