{"version": 0.6, "generator": "Overpass API 0.7.62.1 084b4234", "osm3s": {"timestamp_osm_base": "2024-11-07T07:13:19Z", "copyright": "The data included in this document is from www.openstreetmap.org. The data is made available under ODbL."}, "elements": [{"type": "node", "id": 1824584072, "lat": 10.4697097, "lon": 76.0813089, "tags": {"name": "Vadanappally", "name:ml": "\u0d35\u0d3e\u0d1f\u0d3e\u0d28\u0d2a\u0d4d\u0d2a\u0d33\u0d4d\u0d33\u0d3f", "place": "village", "wikidata": "Q7908159"}}, {"type": "node", "id": 4292840047, "lat": 10.3748399, "lon": 76.1234684, "tags": {"name": "Edamuttam", "name:ml": "\u0d0e\u0d1f\u0d2e\u0d41\u0d1f\u0d4d\u0d1f\u0d02", "place": "village"}}, {"type": "node", "id": 4727725101, "lat": 10.3668279, "lon": 76.123255, "tags": {"name": "Palapetty", "name:ml": "\u0d2a\u0d3e\u0d32\u0d2a\u0d4d\u0d2a\u0d46\u0d1f\u0d4d\u0d1f\u0d3f", "place": "village"}}, {"type": "node", "id": 5907697882, "lat": 10.4408404, "lon": 76.0952038}, {"type": "node", "id": 5907697883, "lat": 10.4320471, "lon": 76.1001395}, {"type": "node", "id": 5907697884, "lat": 10.4323993, "lon": 76.1052089}, {"type": "node", "id": 5907698785, "lat": 10.4384095, "lon": 76.103437}, {"type": "node", "id": 5907698786, "lat": 10.4424802, "lon": 76.1002152}, {"type": "node", "id": 7255152810, "lat": 10.4572656, "lon": 76.086256, "tags": {"name": "Edassery", "name:ml": "\u0d07\u0d1f\u0d36\u0d4d\u0d36\u0d47\u0d30\u0d3f", "place": "village"}}, {"type": "node", "id": 7255187744, "lat": 10.5031559, "lon": 76.0620832, "tags": {"name": "Engandiyur", "name:ml": "\u0d0f\u0d19\u0d4d\u0d19\u0d23\u0d4d\u0d1f\u0d3f\u0d2f\u0d42\u0d7c", "place": "village", "wikidata": "Q5377436", "wikipedia": "en:Engandiyur"}}, {"type": "node", "id": 7255187745, "lat": 10.4407677, "lon": 76.0949591, "tags": {"name": "Thalikulam", "name:ml": "\u0d24\u0d33\u0d3f\u0d15\u0d4d\u0d15\u0d41\u0d33\u0d02", "place": "village", "wikidata": "Q7709668", "wikipedia": "en:Thalikulam"}}, {"type": "node", "id": 7255187749, "lat": 10.4440332, "lon": 76.1257294, "tags": {"name": "Puthenpeedika", "name:ml": "\u0d2a\u0d41\u0d24\u0d4d\u0d24\u0d7b\u0d2a\u0d40\u0d1f\u0d3f\u0d15", "place": "village", "wikidata": "Q7262221", "wikipedia": "en:Puthenpeedika"}}, {"type": "node", "id": 7255187750, "lat": 10.4583929, "lon": 76.1216927, "tags": {"name": "Anthikkad", "name:ml": "\u0d05\u0d28\u0d4d\u0d24\u0d3f\u0d15\u0d4d\u0d15\u0d3e\u0d1f\u0d4d", "place": "village", "wikidata": "Q4771769"}}, {"type": "node", "id": 7255187751, "lat": 10.4777052, "lon": 76.1149657, "tags": {"name": "Kanjany", "name:ml": "\u0d15\u0d3e\u0d1e\u0d4d\u0d1e\u0d3e\u0d23\u0d3f", "place": "village", "wikidata": "Q6363397", "wikipedia": "en:Kanjany"}}, {"type": "node", "id": 7490907835, "lat": 10.3849045, "lon": 76.1274407, "tags": {"name": "Chuloor", "name:ml": "\u0d2a\u0d3e\u0d32\u0d2a\u0d4d\u0d2a\u0d46\u0d1f\u0d4d\u0d1f\u0d3f", "place": "village"}}, {"type": "node", "id": 9659067564, "lat": 10.3950204, "lon": 76.116438, "tags": {"name": "Valapad", "name:ml": "\u0d35\u0d32\u0d2a\u0d4d\u0d2a\u0d3e\u0d1f\u0d4d", "place": "village", "wikidata": "Q7909257", "wikipedia": "en:Valapad"}}, {"type": "node", "id": 11292954048, "lat": 10.4732501, "lon": 76.1022381, "tags": {"name": "Manaloor", "name:ml": "\u0d2e\u0d23\u0d32\u0d42\u0d7c", "place": "village", "wikidata": "Q6746844", "wikipedia": "en:Manaloor"}}, {"type": "node", "id": 11292954049, "lat": 10.4289236, "lon": 76.1216785, "tags": {"name": "Peringottukara", "name:ml": "\u0d2a\u0d46\u0d30\u0d3f\u0d19\u0d4d\u0d19\u0d4b\u0d1f\u0d4d\u0d1f\u0d41\u0d15\u0d30", "place": "village", "wikidata": "Q7168594", "wikipedia": "en:Peringottukara"}}, {"type": "way", "id": 625712744, "nodes": [5907697882, 5907697883, 5907697884, 5907698785, 5907698786, 5907697882], "tags": {"name": "Cherkara", "name:ml": "\u0d1a\u0d47\u0d7c\u0d15\u0d4d\u0d15\u0d30", "place": "village"}}]}