{"version": 0.6, "generator": "Overpass API 0.7.62.1 084b4234", "osm3s": {"timestamp_osm_base": "2024-11-07T07:12:16Z", "copyright": "The data included in this document is from www.openstreetmap.org. The data is made available under ODbL."}, "elements": [{"type": "node", "id": 344437127, "lat": 10.9166828, "lon": 75.923986, "tags": {"name": "Tirur", "name:ar": "\u062a\u064a\u0631\u0648\u0631", "name:hi": "\u0924\u093f\u0930\u0942\u0930", "name:kn": "\u0ca4\u0cbf\u0cb0\u0cc2\u0cb0\u0ccd", "name:ml": "\u0d24\u0d3f\u0d30\u0d42\u0d7c", "name:ru": "\u0422\u0438\u0440\u0443\u0440", "name:ta": "\u0ba4\u0bbf\u0bb0\u0bc2\u0bb0\u0bcd", "name:te": "\u0c24\u0c3f\u0c30\u0c42\u0c30\u0c4d", "place": "town", "wikidata": "Q2722267", "wikipedia": "en:Tirur"}}, {"type": "node", "id": 1465969146, "lat": 10.8445683, "lon": 76.0330703, "tags": {"name": "Kuttippuram", "name:ml": "\u0d15\u0d41\u0d31\u0d4d\u0d31\u0d3f\u0d2a\u0d4d\u0d2a\u0d41\u0d31\u0d02", "name:ta": "\u0b95\u0bc1\u0bb1\u0bcd\u0bb1\u0bbf\u0baa\u0bc1\u0bb1\u0bae\u0bcd", "name:te": "\u0c15\u0c41\u0c1f\u0c4d\u0c1f\u0c3f\u0c2a\u0c4d\u0c2a\u0c41\u0c30\u0c02", "place": "town"}}, {"type": "node", "id": 1771504480, "lat": 10.9783391, "lon": 75.8763569, "tags": {"name": "Tanur", "name:kn": "\u0ca4\u0cbe\u0ca8\u0cc2\u0cb0\u0ccd", "name:ml": "\u0d24\u0d3e\u0d28\u0d42\u0d30\u0d4d\u200d", "name:ta": "\u0ba4\u0bbe\u0ba9\u0bc1\u0bb0\u0bcd", "name:te": "\u0c24\u0c3e\u0c28\u0c42\u0c30\u0c4d", "place": "town", "wikidata": "Q3595909", "wikipedia": "en:Tanur, Malappuram"}}, {"type": "node", "id": 1804884838, "lat": 10.7800691, "lon": 75.9189338, "tags": {"AND_a_c": "10000341", "name": "Ponnani", "name:ar": "\u0628\u0648\u0646\u0627\u0646\u064a", "name:hi": "\u092a\u094b\u0928\u094d\u0928\u093e\u0928\u0940", "name:kn": "\u0caa\u0cca\u0ca8\u0ccd\u0ca8\u0cbe\u0ca8\u0cbf", "name:ml": "\u0d2a\u0d4a\u0d28\u0d4d\u0d28\u0d3e\u0d28\u0d3f", "name:ru": "\u041f\u043e\u043d\u043d\u0430\u043d\u0438", "name:ta": "\u0baa\u0bca\u0ba9\u0bcd\u0ba9\u0bbe\u0ba9\u0bbf", "name:te": "\u0c2a\u0c4a\u0c28\u0c4d\u0c28\u0c3e\u0c28\u0c3f", "name:uk": "\u041f\u043e\u043d\u043d\u0430\u043d\u0456", "place": "town", "wikidata": "Q2568315"}}, {"type": "node", "id": 1981613388, "lat": 10.5950431, "lon": 76.0417924, "tags": {"name": "Guruvayur", "name:ar": "\u063a\u0648\u0631\u0648\u0627\u064a\u0648\u0631", "name:en": "Guruvayur", "name:hi": "\u0917\u0941\u0930\u0941\u0935\u093e\u092f\u0941\u0930", "name:kn": "\u0c97\u0cc1\u0cb0\u0cc1\u0cb5\u0cbe\u0caf\u0cc2\u0cb0\u0ccd", "name:ml": "\u0d17\u0d41\u0d30\u0d41\u0d35\u0d3e\u0d2f\u0d42\u0d7c", "name:ru": "\u0413\u0443\u0440\u0443\u0432\u0430\u044e\u0440", "name:sa": "\u0917\u0941\u0930\u0941\u0935\u093e\u092f\u0941\u092a\u0941\u0930\u092e\u094d", "name:ta": "\u0b95\u0bc1\u0bb0\u0bc1\u0bb5\u0bbe\u0baf\u0bc2\u0bb0\u0bcd", "name:te": "\u0c17\u0c41\u0c30\u0c41\u0c35\u0c3e\u0c2f\u0c42\u0c30\u0c4d", "place": "town", "wikidata": "Q720084", "wikipedia": "en:Guruvayur"}}, {"type": "node", "id": 2644200965, "lat": 10.8878197, "lon": 76.0732252, "tags": {"name": "Valanchery", "name:ml": "\u0d35\u0d33\u0d3e\u0d1e\u0d4d\u0d1a\u0d47\u0d30\u0d3f", "name:ta": "\u0bb5\u0bb3\u0b9e\u0bcd\u0b9a\u0bc7\u0bb0\u0bbf", "place": "town", "website": "https://valanchery.in/", "wikidata": "Q7909242", "wikipedia": "en:Valanchery"}}, {"type": "node", "id": 2802985401, "lat": 10.7609195, "lon": 76.1209705, "tags": {"name": "Koottanad", "name:ml": "\u0d15\u0d42\u0d31\u0d4d\u0d31\u0d28\u0d3e\u0d1f\u0d4d", "name:ta": "\u0b95\u0bc2\u0bb1\u0bcd\u0bb1\u0ba8\u0bbe\u0b9f\u0bc1", "place": "town", "wikidata": "Q6430862"}}, {"type": "node", "id": 2934096610, "lat": 10.5810467, "lon": 76.0232975, "tags": {"name": "Chavakkad", "name:ml": "\u0d1a\u0d3e\u0d35\u0d15\u0d4d\u0d15\u0d3e\u0d1f\u0d4d", "name:ta": "\u0b9a\u0bbe\u0bb5\u0b95\u0bcd\u0b95\u0bbe\u0b9f\u0bc1", "name:te": "\u0c1a\u0c3e\u0c35\u0c15\u0c4d\u0c15\u0c3e\u0c21\u0c4d", "place": "town", "wikidata": "Q888436"}}, {"type": "node", "id": 2934298370, "lat": 10.6510912, "lon": 76.0687448, "tags": {"name": "Kunnamkulam", "name:ml": "\u0d15\u0d41\u0d28\u0d4d\u0d28\u0d02\u0d15\u0d41\u0d33\u0d02", "name:ta": "\u0b95\u0bc1\u0ba9\u0bcd\u0ba9\u0b99\u0bcd\u0b95\u0bc1\u0bb3\u0bae\u0bcd", "place": "town", "wikidata": "Q2234522"}}, {"type": "node", "id": 3530224867, "lat": 10.9145331, "lon": 76.1220618, "tags": {"name": "Vengad", "name:ml": "\u0d35\u0d46\u0d19\u0d4d\u0d19\u0d3e\u0d1f\u0d4d", "place": "town"}}, {"type": "node", "id": 3950469493, "lat": 10.985202, "lon": 76.1078426, "tags": {"name": "Padapparamba", "name:ml": "\u0d2a\u0d1f\u0d2a\u0d4d\u0d2a\u0d31\u0d2e\u0d4d\u0d2a\u0d4d", "place": "town"}}, {"type": "node", "id": 5300565073, "lat": 10.9288049, "lon": 76.0233208, "tags": {"addr:street": "vettichira", "name": "Vettichira", "name:ml": "\u0d35\u0d46\u0d1f\u0d4d\u0d1f\u0d3f\u0d1a\u0d4d\u0d1a\u0d3f\u0d31", "name:ta": "\u0bb5\u0bc6\u0b9f\u0bcd\u0b9f\u0bbf\u0b9a\u0bcd\u0b9a\u0bbf\u0bb1", "place": "town"}}, {"type": "node", "id": 7133540718, "lat": 10.9429344, "lon": 76.0145793}, {"type": "node", "id": 7319737030, "lat": 10.936214, "lon": 75.993503}, {"type": "node", "id": 7319737031, "lat": 10.9403853, "lon": 75.992854}, {"type": "node", "id": 7319737032, "lat": 10.9430715, "lon": 75.994533}, {"type": "node", "id": 7319737033, "lat": 10.9442882, "lon": 75.9956918}, {"type": "node", "id": 7319737034, "lat": 10.945273, "lon": 75.9971508}, {"type": "node", "id": 7319737035, "lat": 10.9462843, "lon": 75.9981057}, {"type": "node", "id": 7319737036, "lat": 10.9476852, "lon": 76.0045962}, {"type": "node", "id": 7319737037, "lat": 10.9475167, "lon": 76.0076861}, {"type": "node", "id": 7319737038, "lat": 10.9474746, "lon": 76.0105937}, {"type": "node", "id": 7319737039, "lat": 10.9441572, "lon": 76.0135636}, {"type": "node", "id": 7319737040, "lat": 10.9396059, "lon": 76.0160868}, {"type": "node", "id": 7319737041, "lat": 10.9361297, "lon": 76.0159151}, {"type": "node", "id": 7319737042, "lat": 10.9296828, "lon": 76.0148208}, {"type": "node", "id": 7319737043, "lat": 10.9274074, "lon": 76.0007823}, {"type": "node", "id": 7319737044, "lat": 10.9307591, "lon": 75.9956299}, {"type": "node", "id": 7319737045, "lat": 10.926375, "lon": 76.0082522}, {"type": "node", "id": 7319737046, "lat": 10.9434168, "lon": 76.0141665}, {"type": "node", "id": 7319737047, "lat": 10.9422188, "lon": 76.0151954}, {"type": "node", "id": 7470786999, "lat": 10.9469855, "lon": 75.9998738}, {"type": "node", "id": 7472750952, "lat": 10.9418742, "lon": 75.9927547}, {"type": "node", "id": 9424715023, "lat": 10.9477521, "lon": 76.0025415}, {"type": "node", "id": 9424715024, "lat": 10.9474127, "lon": 76.0014463}, {"type": "node", "id": 9740708137, "lat": 10.9397788, "lon": 75.9762852, "tags": {"name": "Kadungathukundu", "name:ml": "\u0d15\u0d1f\u0d41\u0d19\u0d4d\u0d19\u0d3e\u0d24\u0d4d\u0d24\u0d41\u0d15\u0d41\u0d23\u0d4d\u0d1f\u0d4d", "name:ta": "\u0b95\u0b9f\u0bc1\u0b99\u0bcd\u0b95\u0bbe\u0ba4\u0bcd\u0ba4\u0bc1\u0b95\u0bcd\u0b95\u0bc1\u0ba3\u0bcd\u0b9f\u0bc1", "place": "town", "population": "33159"}}, {"type": "way", "id": 783681659, "nodes": [7319737030, 7319737031, 7472750952, 7319737032, 7319737033, 7319737034, 7319737035, 7470786999, 9424715024, 9424715023, 7319737036, 7319737037, 7319737038, 7319737039, 7319737046, 7133540718, 7319737047, 7319737040, 7319737041, 7319737042, 7319737045, 7319737043, 7319737044, 7319737030], "tags": {"_District_": "Malappuram", "name": "Puthanathani", "name:hi": "\u092a\u0941\u0924\u0928\u0924\u093e\u0928\u0940", "name:ml": "\u0d2a\u0d41\u0d24\u0d4d\u0d24\u0d28\u0d24\u0d4d\u0d24\u0d3e\u0d23\u0d3f", "name:mr": "\u092a\u0941\u0924\u094d\u0924\u0928\u0924\u094d\u0924\u093e\u0923\u093f", "name:tn": "\u0baa\u0bc1\u0ba4\u0bcd\u0ba4\u0ba8\u0bbe\u0ba4\u0ba9\u0bbf", "place": "town", "population": "20480", "postal_code": "676552", "state": "Kerala", "wikidata": "Q18346018", "wikipedia": "en:Puthanathani"}}]}