{"version": 0.6, "generator": "Overpass API 0.7.62.1 084b4234", "osm3s": {"timestamp_osm_base": "2024-11-07T07:14:23Z", "copyright": "The data included in this document is from www.openstreetmap.org. The data is made available under ODbL."}, "elements": [{"type": "node", "id": 245606719, "lat": 12.4320405, "lon": 75.2714498, "tags": {"name": "Kallar", "name:ml": "\u0d15\u0d33\u0d4d\u0d33\u0d3e\u0d7c", "place": "village"}}, {"type": "node", "id": 245608524, "lat": 12.6532205, "lon": 75.2129927, "tags": {"name": "Nidpalli", "name:kn": "\u0ca8\u0cbf\u0ca1\u0ccd\u0caa\u0cb3\u0ccd\u0cb3\u0cbf", "name:kn:iso15919": "Ni\u1e0dpa\u1e37\u1e37i", "name:ml": "\u0d28\u0d3f\u0d21\u0d4d\u0d2a\u0d33\u0d4d\u0d33\u0d3f", "place": "village"}}, {"type": "node", "id": 585132468, "lat": 12.3495051, "lon": 75.1944441, "tags": {"name": "Thayannur", "name:ml": "\u0d24\u0d3e\u0d2f\u0d28\u0d4d\u0d28\u0d42\u0d7c", "place": "village"}}, {"type": "node", "id": 585132469, "lat": 12.3891761, "lon": 75.1929932, "tags": {"name": "Attenganam", "name:ml": "\u0d05\u0d1f\u0d4d\u0d1f\u0d47\u0d19\u0d4d\u0d19\u0d3e\u0d28\u0d02", "place": "village"}}, {"type": "node", "id": 585952653, "lat": 12.4224956, "lon": 75.2464743, "tags": {"name": "Rajapuram", "name:ml": "\u0d30\u0d3e\u0d1c\u0d2a\u0d41\u0d30\u0d02", "place": "village"}}, {"type": "node", "id": 585952658, "lat": 12.4458927, "lon": 75.2909644, "tags": {"name": "Kolichal", "name:kn": "\u0c95\u0ccb\u0cb3\u0cbf\u0c9a\u0cbe\u0cb2\u0ccd", "name:ml": "\u0d15\u0d4b\u0d33\u0d3f\u0d1a\u0d4d\u0d1a\u0d3e\u0d7d", "place": "village"}}, {"type": "node", "id": 586008289, "lat": 12.3914619, "lon": 75.170336, "tags": {"place": "village"}}, {"type": "node", "id": 586008296, "lat": 12.457027, "lon": 75.1408147, "tags": {"name": "Kundumkuzhy", "name:ml": "\u0d15\u0d41\u0d23\u0d4d\u0d1f\u0d41\u0d02\u0d15\u0d41\u0d34\u0d3f", "place": "village"}}, {"type": "node", "id": 586008298, "lat": 12.4765204, "lon": 75.20987, "tags": {"name": "Kuttikol", "name:ml": "\u0d15\u0d41\u0d31\u0d4d\u0d31\u0d3f\u0d15\u0d4d\u0d15\u0d4b\u0d7d", "place": "village"}}, {"type": "node", "id": 586008312, "lat": 12.5013563, "lon": 75.2687088, "tags": {"name": "Bandadka", "name:ml": "\u0d2c\u0d28\u0d4d\u0d24\u0d1f\u0d41\u0d15\u0d4d\u0d15", "place": "village", "wikidata": "Q4854312", "wikimedia_commons": "Category:Bandadka", "wikipedia": "en:Bandadka"}}, {"type": "node", "id": 586008315, "lat": 12.5068123, "lon": 75.2889837, "tags": {"name": "Manimoola", "name:ml": "\u0d2e\u0d23\u0d3f\u0d2e\u0d42\u0d32", "place": "village"}}, {"type": "node", "id": 587609873, "lat": 12.75849, "lon": 74.949649, "tags": {"name": "Darmanagara", "name:kn": "\u0ca7\u0cb0\u0ccd\u0cae\u0ca8\u0c97\u0cb0", "name:ml": "\u0d27\u0d30\u0d4d\u200d\u0d2e\u0d4d\u0d2e\u0d28\u0d17\u0d30\u0d02", "place": "village"}}, {"type": "node", "id": 587609896, "lat": 12.700405, "lon": 74.937916, "tags": {"name": "Kuloor", "name:kn": "\u0c95\u0cca\u0cb2\u0ccd\u0cb2\u0cc2\u0cb0\u0cc1", "name:ml": "\u0d15\u0d41\u0d33\u0d42\u0d7c", "place": "village", "wikidata": "Q6443183", "wikipedia": "en:Kuloor"}}, {"type": "node", "id": 587609918, "lat": 12.696532, "lon": 74.90931, "tags": {"name": "Pathwadi", "name:kn": "\u0caa\u0ca4\u0ccd\u0cb5\u0cbe\u0ca1\u0cbf", "name:ml": "\u0d2a\u0d24\u0d4d\u0d35\u0d3e\u0d1f\u0d3f", "place": "village"}}, {"type": "node", "id": 587609958, "lat": 12.660757, "lon": 74.917063, "tags": {"name": "Parakatta", "name:kn": "\u0caa\u0cbe\u0cb0\u0c95\u0c9f\u0ccd\u0c9f", "place": "village"}}, {"type": "node", "id": 587610014, "lat": 12.691295, "lon": 74.919375, "tags": {"name": "Santhwadi", "name:kn": "\u0cb8\u0cbe\u0c82\u0ca4\u0ccd\u0cb5\u0cbe\u0ca1\u0cbf", "name:ml": "\u0d38\u0d3e\u0d28\u0d4d\u0d24\u0d4d\u0d35\u0d21\u0d3f", "place": "village"}}, {"type": "node", "id": 587610061, "lat": 12.683489, "lon": 74.956393, "tags": {"name": "Derambala", "place": "village"}}, {"type": "node", "id": 587633191, "lat": 12.61969, "lon": 74.92826, "tags": {"name": "Shiriya", "name:kn": "\u0cb6\u0cbf\u0cb0\u0cbf\u0caf", "name:ml": "\u0d37\u0d3f\u0d31\u0d3f\u0d2f", "place": "village"}}, {"type": "node", "id": 587633192, "lat": 12.610622, "lon": 74.93779, "tags": {"name": "Arikady", "name:kn": "\u0c86\u0cb0\u0cbf\u0c95\u0ccd\u0c95\u0cbe\u0ca1\u0cbf", "name:ml": "\u0d06\u0d30\u0d3f\u0d15\u0d4d\u0d15\u0d3e\u0d1f\u0d3f", "place": "village", "wikidata": "Q4790625", "wikipedia": "en:Arikady"}}, {"type": "node", "id": 587633193, "lat": 12.4771479, "lon": 74.9938325, "tags": {"name": "Thalangara", "name:kn": "\u0ca4\u0cb3\u0c82\u0c97\u0cb0", "name:ml": "\u0d24\u0d33\u0d19\u0d4d\u0d15\u0d30", "place": "village"}}, {"type": "node", "id": 587633195, "lat": 12.6586925, "lon": 74.9518353, "tags": {"name": "Kandal", "place": "village"}}, {"type": "node", "id": 587633201, "lat": 12.652271, "lon": 74.97888, "tags": {"name": "Chinnamugar", "name:ml": "\u0d1a\u0d3f\u0d28\u0d4d\u0d28\u0d2e\u0d41\u0d17\u0d7c", "place": "village"}}, {"type": "node", "id": 587633207, "lat": 12.750103, "lon": 74.879598, "tags": {"name": "Thuminadu", "name:kn": "\u0ca4\u0cc2\u0cae\u0cbf\u0ca8\u0cbe\u0ca1\u0cc1", "name:ml": "\u0d24\u0d41\u0d2e\u0d3f\u0d28\u0d3e\u0d1f\u0d4d", "place": "village"}}, {"type": "node", "id": 587633208, "lat": 12.735438, "lon": 74.879623, "tags": {"name": "Udyawara", "name:kn": "\u0c89\u0ca6\u0ccd\u0caf\u0cbe\u0cb5\u0cb0", "name:ml": "\u0d09\u0d26\u0d4d\u0d2f\u0d3e\u0d35\u0d7c", "place": "village"}}, {"type": "node", "id": 587633209, "lat": 12.6574543, "lon": 74.963633, "tags": {"name": "Kokkachal", "name:ml": "\u0d15\u0d4b\u0d15\u0d4d\u0d15\u0d1a\u0d4d\u0d1a\u0d3e\u0d32\u0d4d\u200d", "place": "village"}}, {"type": "node", "id": 588369620, "lat": 12.555707, "lon": 74.974322, "tags": {"name": "Kel", "place": "village"}}, {"type": "node", "id": 589968910, "lat": 12.473165, "lon": 75.258452, "tags": {"name": "Karivedakam", "name:ml": "\u0d15\u0d30\u0d3f\u0d35\u0d47\u0d1f\u0d15\u0d02", "place": "village", "wikidata": "Q6371110", "wikipedia": "en:Karivedakam"}}, {"type": "node", "id": 589977482, "lat": 12.4444275, "lon": 75.2855439, "tags": {"name": "Pathinettam mile", "place": "village"}}, {"type": "node", "id": 589981702, "lat": 12.373165, "lon": 75.229917, "tags": {"name": "Edathode", "name:ml": "\u0d0e\u0d1f\u0d24\u0d4d\u0d24\u0d4b\u0d1f\u0d4d", "place": "village"}}, {"type": "node", "id": 589981752, "lat": 12.359336, "lon": 75.212308, "tags": {"name": "Attakandam", "name:ml": "\u0d05\u0d1f\u0d4d\u0d1f\u0d15\u0d4d\u0d15\u0d23\u0d4d\u0d1f\u0d02", "place": "village"}}, {"type": "node", "id": 589981845, "lat": 12.382169, "lon": 75.213344, "tags": {"name": "Naikayam", "name:ml": "\u0d28\u0d3e\u0d2f\u0d4d\u0d15\u0d4d\u0d15\u0d2f\u0d02", "place": "village"}}, {"type": "node", "id": 589981892, "lat": 12.36422, "lon": 75.160828, "tags": {"name": "Parakalayi", "place": "village"}}, {"type": "node", "id": 589981940, "lat": 12.3579556, "lon": 75.1775449, "tags": {"name": "Kalluvalappu", "name:ml": "\u0d15\u0d32\u0d4d\u0d32\u0d41\u0d35\u0d33\u0d2a\u0d4d\u0d2a\u0d4d", "place": "village"}}, {"type": "node", "id": 589981986, "lat": 12.3478081, "lon": 75.1774685, "tags": {"name": "Anakkuzhy", "name:ml": "\u0d06\u0d28\u0d15\u0d4d\u0d15\u0d41\u0d34\u0d3f", "place": "village"}}, {"type": "node", "id": 589982039, "lat": 12.4267193, "lon": 75.185921, "tags": {"name": "Udayapuram", "name:ml": "\u0d09\u0d26\u0d2f\u0d2a\u0d41\u0d30\u0d02", "place": "village"}}, {"type": "node", "id": 589982130, "lat": 12.414055, "lon": 75.1815478, "tags": {"alt_name": "Erumakulam", "name": "Erumakkulam", "name:ml": "\u0d0e\u0d30\u0d41\u0d2e\u0d15\u0d4d\u0d15\u0d41\u0d33\u0d02", "place": "village", "wikidata": "Q31701507"}}, {"type": "node", "id": 589982180, "lat": 12.503217, "lon": 75.145906, "tags": {"name": "Kanathur", "name:ml": "\u0d15\u0d3e\u0d28\u0d24\u0d4d\u0d24\u0d42\u0d30\u0d4d\u200d", "place": "village"}}, {"type": "node", "id": 589982250, "lat": 12.613094, "lon": 75.205501, "tags": {"name": "Sullyapadavu", "name:kn": "\u0cb8\u0cc1\u0cb3\u0ccd\u0caf\u0caa\u0ca6\u0cb5\u0cc1", "name:ml": "\u0d38\u0d41\u0d33\u0d4d\u0d33\u0d4d\u0d2f\u0d2a\u0d26\u0d35\u0d4d", "place": "village"}}, {"type": "node", "id": 589982268, "lat": 12.51554, "lon": 75.139055, "tags": {"name": "Panoor", "name:ml": "\u0d2a\u0d3e\u0d28\u0d42\u0d7c", "place": "village"}}, {"type": "node", "id": 589982294, "lat": 12.531689, "lon": 75.132477, "tags": {"name": "Chennamgod", "name:ml": "\u0d1a\u0d46\u0d28\u0d4d\u0d28\u0d3e\u0d19\u0d4d\u0d15\u0d4b\u0d1f\u0d4d", "place": "village"}}, {"type": "node", "id": 589982310, "lat": 12.539607, "lon": 75.146149, "tags": {"name": "Karadka", "name:ml": "\u0d15\u0d3e\u0d31\u0d21\u0d41\u0d15\u0d4d\u0d15", "place": "village", "wikidata": "Q6367853", "wikipedia": "en:Karadka"}}, {"type": "node", "id": 589982698, "lat": 12.348798, "lon": 75.23512, "tags": {"name": "Banam", "name:ml": "\u0d2c\u0d3e\u0d28\u0d02", "place": "village"}}, {"type": "node", "id": 589982738, "lat": 12.388474, "lon": 75.283019, "tags": {"name": "Balal", "name:ml": "\u0d2c\u0d33\u0d3e\u0d7d", "place": "village", "wikidata": "Q4849894", "wikipedia": "en:Balal"}}, {"type": "node", "id": 589982757, "lat": 12.369872, "lon": 75.244071, "tags": {"name": "Parappa", "name:ml": "\u0d2a\u0d30\u0d2a\u0d4d\u0d2a", "place": "village"}}, {"type": "node", "id": 589982777, "lat": 12.378138, "lon": 75.275849, "tags": {"name": "Kallanchira", "name:ml": "\u0d15\u0d32\u0d4d\u0d32\u0d1e\u0d4d\u0d1a\u0d3f\u0d30", "place": "village"}}, {"type": "node", "id": 589982970, "lat": 12.411955, "lon": 75.261314, "tags": {"name": "Palamkallu", "name:ml": "\u0d2a\u0d3e\u0d32\u0d02\u0d15\u0d32\u0d4d\u0d32\u0d4d", "place": "village"}}, {"type": "node", "id": 589982985, "lat": 12.441745, "lon": 75.291967, "tags": {"name": "Parakkadavu", "name:ml": "\u0d2a\u0d3e\u0d31\u0d15\u0d4d\u0d15\u0d1f\u0d35\u0d4d", "place": "village"}}, {"type": "node", "id": 589983003, "lat": 12.41368, "lon": 75.23903, "tags": {"name": "Poodumkal", "name:ml": "\u0d2a\u0d42\u0d1f\u0d41\u0d02\u0d15\u0d7d", "place": "village"}}, {"type": "node", "id": 589983168, "lat": 12.468734, "lon": 75.290843, "tags": {"name": "Manadukkam", "name:ml": "\u0d2e\u0d3e\u0d28\u0d1f\u0d41\u0d15\u0d4d\u0d15\u0d02", "place": "village"}}, {"type": "node", "id": 634468428, "lat": 12.478898, "lon": 75.023218, "tags": {"name": "Deli", "place": "village"}}, {"type": "node", "id": 634468509, "lat": 12.478354, "lon": 75.058447, "tags": {"name": "Chattanchal", "name:ml": "\u0d1a\u0d1f\u0d4d\u0d1f\u0d1e\u0d4d\u0d1a\u0d3e\u0d7d", "place": "village"}}, {"type": "node", "id": 634468564, "lat": 12.495493, "lon": 75.002174, "tags": {"name": "Chemmanad", "name:ml": "\u0d1a\u0d46\u0d2e\u0d4d\u0d2e\u0d28\u0d3e\u0d1f\u0d4d", "place": "village"}}, {"type": "node", "id": 650128653, "lat": 12.499175, "lon": 75.218069, "tags": {"name": "Chayithadukkam", "name:ml": "\u0d1a\u0d3e\u0d2f\u0d3f\u0d24\u0d1f\u0d41\u0d15\u0d4d\u0d15\u0d02", "place": "village"}}, {"type": "node", "id": 650128681, "lat": 12.550998, "lon": 75.239324, "tags": {"name": "Koppalam", "name:kn": "\u0c95\u0cca\u0caa\u0cbe\u0cb2\u0c82", "name:ml": "\u0d15\u0d4b\u0d2a\u0d4d\u0d2a\u0d3e\u0d32\u0d02", "place": "village"}}, {"type": "node", "id": 650128684, "lat": 12.5527006, "lon": 75.278536, "tags": {"name": "Kanyana", "name:kn": "\u0c95\u0ca8\u0ccd\u0caf\u0cbe\u0ca8", "name:kn:iso15919": "Kany\u0101na", "name:ml": "\u0d15\u0d28\u0d4d\u0d2f\u0d3e\u0d28", "place": "village"}}, {"type": "node", "id": 650128688, "lat": 12.567554, "lon": 75.244688, "tags": {"name": "Pallangodu", "name:kn": "\u0caa\u0cb2\u0ccd\u0cb2\u0c82\u0c97\u0ccb\u0ca1\u0cc1", "name:ml": "\u0d2a\u0d33\u0d4d\u0d33\u0d19\u0d4d\u0d15\u0d4b\u0d1f\u0d4d", "place": "village"}}, {"type": "node", "id": 650128697, "lat": 12.556203, "lon": 75.26853, "tags": {"name": "Baithandka", "name:ml": "\u0d2c\u0d48\u0d24\u0d4d\u0d24\u0d23\u0d4d\u0d1f\u0d4d\u0d15", "place": "village"}}, {"type": "node", "id": 650128698, "lat": 12.5698941, "lon": 75.2823344, "tags": {"name": "Peraje", "name:kn": "\u0caa\u0cc6\u0cb0\u0cbe\u0c9c\u0cc6", "name:kn:iso15919": "Per\u0101je", "name:ml": "\u0d2a\u0d46\u0d30\u0d3e\u0d1c\u0d46", "place": "village"}}, {"type": "node", "id": 650128699, "lat": 12.583828, "lon": 75.246823, "tags": {"name": "Pallathur", "name:kn": "\u0caa\u0cb3\u0ccd\u0cb3\u0ca4\u0ccd\u0ca4\u0cc2\u0cb0\u0cc1", "name:ml": "\u0d2a\u0d33\u0d4d\u0d33\u0d24\u0d4d\u0d24\u0d42\u0d7c", "place": "village"}}, {"type": "node", "id": 650128703, "lat": 12.600015, "lon": 75.284314, "tags": {"name": "Delampady", "name:kn": "\u0ca6\u0cc7\u0cb2\u0c82\u0caa\u0ca1\u0cbf", "name:ml": "\u0d26\u0d47\u0d32\u0d02\u0d2a\u0d3e\u0d1f\u0d3f", "place": "village"}}, {"type": "node", "id": 650128704, "lat": 12.589446, "lon": 75.272923, "tags": {"name": "Mayyala", "name:ml": "\u0d2e\u0d2f\u0d4d\u0d2f\u0d32", "place": "village"}}, {"type": "node", "id": 650128708, "lat": 12.575383, "lon": 75.244097, "tags": {"name": "Kotyadi", "name:kn": "\u0c95\u0cca\u0c9f\u0ccd\u0c9f\u0ccd\u0caf\u0cbe\u0ca1\u0cbf", "name:ml": "\u0d15\u0d4a\u0d1f\u0d4d\u0d1f\u0d3f\u0d2f\u0d3e\u0d1f\u0d3f", "place": "village"}}, {"type": "node", "id": 650128709, "lat": 12.586189, "lon": 75.246474, "tags": {"name": "Alantadka", "name:kn": "\u0c85\u0cb2\u0c82\u0ca4\u0ca1\u0ccd\u0c95", "name:ml": "\u0d05\u0d32\u0d28\u0d4d\u0d24\u0d21\u0d4d\u0d15", "place": "village"}}, {"type": "node", "id": 654011368, "lat": 12.378639, "lon": 75.051447, "tags": {"name": "Poochakkad", "name:ml": "\u0d2a\u0d42\u0d1a\u0d4d\u0d1a\u0d15\u0d4d\u0d15\u0d3e\u0d1f\u0d4d", "place": "village"}}, {"type": "node", "id": 654011369, "lat": 12.385072, "lon": 75.043995, "tags": {"name": "Pallikere", "name:ml": "\u0d2a\u0d33\u0d4d\u0d33\u0d3f\u0d15\u0d4d\u0d15\u0d30\u0d46", "place": "village"}}, {"type": "node", "id": 654011379, "lat": 12.3697081, "lon": 75.0564817, "tags": {"name": "Chettukundu", "name:ml": "\u0d1a\u0d46\u0d1f\u0d4d\u0d1f\u0d41\u0d15\u0d41\u0d23\u0d4d\u0d1f\u0d4d", "place": "village"}}, {"type": "node", "id": 654011395, "lat": 12.375552, "lon": 75.053443, "tags": {"name": "Thekkepuram", "name:ml": "\u0d24\u0d46\u0d15\u0d4d\u0d15\u0d47\u0d2a\u0d41\u0d30\u0d02", "place": "village"}}, {"type": "node", "id": 654011423, "lat": 12.436013, "lon": 75.010076, "tags": {"name": "Padinhar", "name:ml": "\u0d2a\u0d1f\u0d3f\u0d1e\u0d4d\u0d1e\u0d3e\u0d30\u0d4d\u200d", "place": "village"}}, {"type": "node", "id": 654011431, "lat": 12.425202, "lon": 75.012566, "tags": {"name": "Kappil", "name:ml": "\u0d15\u0d3e\u0d2a\u0d4d\u0d2a\u0d3f\u0d32\u0d4d\u200d", "place": "village"}}, {"type": "node", "id": 654011434, "lat": 12.395725, "lon": 75.0371916, "tags": {"name": "Bekal", "name:hi": "\u092c\u0947\u0915\u0932", "name:kn": "\u0cac\u0cc7\u0c95\u0cb2\u0ccd", "name:ml": "\u0d2c\u0d47\u0d15\u0d4d\u0d15\u0d32\u0d4d\u200d", "name:ta": "\u0baa\u0bc7\u0b95\u0bcd\u0b95\u0bb2\u0bcd", "name:te": "\u0c2c\u0c46\u0c15\u0c32\u0c4d", "place": "village", "wikidata": "Q4881580", "wikimedia_commons": "Category:Bekal", "wikipedia": "en:Bekal"}}, {"type": "node", "id": 654011436, "lat": 12.4240111, "lon": 75.0224531, "tags": {"name": "Palakkunnu", "name:ml": "\u0d2a\u0d3e\u0d32\u0d15\u0d4d\u0d15\u0d41\u0d28\u0d4d\u0d28\u0d4d", "place": "village"}}, {"type": "node", "id": 654011437, "lat": 12.429499, "lon": 75.046385, "tags": {"name": "Chandapuram", "place": "village"}}, {"type": "node", "id": 654011438, "lat": 12.440468, "lon": 75.024665, "tags": {"name": "Uduma", "name:kn": "\u0c89\u0ca6\u0cc1\u0cae", "name:ml": "\u0d09\u0d26\u0d41\u0d2e", "place": "village", "wikidata": "Q2548678", "wikimedia_commons": "Category:Udma", "wikipedia": "en:Udma"}}, {"type": "node", "id": 654011462, "lat": 12.455404, "lon": 75.033434, "tags": {"name": "Mangad", "name:ml": "\u0d2e\u0d3e\u0d19\u0d4d\u0d19\u0d3e\u0d1f\u0d4d", "place": "village"}}, {"type": "node", "id": 654011479, "lat": 12.452764, "lon": 75.039164, "tags": {"name": "Ambapuram", "place": "village"}}, {"type": "node", "id": 654011635, "lat": 12.447832, "lon": 75.041219, "tags": {"name": "Bare", "place": "village"}}, {"type": "node", "id": 654011836, "lat": 12.47145, "lon": 75.044052, "tags": {"name": "Bendichal", "place": "village"}}, {"type": "node", "id": 654011846, "lat": 12.474862, "lon": 75.006694, "tags": {"name": "Chaliyangod", "name:ml": "\u0d1a\u0d33\u0d3f\u0d2f\u0d19\u0d4d\u0d15\u0d4b\u0d1f\u0d4d", "place": "village"}}, {"type": "node", "id": 654012104, "lat": 12.462876, "lon": 74.99516, "tags": {"name": "Kizhur", "name:ml": "\u0d15\u0d40\u0d34\u0d42\u0d7c", "place": "village"}}, {"type": "node", "id": 654012166, "lat": 12.461785, "lon": 75.025051, "tags": {"name": "Aramanganam", "place": "village"}}, {"type": "node", "id": 654012343, "lat": 12.4664855, "lon": 75.0071634, "tags": {"name": "Melparamba", "name:ml": "\u0d2e\u0d47\u0d32\u0d4d\u200d\u0d2a\u0d4d\u0d2a\u0d31\u0d2e\u0d4d\u0d2a", "place": "village", "wikidata": "Q101206210"}}, {"type": "node", "id": 654012344, "lat": 12.453659, "lon": 74.998404, "tags": {"alt_name:en": "Chembirika", "name": "Chembirikka", "name:ml": "\u0d1a\u0d46\u0d2e\u0d4d\u0d2a\u0d30\u0d3f\u0d15\u0d4d\u0d15", "place": "village"}}, {"type": "node", "id": 654012345, "lat": 12.451015, "lon": 75.056237, "tags": {"name": "Mylatti", "place": "village"}}, {"type": "node", "id": 654012346, "lat": 12.463512, "lon": 75.058485, "tags": {"name": "Poinachi", "name:ml": "\u0d2a\u0d4a\u0d2f\u0d3f\u0d28\u0d3e\u0d1a\u0d4d\u0d1a\u0d3f", "place": "village", "wikidata": "Q7207859", "wikipedia": "en:Poinachi Junction"}}, {"type": "node", "id": 654012351, "lat": 12.357102, "lon": 75.115309, "tags": {"name": "Kodavalam", "place": "village"}}, {"type": "node", "id": 654012361, "lat": 12.379259, "lon": 75.065854, "tags": {"name": "Kottakkani", "place": "village"}}, {"type": "node", "id": 654012362, "lat": 12.38392, "lon": 75.101808, "tags": {"name": "Challingal", "name:ml": "\u0d1a\u0d3e\u0d32\u0d3f\u0d19\u0d4d\u0d15\u0d3e\u0d7d", "place": "village"}}, {"type": "node", "id": 654012363, "lat": 12.361508, "lon": 75.086638, "tags": {"name": "Veleswaram", "place": "village"}}, {"type": "node", "id": 654012397, "lat": 12.35664, "lon": 75.098765, "tags": {"name": "Pullur", "name:ml": "\u0d2a\u0d41\u0d32\u0d4d\u0d32\u0d42\u0d7c", "place": "village"}}, {"type": "node", "id": 654012400, "lat": 12.36677, "lon": 75.125828, "tags": {"name": "Gurupuram", "name:ml": "\u0d17\u0d41\u0d30\u0d41\u0d2a\u0d41\u0d30\u0d02", "place": "village"}}, {"type": "node", "id": 654012417, "lat": 12.3563358, "lon": 75.0693473, "tags": {"name": "Chittari", "name:ml": "\u0d1a\u0d3f\u0d24\u0d4d\u0d24\u0d3e\u0d30\u0d3f", "place": "village"}}, {"type": "node", "id": 654012491, "lat": 12.3506938, "lon": 75.073354, "tags": {"name": "Madiyan", "name:ml": "\u0d2e\u0d21\u0d3f\u0d2f\u0d7b", "place": "village"}}, {"type": "node", "id": 654012493, "lat": 12.362234, "lon": 75.063935, "tags": {"name": "Chamundikunnu", "name:ml": "\u0d1a\u0d3e\u0d2e\u0d41\u0d23\u0d4d\u0d1f\u0d3f\u0d15\u0d4d\u0d15\u0d41\u0d28\u0d4d\u0d28\u0d4d", "place": "village"}}, {"type": "node", "id": 654012558, "lat": 12.450501, "lon": 75.106458, "tags": {"name": "Choorikode", "name:ml": "\u0d1a\u0d42\u0d30\u0d3f\u0d15\u0d4d\u0d15\u0d4b\u0d1f\u0d4d", "place": "village"}}, {"type": "node", "id": 654012594, "lat": 12.419342, "lon": 75.083195, "tags": {"name": "Kuniya", "name:kn": "\u0c95\u0cc1\u0ca8\u0cbf\u0caf", "name:ml": "\u0d15\u0d41\u0d28\u0d3f\u0d2f", "place": "village"}}, {"type": "node", "id": 654012626, "lat": 12.489179, "lon": 75.006548, "tags": {"name": "Chemnad", "name:ml": "\u0d1a\u0d46\u0d2e\u0d4d\u0d2e\u0d28\u0d3e\u0d1f\u0d4d", "place": "village"}}, {"type": "node", "id": 654012630, "lat": 12.481631, "lon": 75.012108, "tags": {"name": "Paravanadukkam", "name:ml": "\u0d2a\u0d31\u0d35\u0d28\u0d1f\u0d41\u0d15\u0d4d\u0d15\u0d02", "place": "village"}}, {"type": "node", "id": 980727164, "lat": 12.6966196, "lon": 75.1056711, "tags": {"name": "Adyanadka", "name:kn": "\u0c85\u0ca1\u0ccd\u0caf\u0ca8\u0ca1\u0ccd\u0c95", "name:ml": "\u0d05\u0d21\u0d4d\u0d2f\u0d28\u0d1f\u0d41\u0d15\u0d4d\u0d15", "place": "village"}}, {"type": "node", "id": 2309757095, "lat": 12.746264, "lon": 75.0770437, "tags": {"name": "Byrikatte", "name:kn": "\u0cac\u0cc8\u0cb0\u0cbf\u0c95\u0c9f\u0ccd\u0c9f\u0cc6", "name:ml": "\u0d2c\u0d48\u0d30\u0d3f\u0d15\u0d4d\u0d15\u0d1f\u0d4d\u0d1f\u0d46", "place": "village"}}, {"type": "node", "id": 2310868141, "lat": 12.6188247, "lon": 75.2492444, "tags": {"name": "Ishwaramangala", "name:kn": "\u0c88\u0cb6\u0ccd\u0cb5\u0cb0\u0cae\u0c82\u0c97\u0cb3", "name:ml": "\u0d08\u0d36\u0d4d\u0d35\u0d30\u0d2e\u0d02\u0d17\u0d32", "place": "village"}}, {"type": "node", "id": 2311110776, "lat": 12.6526301, "lon": 75.2246314, "tags": {"name": "Mudipinadka", "name:kn": "\u0cae\u0cc1\u0ca1\u0cbf\u0caa\u0cbf\u0ca8\u0ca1\u0ccd\u0c95", "name:ml": "\u0d2e\u0d41\u0d1f\u0d3f\u0d2a\u0d4d\u0d2a\u0d3f\u0d28\u0d1f\u0d41\u0d15\u0d4d\u0d15", "place": "village"}}, {"type": "node", "id": 2311110873, "lat": 12.6687497, "lon": 75.1994648, "tags": {"name": "Bettampady", "name:kn": "\u0cac\u0cc6\u0c9f\u0ccd\u0c9f\u0c82\u0caa\u0cbe\u0ca1\u0cbf", "name:kn:iso15919": "Be\u1e6d\u1e6da\u1e41p\u0101\u1e0di", "name:ml": "\u0d2c\u0d46\u0d31\u0d4d\u0d31\u0d2e\u0d4d\u0d2a\u0d3e\u0d1f\u0d3f", "place": "village"}}, {"type": "node", "id": 2311126782, "lat": 12.6412493, "lon": 75.1457235, "tags": {"name": "Daithota", "name:kn": "\u0ca6\u0cc8\u0ca4\u0ccb\u0c9f", "name:ml": "\u0d26\u0d48\u0d24\u0d4d\u0d24\u0d4b\u0d1f\u0d4d\u0d1f", "place": "village"}}, {"type": "node", "id": 2311127170, "lat": 12.6469772, "lon": 75.171484, "tags": {"name": "Arlapadavu", "name:kn": "\u0c86\u0cb0\u0ccd\u0cb2\u0caa\u0ca6\u0cb5\u0cc1", "name:ml": "\u0d06\u0d7c\u0d32\u0d2a\u0d26\u0d35\u0d4d", "place": "village"}}, {"type": "node", "id": 2311127180, "lat": 12.6474797, "lon": 75.1660123, "tags": {"name": "Panaje", "name:kn": "\u0caa\u0cbe\u0ca3\u0cbe\u0c9c\u0cc6", "name:kn:iso15919": "P\u0101\u1e47\u0101je", "name:ml": "\u0d2a\u0d3e\u0d23\u0d3e\u0d1c\u0d46", "place": "village"}}, {"type": "node", "id": 2986298126, "lat": 12.3634306, "lon": 75.1691244, "tags": {"name": "Ayyankaavu", "name:ml": "\u0d05\u0d2f\u0d4d\u0d2f\u0d19\u0d4d\u0d15\u0d3e\u0d35\u0d41\u0d4d", "note": "\u0d05\u0d2f\u0d4d\u0d2f\u0d19\u0d4d\u0d15\u0d3e\u0d35\u0d41\u0d4d", "place": "village"}}, {"type": "node", "id": 3844902061, "lat": 12.6721838, "lon": 75.1199119, "tags": {"name": "Adkastala", "name:kn": "\u0c85\u0ca1\u0ccd\u0c95\u0cb8\u0ccd\u0ca4\u0cb3", "name:ml": "\u0d05\u0d21\u0d4d\u0d15\u0d38\u0d4d\u0d24\u0d32", "place": "village"}}, {"type": "node", "id": 6260405932, "lat": 12.4102374, "lon": 75.0932918, "tags": {"name": "Periye Bazar", "place": "village"}}, {"type": "node", "id": 6261016797, "lat": 12.3702945, "lon": 75.0986247, "tags": {"name": "Keloth", "name:ml": "\u0d15\u0d47\u0d33\u0d4b\u0d24\u0d4d\u0d24\u0d4d", "place": "village"}}, {"type": "node", "id": 6372792526, "lat": 12.7173558, "lon": 75.0186887, "tags": {"name": "Muguli", "name:kn": "\u0cae\u0cc1\u0c97\u0cc1\u0cb3\u0cbf", "name:ml": "\u0d2e\u0d41\u0d17\u0d41\u0d33\u0d3f", "place": "village"}}, {"type": "node", "id": 6372792530, "lat": 12.7753814, "lon": 74.9238905, "tags": {"name": "Taudugoli", "name:kn": "\u0ca4\u0ccc\u0ca1\u0cc1\u0c97\u0ccb\u0cb3\u0cbf", "name:ml": "\u0d24\u0d57\u0d1f\u0d41\u0d17\u0d4b\u0d33\u0d3f", "place": "village"}}, {"type": "node", "id": 6387893694, "lat": 12.7442932, "lon": 75.0491953, "tags": {"name": "Kanyana", "name:kn": "\u0c95\u0ca8\u0ccd\u0caf\u0cbe\u0ca8", "name:ml": "\u0d15\u0d28\u0d4d\u0d2f\u0d3e\u0d28", "place": "village"}}, {"type": "node", "id": 6387893695, "lat": 12.7101347, "lon": 75.0654173, "tags": {"name": "Peruvai", "name:kn": "\u0caa\u0cc6\u0cb0\u0cc1\u0cb5\u0cbe\u0caf\u0cbf", "place": "village"}}, {"type": "node", "id": 6387893696, "lat": 12.6807656, "lon": 75.0635934, "tags": {"name": "Manila", "name:kn": "\u0cae\u0cbe\u0ca3\u0cbf\u0cb2", "place": "village"}}, {"type": "node", "id": 6387932776, "lat": 12.7454757, "lon": 74.9922144, "tags": {"name": "Sendragaya", "name:kn": "\u0cb8\u0cc7\u0c82\u0ca6\u0ccd\u0cb0\u0c97\u0caf", "name:ml": "\u0d38\u0d47\u0d7b\u0d26\u0d4d\u0d30\u0d17\u0d2f", "place": "village"}}, {"type": "node", "id": 6387932777, "lat": 12.7525865, "lon": 74.9937859, "tags": {"name": "Anekallu", "name:kn": "\u0c86\u0ca8\u0cc6\u0c95\u0cb2\u0ccd\u0cb2\u0cc1", "name:ml": "\u0d06\u0d28\u0d15\u0d4d\u0d15\u0d32\u0d4d\u0d32\u0d4d", "place": "village", "wikidata": "Q48734681"}}, {"type": "node", "id": 6387932778, "lat": 12.7484162, "lon": 75.0138116, "tags": {"name": "Vijayadka", "name:kn": "\u0cb5\u0cbf\u0c9c\u0caf\u0ca1\u0ccd\u0c95", "name:ml": "\u0d35\u0d3f\u0d1c\u0d2f\u0d1f\u0d41\u0d15\u0d4d\u0d15", "place": "village"}}, {"type": "node", "id": 6399035149, "lat": 12.7104801, "lon": 75.1058543, "tags": {"name": "Kuddupadavu", "name:kn": "\u0c95\u0cc1\u0ca6\u0ccd\u0ca6\u0cc1\u0caa\u0ca6\u0cb5\u0cc1", "name:ml": "\u0d15\u0d41\u0d26\u0d4d\u0d26\u0d41\u0d2a\u0d26\u0d35\u0d4d", "place": "village"}}, {"type": "node", "id": 6399035150, "lat": 12.69084, "lon": 75.1066321, "tags": {"name": "Saradka", "name:kn": "\u0cb8\u0cbe\u0cb0\u0ca1\u0ccd\u0c95", "name:ml": "\u0d38\u0d3e\u0d30\u0d21\u0d4d\u0d15", "place": "village"}}, {"type": "node", "id": 6399042391, "lat": 12.7316727, "lon": 75.0225127, "tags": {"name": "Mitthanadka", "name:kn": "\u0cae\u0cbf\u0ca4\u0ccd\u0ca4\u0ca8\u0ca1\u0ccd\u0c95", "name:ml": "\u0d2e\u0d3f\u0d24\u0d4d\u0d24\u0d28\u0d1f\u0d41\u0d15\u0d4d\u0d15", "place": "village"}}, {"type": "node", "id": 6400811183, "lat": 12.7154095, "lon": 75.0778091, "tags": {"name": "Mucchira Padavu", "name:kn": "\u0cae\u0cc1\u0c9a\u0ccd\u0c9a\u0cbf\u0cb0\u0caa\u0ca6\u0cb5\u0cc1", "name:ml": "\u0d2e\u0d41\u0d1a\u0d4d\u0d1a\u0d3f\u0d31\u0d2a\u0d4d\u0d2a\u0d26\u0d35\u0d4d", "place": "village"}}, {"type": "node", "id": 6407163062, "lat": 12.3626612, "lon": 75.0991464, "tags": {"name": "Pollakkada", "name:ml": "\u0d2a\u0d4a\u0d33\u0d4d\u0d33\u0d15\u0d4d\u0d15\u0d1f", "place": "village", "postal_code": "671531"}}, {"type": "node", "id": 6419526762, "lat": 12.6983812, "lon": 75.146935, "tags": {"name": "Toranakatte", "name:kn": "\u0ca4\u0ccb\u0cb0\u0ca3\u0c95\u0c9f\u0ccd\u0c9f\u0cc6", "name:ml": "\u0d24\u0d4b\u0d30\u0d23\u0d15\u0d4d\u0d15\u0d1f\u0d4d\u0d1f\u0d46", "place": "village"}}, {"type": "node", "id": 6511815237, "lat": 12.6182063, "lon": 75.2191079, "tags": {"name": "Padadka", "name:kn": "\u0caa\u0ca6\u0ca1\u0ccd\u0c95", "name:ml": "\u0d2a\u0d26\u0d1f\u0d41\u0d15\u0d4d\u0d15", "place": "village"}}, {"type": "node", "id": 6894662945, "lat": 12.4147888, "lon": 75.1604287, "tags": {"alt_name:en": "Kanjiradukkam", "name": "Kanhiradukkam", "name:ml": "\u0d15\u0d3e\u0d1e\u0d4d\u0d1e\u0d3f\u0d30\u0d1f\u0d41\u0d15\u0d4d\u0d15\u0d02", "place": "village"}}, {"type": "node", "id": 7365866456, "lat": 12.5128605, "lon": 75.0269919, "tags": {"name": "Panalam", "name:ml": "\u0d2a\u0d23\u0d32\u0d02", "place": "village"}}, {"type": "node", "id": 7366721636, "lat": 12.5447474, "lon": 75.0703322, "tags": {"name": "Nellikatta", "name:kn": "\u0ca8\u0cc6\u0cb2\u0ccd\u0cb2\u0cbf\u0c95\u0c9f\u0ccd\u0c9f\u0cc6", "name:ml": "\u0d28\u0d46\u0d32\u0d4d\u0d32\u0d3f\u0d15\u0d4d\u0d15\u0d1f\u0d4d\u0d1f", "place": "village"}}, {"type": "node", "id": 7444145625, "lat": 12.4875858, "lon": 75.0724427, "tags": {"name": "Thaira", "place": "village"}}, {"type": "node", "id": 7444540459, "lat": 12.4577502, "lon": 75.2330931, "tags": {"name": "Anjanamukkude", "place": "village"}}, {"type": "node", "id": 7446684221, "lat": 12.4657105, "lon": 75.2273622, "tags": {"name": "Palamthady", "place": "village"}}, {"type": "node", "id": 7448247265, "lat": 12.4569774, "lon": 75.2214673, "tags": {"name": "Kundampara", "name:ml": "\u0d15\u0d41\u0d23\u0d4d\u0d1f\u0d02\u0d2a\u0d3e\u0d31", "place": "village"}}, {"type": "node", "id": 7459427658, "lat": 12.4488675, "lon": 75.2320985, "tags": {"name": "Mavungal", "place": "village"}}, {"type": "node", "id": 7459427711, "lat": 12.4392219, "lon": 75.2289172, "tags": {"name": "Vazhavalapu", "place": "village"}}, {"type": "node", "id": 7459427895, "lat": 12.4361145, "lon": 75.2313171, "tags": {"name": "Peradukkam", "place": "village"}}, {"type": "node", "id": 7459428205, "lat": 12.4345226, "lon": 75.2245475, "tags": {"name": "Kottody", "name:ml": "\u0d15\u0d4a\u0d1f\u0d4d\u0d1f\u0d4b\u0d1f\u0d3f", "place": "village"}}, {"type": "node", "id": 7462418373, "lat": 12.4700411, "lon": 75.2226104, "tags": {"name": "Athyadukkam", "place": "village"}}, {"type": "node", "id": 7462418535, "lat": 12.4765646, "lon": 75.2146594, "tags": {"name": "Arthuttypara", "place": "village"}}, {"type": "node", "id": 7475581551, "lat": 12.4582566, "lon": 75.237618, "tags": {"name": "Kudumboor", "place": "village"}}, {"type": "node", "id": 7476375474, "lat": 12.5177162, "lon": 75.0533319}, {"type": "node", "id": 7476375475, "lat": 12.5182202, "lon": 75.0531287}, {"type": "node", "id": 7476375476, "lat": 12.5189922, "lon": 75.0528014}, {"type": "node", "id": 7476375477, "lat": 12.5194922, "lon": 75.0529986}, {"type": "node", "id": 7476375478, "lat": 12.5204408, "lon": 75.0527729}, {"type": "node", "id": 7476375479, "lat": 12.5209071, "lon": 75.0530697}, {"type": "node", "id": 7476375480, "lat": 12.5204964, "lon": 75.0540231}, {"type": "node", "id": 7476375481, "lat": 12.5197502, "lon": 75.0540942}, {"type": "node", "id": 7476375482, "lat": 12.5196907, "lon": 75.0550801}, {"type": "node", "id": 7476375483, "lat": 12.5188156, "lon": 75.0556858}, {"type": "node", "id": 7476375484, "lat": 12.5175892, "lon": 75.0541064}, {"type": "node", "id": 7476375485, "lat": 12.5175297, "lon": 75.0535393}, {"type": "node", "id": 7498292995, "lat": 12.467508, "lon": 75.0110071, "tags": {"name": "Valliyod", "name:ml": "\u0d35\u0d33\u0d4d\u0d33\u0d3f\u0d2f\u0d4b\u0d1f\u0d4d", "place": "village", "postal_code": "671317"}}, {"type": "node", "id": 7711421328, "lat": 12.7612452, "lon": 74.9249768, "tags": {"name": "Vorkady", "name:kn": "\u0cb5\u0cca\u0cb0\u0ccd\u0c95\u0cbe\u0ca1\u0cbf", "name:ml": "\u0d35\u0d4b\u0d7c\u0d15\u0d4d\u0d15\u0d3e\u0d1f\u0d3f", "place": "village", "wikidata": "Q7941804", "wikipedia": "en:Vorkady"}}, {"type": "node", "id": 7711445053, "lat": 12.6872552, "lon": 74.9869627, "tags": {"name": "Paivalike", "name:kn": "\u0caa\u0cc8\u0cb5\u0cb3\u0cbf\u0c97\u0cc6", "name:ml": "\u0d2a\u0d48\u0d35\u0d46\u0d33\u0d3f\u0d17\u0d46", "place": "village", "wikidata": "Q7125245", "wikimedia_commons": "Category:Paivalike", "wikipedia": "en:Paivalike"}}, {"type": "node", "id": 7711475964, "lat": 12.6536543, "lon": 74.920578, "tags": {"name": "Mangalpady", "name:kn": "\u0cae\u0c82\u0c97\u0cb2\u0ccd\u0caa\u0cbe\u0ca1\u0cbf", "name:ml": "\u0d2e\u0d02\u0d17\u0d7d\u0d2a\u0d3e\u0d1f\u0d3f", "place": "village"}}, {"type": "node", "id": 7711488734, "lat": 12.7159433, "lon": 74.9522495, "tags": {"name": "Meenja", "name:kn": "\u0cae\u0cc0\u0c82\u0c9c", "name:ml": "\u0d2e\u0d40\u0d1e\u0d4d\u0d1a", "place": "village", "wikidata": "Q6807639", "wikipedia": "en:Meenja"}}, {"type": "node", "id": 7711502838, "lat": 12.6620916, "lon": 75.0882697, "tags": {"name": "Enmakaje", "name:kn": "\u0c8e\u0ca8\u0ccd\u0cae\u0c95\u0c9c\u0cc6", "name:ml": "\u0d0e\u0d7b\u0d2e\u0d15\u0d1c\u0d46", "place": "village"}}, {"type": "node", "id": 7711512831, "lat": 12.62364, "lon": 75.0107646, "tags": {"name": "Puthige", "name:kn": "\u0caa\u0cc1\u0ca4\u0ccd\u0ca4\u0cbf\u0c97\u0cc6", "name:ml": "\u0d2a\u0d41\u0d24\u0d4d\u0d24\u0d3f\u0d17\u0d46", "place": "village", "wikidata": "Q27636121", "wikipedia": "en:Puthige, Kasaragod"}}, {"type": "node", "id": 7711555469, "lat": 12.5861461, "lon": 75.1161217, "tags": {"name": "Kumbadaje", "name:ml": "\u0d15\u0d41\u0d2e\u0d4d\u0d2a\u0d21\u0d3e\u0d1c\u0d46", "place": "village"}}, {"type": "node", "id": 7711622037, "lat": 12.553066, "lon": 75.0060439, "tags": {"name": "Madhur", "name:kn": "\u0cae\u0ca7\u0cc1\u0cb0\u0ccd", "name:ml": "\u0d2e\u0d27\u0d42\u0d7c", "place": "village"}}, {"type": "node", "id": 7711624606, "lat": 12.5533906, "lon": 74.9701881, "tags": {"name": "Mogralputhur", "name:ml": "\u0d2e\u0d4a\u0d17\u0d4d\u0d30\u0d3e\u0d7d\u0d2a\u0d41\u0d24\u0d4d\u0d24\u0d42\u0d7c", "place": "village"}}, {"type": "node", "id": 7711695106, "lat": 12.5136345, "lon": 75.1132464, "tags": {"name": "Muliyar", "place": "village", "wikidata": "Q6934027", "wikipedia": "en:Muliyar"}}, {"type": "node", "id": 7711701260, "lat": 12.4606622, "lon": 75.1652491, "tags": {"name": "Bedadka", "name:ml": "\u0d2c\u0d47\u0d1f\u0d21\u0d41\u0d15\u0d4d\u0d15", "place": "village"}}, {"type": "node", "id": 7713756897, "lat": 12.3981542, "lon": 75.1947963, "tags": {"name": "Bellur", "name:ml": "\u0d2c\u0d46\u0d33\u0d4d\u0d33\u0d42\u0d7c", "place": "village"}}, {"type": "node", "id": 7713756898, "lat": 12.4136622, "lon": 75.1908159, "tags": {"name": "Kodom", "place": "village"}}, {"type": "node", "id": 7845891718, "lat": 12.7460284, "lon": 74.8863552, "tags": {"alt_name": "Thuriya Kuncha", "name": "Kunjathur", "name:kn": "\u0c95\u0cc1\u0c82\u0c9c\u0ca4\u0ccd\u0ca4\u0cc2\u0cb0\u0cc1", "name:ml": "\u0d15\u0d41\u0d1e\u0d4d\u0d1a\u0d24\u0d4d\u0d24\u0d42\u0d7c", "place": "village", "wikidata": "Q6444822", "wikipedia": "en:Kunjathur"}}, {"type": "node", "id": 7845892149, "lat": 12.7096039, "lon": 74.9001552, "tags": {"name": "Bangramanjeshwar", "name:kn": "\u0cac\u0c82\u0c97\u0ccd\u0cb0\u0cae\u0c82\u0c9c\u0cc7\u0cb6\u0ccd\u0cb5\u0cb0", "name:ml": "\u0d2c\u0d02\u0d17\u0d4d\u0d30\u0d3e\u0d2e\u0d1e\u0d4d\u0d1a\u0d47\u0d36\u0d4d\u0d35\u0d7c", "place": "village"}}, {"type": "node", "id": 7849750609, "lat": 12.5121413, "lon": 75.0148376, "tags": {"name": "Bedira", "name:ml": "\u0d2c\u0d46\u0d26\u0d3f\u0d30", "place": "village"}}, {"type": "node", "id": 7849750611, "lat": 12.519259, "lon": 74.9939618, "tags": {"name": "Meepuguri", "place": "village"}}, {"type": "node", "id": 7897461634, "lat": 12.3487219, "lon": 75.1214754, "tags": {"name": "Nellithara", "name:ml": "\u0d28\u0d46\u0d32\u0d4d\u0d32\u0d3f\u0d24\u0d4d\u0d24\u0d31", "place": "village"}}, {"type": "node", "id": 8356696748, "lat": 12.4122653, "lon": 75.1443319, "tags": {"name": "Kalliot", "name:ml": "\u0d15\u0d32\u0d4d\u0d32\u0d4d\u0d2f\u0d4b\u0d1f\u0d4d\u0d1f\u0d4d", "place": "village"}}, {"type": "node", "id": 8838270300, "lat": 12.45341, "lon": 75.048062, "tags": {"name": "Thottiyil,Bare", "place": "village"}}, {"type": "node", "id": 9023185684, "lat": 12.4047096, "lon": 75.0574814, "tags": {"name": "Karuvakkode", "name:ml": "\u0d15\u0d30\u0d41\u0d35\u0d15\u0d4d\u0d15\u0d4b\u0d1f\u0d4d", "place": "village"}}, {"type": "node", "id": 9250785312, "lat": 12.4626243, "lon": 75.0882265, "tags": {"name": "Karichery", "name:ml": "\u0d15\u0d30\u0d3f\u0d1a\u0d4d\u0d1a\u0d47\u0d30\u0d3f", "place": "village"}}, {"type": "node", "id": 9517069860, "lat": 12.4088984, "lon": 75.064282, "tags": {"name": "Velutholi", "name:ml": "\u0d35\u0d46\u0d33\u0d41\u0d24\u0d4d\u0d24\u0d4b\u0d33\u0d3f", "place": "village"}}, {"type": "node", "id": 9517069863, "lat": 12.4188806, "lon": 75.0628053, "tags": {"name": "Kunnuchi", "name:ml": "\u0d15\u0d41\u0d28\u0d4d\u0d28\u0d42\u0d1a\u0d4d\u0d1a\u0d3f", "place": "village"}}, {"type": "node", "id": 9530677203, "lat": 12.409954, "lon": 75.0937143, "tags": {"name": "Periya Bazar", "place": "village"}}, {"type": "node", "id": 9530677206, "lat": 12.4296107, "lon": 75.0726334, "tags": {"name": "Periyattadukkam", "name:ml": "\u0d2a\u0d46\u0d30\u0d3f\u0d2f\u0d1f\u0d4d\u0d1f\u0d1f\u0d41\u0d15\u0d4d\u0d15\u0d02", "place": "village"}}, {"type": "node", "id": 9659067548, "lat": 12.6460935, "lon": 75.1093725, "tags": {"name": "Perla", "name:kn": "\u0caa\u0cc6\u0cb0\u0ccd\u0cb2", "name:ml": "\u0d2a\u0d46\u0d7c\u0d33", "place": "village", "wikidata": "Q24906390", "wikipedia": "en:Perla, Kasaragod"}}, {"type": "node", "id": 9659067549, "lat": 12.6304013, "lon": 75.0961581, "tags": {"name": "Ukkinadka", "name:ml": "\u0d09\u0d15\u0d4d\u0d15\u0d3f\u0d28\u0d1f\u0d41\u0d15\u0d4d\u0d15", "place": "village"}}, {"type": "node", "id": 9659067550, "lat": 12.7509267, "lon": 74.9642494, "tags": {"name": "Kodlamogaru", "name:kn": "\u0c95\u0cca\u0ca1\u0ccd\u0cb2\u0cae\u0cca\u0c97\u0cb0\u0cc1", "name:ml": "\u0d15\u0d4a\u0d21\u0d4d\u0d32\u0d2e\u0d4a\u0d17\u0d31\u0d41", "place": "village"}}, {"type": "node", "id": 9659067551, "lat": 12.7516595, "lon": 74.951322, "tags": {"name": "Majarpalla", "name:kn": "\u0cae\u0c9c\u0cb0\u0ccd\u0caa\u0cb2\u0ccd\u0cb2", "name:ml": "\u0d2e\u0d3e\u0d1c\u0d7c\u0d2a\u0d32\u0d4d\u0d32", "place": "village"}}, {"type": "node", "id": 9659067552, "lat": 12.7372416, "lon": 74.9295981, "tags": {"name": "Morathana", "name:kn": "\u0cae\u0cca\u0cb0\u0ca4\u0ccd\u0ca4\u0cbe\u0ca8", "name:ml": "\u0d2e\u0d4b\u0d31\u0d24\u0d4d\u0d24\u0d3e\u0d28", "place": "village"}}, {"type": "node", "id": 9659067553, "lat": 12.589357, "lon": 75.0018394, "tags": {"name": "Seethangoli", "name:kn": "\u0cb8\u0cc0\u0ca4\u0cbe\u0c82\u0c97\u0ccb\u0cb3\u0cbf", "name:ml": "\u0d38\u0d40\u0d24\u0d3e\u0d02\u0d17\u0d4b\u0d33\u0d3f", "place": "village"}}, {"type": "node", "id": 9659067554, "lat": 12.6047718, "lon": 75.0081529, "tags": {"name": "Mugu", "name:kn": "\u0cae\u0cc1\u0c97\u0cc1", "name:ml": "\u0d2e\u0d41\u0d17\u0d41", "place": "village"}}, {"type": "node", "id": 9659067555, "lat": 12.6341693, "lon": 75.0140009, "tags": {"name": "Angadimogar", "name:kn": "\u0c85\u0c82\u0c97\u0ca1\u0cbf\u0cae\u0cca\u0c97\u0cb0\u0cc1", "name:ml": "\u0d05\u0d02\u0d17\u0d21\u0d3f\u0d2e\u0d4a\u0d17\u0d7c", "place": "village"}}, {"type": "node", "id": 9659067556, "lat": 12.6334433, "lon": 75.0190579, "tags": {"name": "Delampady", "name:kn": "\u0ca6\u0cc7\u0cb2\u0c82\u0caa\u0cbe\u0ca1\u0cbf", "name:ml": "\u0d26\u0d47\u0d32\u0d02\u0d2a\u0d3e\u0d1f\u0d3f", "place": "village"}}, {"type": "node", "id": 9659067557, "lat": 12.6596236, "lon": 75.0168799, "tags": {"name": "Permude", "name:kn": "\u0caa\u0cc6\u0cb0\u0ccd\u0cae\u0cc1\u0ca1\u0cc6", "name:ml": "\u0d2a\u0d46\u0d7c\u0d2e\u0d41\u0d21\u0d46", "place": "village"}}, {"type": "node", "id": 9659067558, "lat": 12.6572878, "lon": 75.0133998, "tags": {"name": "Kudalmarkala", "name:ml": "\u0d15\u0d42\u0d1f\u0d7d\u0d2e\u0d7c\u0d15\u0d4d\u0d15\u0d33", "place": "village"}}, {"type": "node", "id": 9659067559, "lat": 12.6756755, "lon": 74.9487641, "tags": {"name": "Kubanoor", "name:ml": "\u0d15\u0d41\u0d2c\u0d28\u0d42\u0d7c", "place": "village", "wikidata": "Q6441175", "wikipedia": "en:Kubanoor"}}, {"type": "node", "id": 9659067560, "lat": 12.6700436, "lon": 74.9357444, "tags": {"name": "Bekoor", "name:kn": "\u0cac\u0cc7\u0c95\u0cc2\u0cb0\u0cc1", "name:ml": "\u0d2c\u0d47\u0d15\u0d4d\u0d15\u0d42\u0d7c", "place": "village", "wikidata": "Q4881660", "wikipedia": "en:Bekoor"}}, {"type": "node", "id": 11609844497, "lat": 12.5932537, "lon": 75.2525074, "tags": {"name": "Panchody", "name:kn": "\u0caa\u0c82\u0c9a\u0ccb\u0ca1\u0cbf", "name:ml": "\u0d2a\u0d1e\u0d4d\u0d1a\u0d4b\u0d1f\u0d3f", "place": "village"}}, {"type": "node", "id": 11609844498, "lat": 12.5743314, "lon": 75.2210684, "tags": {"name": "Galimukha", "name:kn": "\u0c97\u0cbe\u0cb3\u0cbf\u0cae\u0cc1\u0c96", "name:ml": "\u0d17\u0d3e\u0d33\u0d3f\u0d2e\u0d41\u0d16\u0d02", "place": "village"}}, {"type": "node", "id": 11609844499, "lat": 12.5660604, "lon": 75.2100923, "tags": {"name": "Kuntar", "name:kn": "\u0c95\u0cc1\u0c82\u0c9f\u0cbe\u0cb0\u0ccd", "name:ml": "\u0d15\u0d41\u0d23\u0d4d\u0d1f\u0d3e\u0d7c", "place": "village"}}, {"type": "node", "id": 11609844500, "lat": 12.5575291, "lon": 75.1987787, "tags": {"name": "Manhampara", "name:kn": "\u0cae\u0c82\u0c9c\u0c82\u0caa\u0cbe\u0cb0", "name:ml": "\u0d2e\u0d1e\u0d4d\u0d1e\u0d2e\u0d4d\u0d2a\u0d3e\u0d31", "place": "village"}}, {"type": "node", "id": 11609844501, "lat": 12.5547432, "lon": 75.178975, "tags": {"name": "Adhur", "name:kn": "\u0c86\u0ca6\u0cc2\u0cb0\u0cc1", "name:ml": "\u0d06\u0d26\u0d42\u0d7c", "place": "village"}}, {"type": "node", "id": 11669780946, "lat": 12.7777417, "lon": 74.9921731, "tags": {"name": "Bakrabail", "name:kn": "\u0cac\u0cbe\u0c95\u0ccd\u0cb0\u0cac\u0cc8\u0cb2\u0ccd", "name:ml": "\u0d2c\u0d15\u0d4d\u0d30\u0d2c\u0d2f\u0d7d", "place": "village"}}, {"type": "node", "id": 11669780947, "lat": 12.7808464, "lon": 75.0011349, "tags": {"name": "Thalakki", "name:kn": "\u0ca4\u0cb2\u0c95\u0ccd\u0c95\u0cbf", "name:ml": "\u0d24\u0d32\u0d15\u0d4d\u0d15\u0d3f", "place": "village"}}, {"type": "node", "id": 11891029453, "lat": 12.4014224, "lon": 75.2021979, "tags": {"alt_name:ml": "\u0d12\u0d1f\u0d2f\u0d02\u0d1a\u0d3e\u0d7d", "name": "Odayanchal", "name:ml": "\u0d12\u0d1f\u0d2f\u0d1e\u0d4d\u0d1a\u0d3e\u0d7d", "place": "village", "wikidata": "Q16136179"}}, {"type": "way", "id": 799403129, "nodes": [7476375474, 7476375475, 7476375476, 7476375477, 7476375478, 7476375479, 7476375480, 7476375481, 7476375482, 7476375483, 7476375484, 7476375485, 7476375474], "tags": {"place": "village"}}]}