{"version": 0.6, "generator": "Overpass API 0.7.62.1 084b4234", "osm3s": {"timestamp_osm_base": "2024-11-07T07:12:16Z", "copyright": "The data included in this document is from www.openstreetmap.org. The data is made available under ODbL."}, "elements": [{"type": "node", "id": 245586161, "lat": 10.1910284, "lon": 76.3874109, "tags": {"is_in": "Ernakulam;Kerala;KL;India;IN", "is_in:country": "india", "is_in:district": "Ernakulam", "is_in:state": "kerala", "name": "Angamaly", "name:hi": "\u0905\u0902\u0917\u092e\u093e\u0932\u093f", "name:kn": "\u0c85\u0c82\u0c97\u0cae\u0cbe\u0cb2\u0cbf", "name:ml": "\u0d05\u0d19\u0d4d\u0d15\u0d2e\u0d3e\u0d32\u0d3f", "name:ta": "\u0b85\u0b99\u0bcd\u0b95\u0bae\u0bbe\u0bb2\u0bbf", "name:te": "\u0c05\u0c02\u0c17\u0c2e\u0c3e\u0c32\u0c3f", "place": "town", "population": "30000", "postal_code": "683572", "wikidata": "Q530464", "wikipedia": "en:Angamaly"}}, {"type": "node", "id": 343719430, "lat": 10.1147548, "lon": 76.4778152, "tags": {"is_in": "Ernakulam;Kerala;KL;India;IN", "is_in:country": "india", "is_in:district": "Ernakulam", "is_in:state": "kerala", "name": "Perumbavoor", "name:ar": "\u0628\u064a\u0631\u0645\u0628\u0627\u0641\u0648\u0631", "name:hi": "\u092a\u0947\u0930\u0941\u092e\u092c\u093e\u0935\u0942\u0930", "name:kn": "\u0caa\u0cc6\u0cb0\u0c82\u0cac\u0cb5\u0cc2\u0cb0\u0ccd", "name:ml": "\u0d2a\u0d46\u0d30\u0d41\u0d2e\u0d4d\u0d2a\u0d3e\u0d35\u0d42\u0d7c", "name:ru": "\u041f\u0435\u0440\u0443\u043c\u0431\u0430\u0432\u0443\u0440", "name:ta": "\u0baa\u0bc6\u0bb0\u0bc1\u0bae\u0bcd\u0baa\u0bbe\u0bb5\u0bc2\u0bb0\u0bcd", "name:te": "\u0c2a\u0c46\u0c30\u0c41\u0c02\u0c2c\u0c35\u0c42\u0c30\u0c41", "place": "town", "population": "5000", "postal_code": "683500", "wikidata": "Q2737591", "wikimedia_commons": "Category:Perumbavoor", "wikipedia": "en:Perumbavoor"}}, {"type": "node", "id": 1880437827, "lat": 10.100414, "lon": 76.356986, "tags": {"is_in": "Ernakulam;Kerala;KL;India;IN", "is_in:country": "india", "is_in:district": "Ernakulam", "is_in:state": "kerala", "name": "Aluva", "name:ar": "\u0623\u0644\u0648\u0641\u0627", "name:hi": "\u0906\u0932\u0941\u0935\u093e", "name:kn": "\u0c86\u0cb2\u0cc1\u0cb5\u0cbe", "name:ml": "\u0d06\u0d32\u0d41\u0d35\u0d3e", "name:ru": "\u0410\u043b\u0443\u0432\u0430", "name:ta": "\u0b86\u0bb2\u0bc1\u0bb5\u0bbe", "name:te": "\u0c06\u0c32\u0c41\u0c35\u0c3e", "place": "town", "wikidata": "Q588793", "wikipedia": "en:Aluva"}}, {"type": "node", "id": 2013145763, "lat": 10.3041869, "lon": 76.3371037, "tags": {"name": "Chalakudy", "name:hi": "\u091a\u093e\u0932\u093e\u0915\u0941\u0921\u0940", "name:kn": "\u0c9a\u0cbe\u0cb2\u0c95\u0ccd\u0c95\u0cc1\u0ca1\u0cbf", "name:ml": "\u0d1a\u0d3e\u0d32\u0d15\u0d4d\u0d15\u0d41\u0d1f\u0d3f", "name:ta": "\u0b9a\u0bbe\u0bb2\u0b95\u0bcd\u0b95\u0bc1\u0b9f\u0bbf", "name:te": "\u0c1a\u0c3e\u0c32\u0c15\u0c41\u0c21\u0c3f", "place": "town", "wikidata": "Q861830", "wikimedia_commons": "Category:Chalakudy", "wikipedia": "en:Chalakudy"}}, {"type": "node", "id": 2831475996, "lat": 10.4211864, "lon": 76.2703426, "tags": {"name": "Puthukkad", "name:kn": "\u0caa\u0cc1\u0ca4\u0ccd\u0ca4\u0cc1\u0c95\u0ccd\u0c95\u0cbe\u0ca1\u0ccd", "name:ml": "\u0d2a\u0d41\u0d24\u0d41\u0d15\u0d4d\u0d15\u0d3e\u0d1f\u0d4d", "name:ta": "\u0baa\u0bc1\u0ba4\u0bc1\u0b95\u0bcd\u0b95\u0bbe\u0b9f\u0bc1", "place": "town", "wikidata": "Q2568270", "wikimedia_commons": "Category:Puthukkad", "wikipedia": "en:Puthukkad"}}, {"type": "node", "id": 3677952160, "lat": 10.2276837, "lon": 76.1971531, "tags": {"alt_name": "Cranganore", "int_name": "Cranganore", "name": "Kodungallur", "name:ar": "\u0643\u0648\u062f\u0648\u0646\u062c\u0627\u0644\u0648\u0631", "name:he": "\u05e7\u05d5\u05d3\u05d5\u05e0\u05d2\u05d0\u05dc\u05d5\u05e8", "name:hi": "\u0915\u094b\u0921\u0941\u0902\u0917\u0932\u0942\u0930", "name:kn": "\u0c95\u0cca\u0ca1\u0cc1\u0c82\u0c97\u0cb2\u0ccd\u0cb2\u0cc2\u0cb0\u0cc1", "name:ml": "\u0d15\u0d4a\u0d1f\u0d41\u0d19\u0d4d\u0d19\u0d32\u0d4d\u0d32\u0d42\u0d7c", "name:ta": "\u0b95\u0bca\u0b9f\u0bc1\u0b99\u0bcd\u0b95\u0bb2\u0bcd\u0bb2\u0bc2\u0bb0\u0bcd", "name:te": "\u0c15\u0c4a\u0c21\u0c41\u0c02\u0c17\u0c32\u0c4d\u0c32\u0c42\u0c30\u0c4d", "place": "town", "wikidata": "Q1006282", "wikipedia": "en:Kodungallur"}}, {"type": "node", "id": 4307194679, "lat": 10.1406994, "lon": 76.1935753, "tags": {"name": "Cherai", "name:ml": "\u0d1a\u0d46\u0d31\u0d3e\u0d2f\u0d3f", "place": "town", "wikidata": "Q2962705", "wikimedia_commons": "Category:Cherai", "wikipedia": "en:Cherai"}}, {"type": "node", "id": 5234895379, "lat": 10.5213538, "lon": 76.5387798}, {"type": "node", "id": 5234895381, "lat": 10.5215992, "lon": 76.5371913}, {"type": "node", "id": 5234895382, "lat": 10.5216411, "lon": 76.5358462}, {"type": "node", "id": 5234895383, "lat": 10.5218625, "lon": 76.5391145}, {"type": "node", "id": 5234895384, "lat": 10.5231609, "lon": 76.5374347}, {"type": "node", "id": 5234895385, "lat": 10.5235379, "lon": 76.5360532}, {"type": "node", "id": 7137292722, "lat": 10.3454442, "lon": 76.215806, "tags": {"name": "Irinjalakuda", "name:ar": "\u0625\u064a\u0631\u064a\u0646\u062c\u0627\u0644\u0627\u0643\u0648\u062f\u0627", "name:ml": "\u0d07\u0d30\u0d3f\u0d1e\u0d4d\u0d1e\u0d3e\u0d32\u0d15\u0d4d\u0d15\u0d41\u0d1f", "name:ru": "\u0418\u0440\u0438\u043d\u0434\u0436\u0430\u043b\u0430\u043a\u0443\u0434\u0430", "name:ta": "\u0b87\u0bb0\u0bbf\u0b9e\u0bcd\u0b9a\u0bbe\u0bb2\u0b95\u0bcd\u0b95\u0bc1\u0b9f\u0bbe", "name:te": "\u0c07\u0c30\u0c3f\u0c1e\u0c32\u0c15\u0c41\u0c21", "place": "town", "wikidata": "Q1754141", "wikipedia": "en:Irinjalakuda"}}, {"type": "node", "id": 7158788567, "lat": 10.1484083, "lon": 76.2249185, "tags": {"alt_name": "North Paravur", "name": "North Paravur", "name:hi": "\u0928\u094b\u0930\u094d\u0925 \u092a\u0930\u0935\u0942\u0930", "name:kn": "\u0c89\u0ca4\u0ccd\u0ca4\u0cb0 \u0caa\u0cb0\u0cb5\u0cc2\u0cb0\u0cc1", "name:ml": "\u0d35\u0d1f\u0d15\u0d4d\u0d15\u0d7b \u0d2a\u0d31\u0d35\u0d42\u0d30\u0d4d\u200d", "name:ta": "\u0bb5\u0b9f\u0b95\u0bcd\u0b95\u0bc1 \u0baa\u0bb0\u0bb5\u0bc2\u0bb0\u0bcd", "name:te": "\u0c09\u0c24\u0c4d\u0c24\u0c30 \u0c2a\u0c30\u0c35\u0c42\u0c30\u0c41", "place": "town", "wikidata": "Q3595582", "wikipedia": "en:North Paravur"}}, {"type": "node", "id": 7673015521, "lat": 10.1666308, "lon": 76.4390495, "tags": {"name": "Kalady", "name:hi": "\u0915\u093e\u0932\u0921\u0940", "name:kn": "\u0c95\u0cbe\u0cb2\u0ca1\u0cbf", "name:ml": "\u0d15\u0d3e\u0d32\u0d1f\u0d3f", "name:ta": "\u0b95\u0bbe\u0bb2\u0b9f\u0bbf", "name:te": "\u0c15\u0c3e\u0c32\u0c21\u0c3f", "place": "town", "wikidata": "Q3595324", "wikimedia_commons": "Category:Kalady", "wikipedia": "en:Kalady"}}, {"type": "node", "id": 8867166956, "lat": 10.2317086, "lon": 76.2840831, "tags": {"name": "Valiyaparambu", "name:kn": "\u0cb5\u0cb2\u0cbf\u0caf\u0caa\u0cb0\u0c82\u0cac\u0cc1", "name:ml": "\u0d35\u0d32\u0d3f\u0d2f\u0d2a\u0d31\u0d2e\u0d4d\u0d2a\u0d4d", "name:ta": "\u0bb5\u0bb2\u0bbf\u0baf\u0baa\u0bb0\u0bae\u0bcd\u0baa\u0bc1", "place": "town"}}, {"type": "node", "id": 12306462388, "lat": 10.3083476, "lon": 76.3272343, "tags": {"name": "Chalakkudy Municipality", "place": "town", "wikidata": "Q13111918"}}, {"type": "way", "id": 541353648, "nodes": [5234895385, 5234895384, 5234895383, 5234895379, 5234895381, 5234895382, 5234895385], "tags": {"name": "Mangalamdam Town", "place": "town"}}]}