{"version": 0.6, "generator": "Overpass API 0.7.62.1 084b4234", "osm3s": {"timestamp_osm_base": "2024-11-07T07:11:15Z", "copyright": "The data included in this document is from www.openstreetmap.org. The data is made available under ODbL."}, "elements": [{"type": "node", "id": 245584837, "lat": 9.8540061, "lon": 76.9446486, "tags": {"capital": "5", "is_in": "Idukki;Kerala;KL;India;IN", "is_in:country": "india", "is_in:district": "Idukki", "is_in:state": "kerala", "name": "Painavu", "name:hi": "\u092a\u0948\u0928\u093e\u0935", "name:ml": "\u0d2a\u0d48\u0d28\u0d3e\u0d35\u0d4d", "name:ta": "\u0baa\u0bc8\u0ba9\u0bbe\u0bb5\u0bc1", "place": "town", "population": "10000", "postal_code": "685603", "wikidata": "Q1025278", "wikimedia_commons": "Category:Painavu", "wikipedia": "en:Painavu"}}, {"type": "node", "id": 343719149, "lat": 9.996657, "lon": 76.5722769, "tags": {"name": "Vazhappilly", "name:ml": "\u0d35\u0d3e\u0d34\u0d2a\u0d4d\u0d2a\u0d3f\u0d33\u0d4d\u0d33\u0d3f", "place": "town", "wikidata": "Q101581068"}}, {"type": "node", "id": 560839888, "lat": 10.0144274, "lon": 76.9554575, "tags": {"alt_name:en": "Adimaly", "is_in": "Idukki;Kerala;KL;India;IN", "is_in:country": "india", "is_in:district": "Idukki", "is_in:state": "kerala", "name": "Adimali", "name:hi": "\u0905\u0921\u093f\u092e\u093e\u0932\u0940", "name:kn": "\u0c85\u0c9f\u0cbf\u0cae\u0cbe\u0cb2\u0cbf", "name:ml": "\u0d05\u0d1f\u0d3f\u0d2e\u0d3e\u0d32\u0d3f", "name:ta": "\u0b85\u0b9f\u0bbf\u0bae\u0bbe\u0bb2\u0bbf", "place": "town", "source": "GPS", "wikidata": "Q4682857", "wikimedia_commons": "Category:Adimaly", "wikipedia": "en:Adimali"}}, {"type": "node", "id": 594885733, "lat": 9.6879884, "lon": 76.7797651, "tags": {"is_in": "Kottayam;Kerala;KL;India;IN", "is_in:country": "india", "is_in:district": "kottayam", "is_in:state": "Kerala", "name": "Erattupetta", "name:kn": "\u0c88\u0cb0\u0cbe\u0c9f\u0cc1\u0caa\u0cc7\u0c9f\u0cc6", "name:ml": "\u0d08\u0d30\u0d3e\u0d31\u0d4d\u0d31\u0d41\u0d2a\u0d47\u0d1f\u0d4d\u0d1f", "name:ta": "\u0b88\u0bb0\u0bbe\u0b9f\u0bcd\u0b9f\u0bc1\u0baa\u0bc7\u0b9f\u0bcd\u0b9f\u0bc8", "name:te": "\u0c08\u0c30\u0c3e\u0c1f\u0c41\u0c2a\u0c47\u0c1f", "place": "town", "wikidata": "Q2475592", "wikimedia_commons": "Category:Erattupetta", "wikipedia": "en:Erattupetta"}}, {"type": "node", "id": 594886129, "lat": 9.8380574, "lon": 76.7458747, "tags": {"name": "Muttam", "name:ml": "\u0d2e\u0d41\u0d1f\u0d4d\u0d1f\u0d02", "name:ta": "\u0bae\u0bc1\u0b9f\u0bcd\u0b9f\u0bae\u0bcd", "place": "town", "wikidata": "Q4845510", "wikipedia": "en:Muttom, Thodupuzha"}}, {"type": "node", "id": 594937686, "lat": 9.8621862, "lon": 76.5980931, "tags": {"is_in": "Ernakulam;Kerala;KL;India;IN", "is_in:country": "india", "is_in:district": "Ernakulam", "is_in:state": "kerala", "name": "Koothattukulam", "name:kn": "\u0c95\u0cc2\u0ca4\u0ccd\u0ca4\u0cbe\u0c9f\u0ccd\u0c9f\u0cc1\u0c95\u0cc1\u0cb3\u0c82", "name:ml": "\u0d15\u0d42\u0d24\u0d4d\u0d24\u0d3e\u0d1f\u0d4d\u0d1f\u0d41\u0d15\u0d41\u0d33\u0d02", "name:ta": "\u0b95\u0bc2\u0ba4\u0bcd\u0ba4\u0bbe\u0b9f\u0bcd\u0b9f\u0bc1\u0b95\u0bcd\u0b95\u0bc1\u0bb3\u0bae\u0bcd", "place": "town", "wikidata": "Q6430852", "wikipedia": "en:Koothattukulam"}}, {"type": "node", "id": 716863176, "lat": 9.7130742, "lon": 76.6831302, "tags": {"is_in": "Pala;kottayam;Kerala;India", "is_in:country": "india", "is_in:district": "Kottayam", "is_in:state": "kerala", "name": "Pala", "name:en": "Pala", "name:hi": "\u092a\u0932\u093e", "name:kn": "\u0caa\u0cbe\u0cb2\u0cbe", "name:ml": "\u0d2a\u0d3e\u0d32\u0d3e", "name:ta": "\u0baa\u0bbe\u0bb2\u0bbe", "name:te": "\u0c2a\u0c3e\u0c32\u0c3e", "place": "town", "population": "10000", "postal_code": "686575", "wikidata": "Q517699", "wikipedia": "en:Palai"}}, {"type": "node", "id": 874122287, "lat": 9.6846118, "lon": 76.6103734, "tags": {"name": "Kidangoor", "name:en": "Kidangoor", "name:ml": "\u0d15\u0d3f\u0d1f\u0d19\u0d4d\u0d19\u0d42\u0d7c", "name:ta": "\u0b95\u0bbf\u0b9f\u0b99\u0bcd\u0b95\u0bc2\u0bb0\u0bcd", "place": "town", "wikidata": "Q6404592", "wikimedia_commons": "Category:Kidangoor, Kottayam", "wikipedia": "en:Kidangoor, Kottayam"}}, {"type": "node", "id": 1195120425, "lat": 10.0539414, "lon": 76.7742172, "tags": {"is_in": "Ernakulam;Kerala;KL;India;IN", "is_in:country": "india", "is_in:district": "Ernakulam", "is_in:state": "kerala", "name": "Neriamangalam", "name:ml": "\u0d28\u0d47\u0d30\u0d3f\u0d2f\u0d2e\u0d02\u0d17\u0d32\u0d02", "name:ta": "\u0ba8\u0bc7\u0bb0\u0bbf\u0baf\u0bae\u0b99\u0bcd\u0b95\u0bb2\u0bae\u0bcd", "name:te": "\u0c28\u0c46\u0c30\u0c3f\u0c2f\u0c2e\u0c02\u0c17\u0c33\u0c02", "place": "town", "wikidata": "Q6996195", "wikimedia_commons": "Category:Neriamangalam", "wikipedia": "en:Neriamangalam"}}, {"type": "node", "id": 1519553913, "lat": 9.8581974, "lon": 76.9618039, "tags": {"is_in": "Idukki;Kerala;KL;India;IN", "is_in:country": "india", "is_in:district": "Idukki", "is_in:state": "kerala", "name": "Cheruthoni", "name:ml": "\u0d1a\u0d46\u0d31\u0d41\u0d24\u0d4b\u0d23\u0d3f", "name:ta": "\u0b9a\u0bc6\u0bb0\u0bc1\u0ba4\u0bcb\u0ba3\u0bbf", "place": "town", "wikidata": "Q5092631", "wikimedia_commons": "Category:Cheruthoni", "wikipedia": "en:Cheruthoni"}}, {"type": "node", "id": 2280977115, "lat": 9.6737595, "lon": 76.8130292, "tags": {"name": "Poonjar", "name:ml": "\u0d2a\u0d42\u0d1e\u0d4d\u0d1e\u0d3e\u0d7c", "name:ta": "\u0baa\u0bc2\u0b9e\u0bcd\u0b9e\u0bbe\u0bb0\u0bcd", "place": "town", "wikidata": "Q14473625", "wikimedia_commons": "Category:Poonjar", "wikipedia": "en:Poonjar"}}, {"type": "node", "id": 2909519387, "lat": 9.6885988, "lon": 76.9068551, "tags": {"name": "Vagamon", "name:ar": "\u0641\u0627\u063a\u0627\u0645\u0648\u0646", "name:hi": "\u0935\u093e\u0917\u092e\u0923", "name:kn": "\u0cb5\u0cbe\u0c97\u0cae\u0ca8\u0ccd", "name:ml": "\u0d35\u0d3e\u0d17\u0d2e\u0d7a", "name:ta": "\u0bb5\u0bbe\u0b95\u0bae\u0ba9\u0bcd", "name:te": "\u0c35\u0c3e\u0c17\u0c2e\u0c28", "place": "town", "wikidata": "Q7908452", "wikimedia_commons": "Category:Vagamon", "wikipedia": "en:Vagamon"}}, {"type": "node", "id": 3713178191, "lat": 10.0640341, "lon": 76.6218187, "tags": {"name": "Kothamangalam", "name:hi": "\u0915\u094b\u0924\u092e\u0902\u0917\u0932\u092e", "name:ml": "\u0d15\u0d4b\u0d24\u0d2e\u0d02\u0d17\u0d32\u0d02", "name:ta": "\u0b95\u0bcb\u0ba4\u0bae\u0b99\u0bcd\u0b95\u0bb2\u0bae\u0bcd", "name:te": "\u0c15\u0c4b\u0c1f\u0c2e\u0c02\u0c17\u0c33\u0c02", "place": "town", "wikidata": "Q2244227", "wikipedia": "en:Kothamangalam"}}, {"type": "node", "id": 4568072460, "lat": 9.8976798, "lon": 76.7134225, "tags": {"name": "Thodupuzha", "name:ar": "\u062b\u0648\u062f\u0648\u0628\u0648\u0632\u0627", "name:hi": "\u0924\u094b\u0921\u0941\u092a\u0941\u091c\u093c\u093e", "name:kn": "\u0ca4\u0cca\u0ca1\u0cc1\u0caa\u0cc1\u0cb3", "name:ml": "\u0d24\u0d4a\u0d1f\u0d41\u0d2a\u0d41\u0d34", "name:ru": "\u0422\u043e\u0434\u0443\u043f\u0443\u0436\u0430", "name:ta": "\u0ba4\u0bca\u0b9f\u0bc1\u0baa\u0bc1\u0bb4\u0bc8", "name:te": "\u0c24\u0c4a\u0c21\u0c41\u0c2a\u0c41\u0c1c", "place": "town", "wikidata": "Q2568281", "wikimedia_commons": "Category:Thodupuzha", "wikipedia": "en:Thodupuzha"}}, {"type": "node", "id": 11420167605, "lat": 9.9904133, "lon": 76.5780378, "tags": {"name": "Velloorkunnam", "name:ml": "\u0d35\u0d46\u0d33\u0d4d\u0d33\u0d42\u0d7c\u0d15\u0d41\u0d28\u0d4d\u0d28\u0d02", "place": "town", "wikidata": "Q7919202", "wikipedia": "en:Velloorkunnam"}}]}