{"version": 0.6, "generator": "Overpass API 0.7.62.1 084b4234", "osm3s": {"timestamp_osm_base": "2024-11-07T07:13:19Z", "copyright": "The data included in this document is from www.openstreetmap.org. The data is made available under ODbL."}, "elements": [{"type": "node", "id": 245594831, "lat": 11.5438458, "lon": 76.4403012, "tags": {"name": "Devarshola", "name:ml": "\u0d26\u0d47\u0d35\u0d7c\u0d36\u0d4b\u0d32", "name:ta": "\u0ba4\u0bc7\u0bb5\u0bb0\u0bcd\u0b9a\u0bcb\u0bb2\u0bc8", "place": "village", "postal_code": "643207", "wikidata": "Q1260500", "wikipedia": "en:Devarshola"}}, {"type": "node", "id": 287835454, "lat": 11.4665615, "lon": 76.5624131, "tags": {"name": "T R Bazaar", "place": "village"}}, {"type": "node", "id": 402240869, "lat": 11.4707071, "lon": 76.4111847, "tags": {"name": "Nadugani", "name:ml": "\u0d28\u0d3e\u0d1f\u0d41\u0d15\u0d3e\u0d23\u0d3f", "name:ta": "\u0ba8\u0bbe\u0b9f\u0bc1\u0b95\u0bbe\u0ba3\u0bbf", "place": "village"}}, {"type": "node", "id": 402861814, "lat": 11.4735609, "lon": 76.3800341, "tags": {"name": "Devala", "name:ml": "\u0d26\u0d47\u0d35\u0d3e\u0d32", "name:ta": "\u0ba4\u0bc7\u0bb5\u0bbe\u0bb2", "place": "village"}}, {"type": "node", "id": 418783647, "lat": 11.5548347, "lon": 76.2226984, "tags": {"name": "Vaduvanchal", "name:ml": "\u0d35\u0d1f\u0d41\u0d35\u0d1e\u0d4d\u0d1a\u0d3e\u0d7d", "place": "village", "wikidata": "Q7908369", "wikipedia": "en:Vaduvanchal"}}, {"type": "node", "id": 983212579, "lat": 11.5012255, "lon": 76.4932046, "tags": {"name": "Thorapally", "place": "village"}}, {"type": "node", "id": 1664468107, "lat": 11.4798876, "lon": 76.5443764, "tags": {"name": "Naduvattam", "name:ml": "\u0d28\u0d1f\u0d41\u0d35\u0d1f\u0d4d\u0d1f\u0d02", "name:ta": "\u0ba8\u0b9f\u0bc1\u0bb5\u0b9f\u0bcd\u0b9f\u0bae\u0bcd", "place": "village"}}, {"type": "node", "id": 1834741293, "lat": 11.5173855, "lon": 76.5249322, "tags": {"name": "Chembakolli", "name:ml": "\u0d1a\u0d46\u0d2e\u0d4d\u0d2a\u0d15\u0d4d\u0d15\u0d4a\u0d32\u0d4d\u0d32\u0d3f", "name:ta": "\u0b9a\u0bc6\u0bae\u0bcd\u0baa\u0b95\u0bca\u0bb2\u0bcd\u0bb2\u0bbf", "place": "village", "source": "Guess from description;bing"}}, {"type": "node", "id": 1888242671, "lat": 11.5332079, "lon": 76.3624374, "tags": {"name": "Nelliyalam", "name:kn": "\u0ca8\u0cc6\u0cb2\u0ccd\u0cb2\u0cbf\u0caf\u0cb3\u0c82", "name:ml": "\u0d28\u0d46\u0d32\u0d4d\u0d32\u0d3f\u0d2f\u0d3e\u0d33\u0d02", "name:ta": "\u0ba8\u0bc6\u0bb2\u0bcd\u0bb2\u0bbf\u0baf\u0bbe\u0bb3\u0bae\u0bcd", "place": "village"}}, {"type": "node", "id": 2329757020, "lat": 11.6594656, "lon": 76.1668396, "tags": {"name": "Meenangadi", "name:ml": "\u0d2e\u0d40\u0d28\u0d19\u0d4d\u0d19\u0d3e\u0d1f\u0d3f", "place": "village"}}, {"type": "node", "id": 3177030978, "lat": 11.7932652, "lon": 76.1643871, "tags": {"name": "Pulpally", "name:ml": "\u0d2a\u0d41\u0d32\u0d4d\u200d\u0d2a\u0d4d\u0d2a\u0d33\u0d4d\u0d33\u0d3f", "place": "village", "wikidata": "Q7259587", "wikipedia": "en:Pulpally"}}, {"type": "node", "id": 3842228213, "lat": 11.4996879, "lon": 76.1601459, "tags": {"name": "Chooralmala", "name:ml": "\u0d1a\u0d42\u0d30\u0d32\u0d4d\u200d\u0d2e\u0d32", "place": "village"}}, {"type": "node", "id": 3842282052, "lat": 11.516657, "lon": 76.2670961, "tags": {"name": "Cherambadi", "name:ml": "\u0d1a\u0d47\u0d30\u0d2e\u0d4d\u0d2a\u0d3e\u0d1f\u0d3f", "name:ta": "\u0b9a\u0bc7\u0bb0\u0bae\u0bcd\u0baa\u0bbe\u0b9f\u0bbf", "place": "village"}}, {"type": "node", "id": 3842282053, "lat": 11.5454831, "lon": 76.17896, "tags": {"name": "Nedumkarana", "name:ml": "\u0d28\u0d46\u0d1f\u0d41\u0d19\u0d4d\u0d15\u0d30\u0d23", "place": "village"}}, {"type": "node", "id": 3842282055, "lat": 11.539575, "lon": 76.1617777, "tags": {"name": "Thinapuram", "place": "village"}}, {"type": "node", "id": 3903463417, "lat": 11.6192026, "lon": 76.2120176, "tags": {"name": "Ambalavayal", "name:ml": "\u0d05\u0d2e\u0d4d\u0d2a\u0d32\u0d35\u0d2f\u0d7d", "place": "village", "wikidata": "Q4740996"}}, {"type": "node", "id": 3912949958, "lat": 11.6714546, "lon": 76.3619141, "tags": {"name": "Muthanga", "name:ml": "\u0d2e\u0d41\u0d24\u0d4d\u0d24\u0d19\u0d4d\u0d19", "place": "village"}}, {"type": "node", "id": 4618674486, "lat": 11.8396351, "lon": 76.1789133, "tags": {"name": "Padichira", "name:ml": "\u0d2a\u0d3e\u0d1f\u0d3f\u0d1a\u0d4d\u0d1a\u0d3f\u0d31", "place": "village", "wikidata": "Q7123740"}}, {"type": "node", "id": 6726502612, "lat": 11.7231089, "lon": 76.1524023, "tags": {"name": "Kenichira", "name:ml": "\u0d15\u0d47\u0d23\u0d3f\u0d1a\u0d4d\u0d1a\u0d3f\u0d31", "place": "village"}}, {"type": "node", "id": 6734865994, "lat": 11.6346364, "lon": 76.2773232, "tags": {"name": "Koliyadi", "name:ml": "\u0d15\u0d4b\u0d33\u0d3f\u0d2f\u0d3e\u0d1f\u0d3f", "place": "village"}}, {"type": "node", "id": 6734877112, "lat": 11.5849175, "lon": 76.2542857, "tags": {"name": "Thaloor", "name:ml": "\u0d24\u0d3e\u0d33\u0d42\u0d7c", "name:ta": "\u0ba4\u0bbe\u0bb3\u0bc2\u0bb0\u0bcd", "place": "village"}}, {"type": "node", "id": 7128096624, "lat": 11.5390037, "lon": 76.1682829, "tags": {"name": "Rippon", "name:ml": "\u0d31\u0d3f\u0d2a\u0d4d\u0d2a\u0d7a", "place": "village"}}, {"type": "node", "id": 7342851063, "lat": 11.6834216, "lon": 76.3357329, "tags": {"name": "Kallumukku", "place": "village"}}, {"type": "node", "id": 7472817639, "lat": 11.8589476, "lon": 76.1818007, "tags": {"name": "Kabanigiri", "name:ml": "\u0d15\u0d2c\u0d28\u0d3f\u0d17\u0d3f\u0d30\u0d3f", "place": "village"}}, {"type": "node", "id": 7509778207, "lat": 11.6359693, "lon": 76.3069043, "tags": {"addr:street": "Gudalur-Sultan Bathery Rd", "name": "Nambikolly", "name:ml": "\u0d28\u0d2e\u0d4d\u0d2a\u0d3f\u0d15\u0d4d\u0d15\u0d4a\u0d32\u0d4d\u0d32\u0d3f", "place": "village"}}, {"type": "node", "id": 7515334890, "lat": 11.7190383, "lon": 76.1892296, "tags": {"name": "Paplassery", "name:ml": "\u0d2a\u0d3e\u0d2a\u0d4d\u0d32\u0d36\u0d47\u0d30\u0d3f", "place": "village"}}, {"type": "node", "id": 9188000201, "lat": 11.8181142, "lon": 76.21616, "tags": {"name": "Mavilamthodu", "name:ml": "\u0d2e\u0d3e\u0d35\u0d3f\u0d32\u0d3e\u0d02\u0d24\u0d4b\u0d1f\u0d4d", "place": "village"}}, {"type": "node", "id": 9188016663, "lat": 11.8029156, "lon": 76.2059502, "tags": {"name": "Kappiset", "place": "village"}}, {"type": "node", "id": 9389817360, "lat": 11.5658556, "lon": 76.2339013, "tags": {"name": "Kottoor", "name:ml": "\u0d15\u0d4b\u0d1f\u0d4d\u0d1f\u0d42\u0d7c", "place": "village"}}, {"type": "node", "id": 9511160918, "lat": 11.486475, "lon": 76.1557245, "tags": {"name": "Mundakai", "name:ml": "\u0d2e\u0d41\u0d23\u0d4d\u0d1f\u0d15\u0d4d\u0d15\u0d48", "place": "village"}}, {"type": "node", "id": 9512700919, "lat": 11.6998691, "lon": 76.1848694, "tags": {"name": "Moonanakuzhy", "name:ml": "\u0d2e\u0d42\u0d28\u0d4d\u0d28\u0d3e\u0d28\u0d15\u0d4d\u0d15\u0d41\u0d34\u0d3f", "place": "village"}}, {"type": "node", "id": 9852371644, "lat": 11.568791, "lon": 76.2588715, "tags": {"name": "Erumad", "name:ml": "\u0d0e\u0d30\u0d41\u0d2e\u0d3e\u0d1f\u0d4d", "name:ta": "\u0b8e\u0bb0\u0bc1\u0bae\u0bbe\u0b9f\u0bc1", "place": "village"}}, {"type": "node", "id": 10742013147, "lat": 11.5335341, "lon": 76.5245593, "tags": {"name": "Thorapalli", "name:kn": "\u0ca4\u0ccb\u0cb0\u0caa\u0cb2\u0ccd\u0cb2\u0cbf", "place": "village"}}, {"type": "node", "id": 11375760580, "lat": 11.5515344, "lon": 76.2475049, "tags": {"name": "Manalvayal", "name:ml": "\u0d2e\u0d23\u0d7d\u0d35\u0d2f\u0d7d", "name:ta": "\u0bae\u0ba3\u0bb2\u0bcd\u0bb5\u0baf\u0bb2\u0bcd", "place": "village"}}, {"type": "node", "id": 11375760581, "lat": 11.5288874, "lon": 76.2535162, "tags": {"name": "Mannathivayal", "name:ml": "\u0d2e\u0d23\u0d4d\u0d23\u0d3e\u0d24\u0d4d\u0d24\u0d3f\u0d35\u0d2f\u0d7d", "name:ta": "\u0bae\u0ba3\u0bcd\u0ba3\u0bbe\u0ba4\u0bcd\u0ba4\u0bbf\u0bb5\u0baf\u0bb2\u0bcd", "place": "village"}}, {"type": "node", "id": 11375760582, "lat": 11.5385338, "lon": 76.2640924, "tags": {"name": "Kayyunni", "name:ml": "\u0d15\u0d48\u0d2f\u0d4d\u0d2f\u0d41\u0d23\u0d4d\u0d23\u0d3f", "name:ta": "\u0b95\u0bc8\u0baf\u0bc1\u0ba9\u0bcd\u0ba9\u0bbf", "place": "village"}}, {"type": "node", "id": 11375760583, "lat": 11.5766514, "lon": 76.3627875, "tags": {"name": "Pattavayal", "name:ml": "\u0d2a\u0d3e\u0d1f\u0d4d\u0d1f\u0d35\u0d2f\u0d7d", "name:ta": "\u0baa\u0bbe\u0b9f\u0bcd\u0b9f\u0bb5\u0baf\u0bb2\u0bcd", "place": "village"}}, {"type": "node", "id": 11375760584, "lat": 11.6080915, "lon": 76.3136674, "tags": {"name": "Cheeral", "name:ml": "\u0d1a\u0d40\u0d30\u0d3e\u0d7d", "name:ta": "\u0b9a\u0bc0\u0bb0\u0bbe\u0bb2\u0bcd", "place": "village", "wikidata": "Q5089334", "wikipedia": "en:Cheeral, Bathery"}}, {"type": "node", "id": 11375760585, "lat": 11.5852241, "lon": 76.3212359, "tags": {"name": "Nambiarkunnu", "name:ml": "\u0d28\u0d2e\u0d4d\u0d2a\u0d4d\u0d2f\u0d3e\u0d7c\u0d15\u0d41\u0d28\u0d4d\u0d28\u0d4d", "name:ta": "\u0ba8\u0bae\u0bcd\u0baa\u0bbf\u0baf\u0bbe\u0bb0\u0bcd\u0b95\u0bc1\u0ba9\u0bcd\u0ba9\u0bc1", "place": "village"}}, {"type": "node", "id": 11375760586, "lat": 11.5777156, "lon": 76.3239546, "tags": {"name": "Ambalamoola", "name:ml": "\u0d05\u0d2e\u0d4d\u0d2a\u0d32\u0d2e\u0d42\u0d32", "name:ta": "\u0b85\u0bae\u0bcd\u0baa\u0bb2\u0bae\u0bc2\u0bb2\u0bbe", "place": "village"}}, {"type": "node", "id": 11375760587, "lat": 11.5564238, "lon": 76.3104227, "tags": {"name": "Ayyankolly", "name:ml": "\u0d05\u0d2f\u0d4d\u0d2f\u0d7b\u0d15\u0d4a\u0d32\u0d4d\u0d32\u0d3f", "name:ta": "\u0b85\u0baf\u0bcd\u0baf\u0ba9\u0bcd\u0b95\u0bca\u0bb2\u0bcd\u0bb2\u0bbf", "place": "village"}}, {"type": "node", "id": 11808991815, "lat": 11.5139163, "lon": 76.3553601, "tags": {"name": "Uppatti", "name:ml": "\u0d09\u0d2a\u0d4d\u0d2a\u0d1f\u0d4d\u0d1f\u0d3f", "name:ta": "\u0b89\u0baa\u0bcd\u0baa\u0b9f\u0bcd\u0b9f\u0bbf", "place": "village"}}, {"type": "node", "id": 11808991816, "lat": 11.5128291, "lon": 76.3102428, "tags": {"name": "Cherangode", "name:ml": "\u0d1a\u0d47\u0d30\u0d19\u0d4d\u0d15\u0d4b\u0d1f\u0d4d", "name:ta": "\u0b9a\u0bc7\u0bb0\u0b99\u0bcd\u0b95\u0bcb\u0b9f\u0bc1", "place": "village"}}, {"type": "node", "id": 11808991817, "lat": 11.5256889, "lon": 76.3287758, "tags": {"name": "Kolapalli", "name:ml": "\u0d15\u0d4a\u0d33\u0d2a\u0d4d\u0d2a\u0d33\u0d4d\u0d33\u0d3f", "name:ta": "\u0b95\u0bca\u0bb3\u0baa\u0bcd\u0baa\u0bb3\u0bcd\u0bb3\u0bbf", "place": "village"}}, {"type": "node", "id": 11808991818, "lat": 11.5449527, "lon": 76.2941554, "tags": {"name": "Karakolly", "name:ml": "\u0d15\u0d3e\u0d30\u0d15\u0d4d\u0d15\u0d4a\u0d32\u0d4d\u0d32\u0d3f", "name:ta": "\u0b95\u0bbe\u0bb0\u0b95\u0bcd\u0b95\u0bca\u0bb2\u0bcd\u0bb2\u0bbf", "place": "village"}}, {"type": "node", "id": 11808991819, "lat": 11.5387288, "lon": 76.26872, "tags": {"name": "Pothukolly", "name:ml": "\u0d2a\u0d4a\u0d24\u0d41\u0d15\u0d4a\u0d32\u0d4d\u0d32\u0d3f", "name:ta": "\u0baa\u0bca\u0ba4\u0bc1\u0b95\u0bca\u0bb2\u0bcd\u0bb2\u0bbf", "place": "village"}}, {"type": "node", "id": 11808991820, "lat": 11.6012586, "lon": 76.2551187, "tags": {"name": "Chulliyode", "name:ml": "\u0d1a\u0d41\u0d33\u0d4d\u0d33\u0d3f\u0d2f\u0d4b\u0d1f\u0d4d", "place": "village"}}, {"type": "node", "id": 11808991821, "lat": 11.619314, "lon": 76.2749174, "tags": {"name": "Madakkara", "name:ml": "\u0d2e\u0d3e\u0d1f\u0d15\u0d4d\u0d15\u0d30", "place": "village"}}, {"type": "node", "id": 11808991822, "lat": 11.6294935, "lon": 76.3104519, "tags": {"name": "Pazhoor", "name:ml": "\u0d2a\u0d3e\u0d34\u0d42\u0d7c", "place": "village"}}, {"type": "node", "id": 11808991823, "lat": 11.5656239, "lon": 76.3779776, "tags": {"name": "Bitherkad", "name:ml": "\u0d2c\u0d3f\u0d24\u0d4d\u0d24\u0d47\u0d7c\u0d15\u0d3e\u0d1f\u0d4d", "name:ta": "\u0baa\u0bbf\u0ba4\u0bcd\u0ba4\u0bc7\u0bb0\u0bcd\u0b95\u0bbe\u0b9f\u0bc1", "place": "village"}}]}