{"version": 0.6, "generator": "Overpass API 0.7.62.1 084b4234", "osm3s": {"timestamp_osm_base": "2024-11-07T07:12:16Z", "copyright": "The data included in this document is from www.openstreetmap.org. The data is made available under ODbL."}, "elements": [{"type": "node", "id": 290181532, "lat": 11.7021978, "lon": 75.5364701, "tags": {"capital": "5", "name": "Mah\u00e9", "name:de": "Mah\u00e9", "name:en": "Mahe", "name:es": "Mah\u00e9", "name:fr": "Mah\u00e9", "name:hi": "\u092e\u093e\u0939\u0940", "name:ja": "\u30de\u30fc\u30d8", "name:kn": "\u0cae\u0cbe\u0cb9\u0cc6", "name:ml": "\u0d2e\u0d2f\u0d4d\u0d2f\u0d34\u0d3f", "name:pa": "\u0a2e\u0a3e\u0a39\u0a47", "name:ru": "\u041c\u0430\u044d", "name:ta": "\u0bae\u0bbe\u0b95\u0bc7", "name:te": "\u0c2e\u0c3e\u200c\u0c39\u0c46", "name:ur": "\u0645\u0627\u06c1\u06d2", "place": "town", "population": "41816", "postal_code": "673310", "wikidata": "Q277480"}}, {"type": "node", "id": 304001654, "lat": 11.5985451, "lon": 75.5897432, "tags": {"name": "Vadakara", "name:fr": "Bargaret", "name:hi": "\u0935\u091f\u0915\u0930\u093e", "name:ja": "\u30d0\u30c0\u30ac\u30e9", "name:kn": "\u0cb5\u0ca1\u0c95\u0cb0", "name:ml": "\u0d35\u0d1f\u0d15\u0d30", "name:ta": "\u0bb5\u0b9f\u0b95\u0bb0\u0bc8", "name:te": "\u0c35\u0c21\u0c15\u0c30", "old_name": "Badagara", "place": "town", "postal_code": "670109", "wikidata": "Q2283340", "wikipedia": "en:Vatakara"}}, {"type": "node", "id": 304002887, "lat": 11.7490639, "lon": 75.4931578, "tags": {"name": "Thalassery", "name:ar": "\u062a\u0644\u0627\u0634\u064a\u0631\u064a", "name:hi": "\u0925\u093e\u0932\u093e\u0938\u094d\u200d\u0938\u0947\u0930\u0940", "name:kn": "\u0ca4\u0cb2\u0cb6\u0ccd\u0cb6\u0cc7\u0cb0\u0cbf", "name:ml": "\u0d24\u0d32\u0d36\u0d4d\u0d36\u0d47\u0d30\u0d3f", "name:ta": "\u0ba4\u0bb2\u0b9a\u0bcd\u0b9a\u0bc7\u0bb0\u0bbf", "name:te": "\u0c24\u0c32\u0c38\u0c4d\u0c38\u0c47\u0c30\u0c3f", "place": "town", "population": "92558", "postal_code": "670100", "source:population": "ORGI 2011", "wikidata": "Q367354"}}, {"type": "node", "id": 1681370321, "lat": 11.8330744, "lon": 75.4551155, "tags": {"name": "Kadachira", "name:ml": "\u0d15\u0d3e\u0d1f\u0d3e\u0d1a\u0d4d\u0d1a\u0d3f\u0d31", "place": "town", "wikidata": "Q967094", "wikipedia": "en:Kadachira"}}, {"type": "node", "id": 3764913017, "lat": 11.8297882, "lon": 75.5653126, "tags": {"ele": "76", "is_in:iso_3166_2": "IN-KL", "name": "Koothuparamba", "name:en": "Koothuparamba", "name:kn": "\u0c95\u0cc2\u0ca4\u0cc1\u0caa\u0cb0\u0c82\u0cac", "name:ml": "\u0d15\u0d42\u0d24\u0d4d\u0d24\u0d41\u0d2a\u0d31\u0d2e\u0d4d\u0d2a\u0d4d", "name:ta": "\u0b95\u0bc2\u0ba4\u0bcd\u0ba4\u0bc1\u0baa\u0bcd\u0baa\u0bb1\u0bae\u0bcd\u0baa\u0bc1", "name:te": "\u0c15\u0c42\u0c24\u0c41\u0c2a\u0c30\u0c02\u0c2c", "place": "town", "population": "29619", "source:population": "ORGI 2011", "wikidata": "Q2240998", "wikipedia": "en:Kuthuparamba"}}, {"type": "node", "id": 3802231905, "lat": 11.7139993, "lon": 75.5871968, "tags": {"name": "Peringatoor", "name:ml": "\u0d2a\u0d46\u0d30\u0d3f\u0d19\u0d4d\u0d19\u0d24\u0d4d\u0d24\u0d42\u0d7c", "name:ta": "\u0baa\u0bc6\u0bb0\u0bbf\u0b99\u0bcd\u0b95\u0ba4\u0bcd\u0ba4\u0bc2\u0bb0\u0bcd", "place": "town", "wikidata": "Q2722334"}}, {"type": "node", "id": 3876855992, "lat": 11.7598284, "lon": 75.5777634, "tags": {"name": "Panoor", "name:kn": "\u0caa\u0ca8\u0cc2\u0cb0\u0ccd", "name:ml": "\u0d2a\u0d3e\u0d28\u0d42\u0d7c", "name:ta": "\u0baa\u0bbe\u0ba9\u0bc2\u0bb0\u0bcd", "place": "town", "wikidata": "Q2568336", "wikipedia": "en:Panoor"}}, {"type": "node", "id": 7523056681, "lat": 11.7261966, "lon": 75.5572066, "tags": {"name": "Chokli", "name:ml": "\u0d1a\u0d4a\u0d15\u0d4d\u0d32\u0d3f", "place": "town"}}, {"type": "node", "id": 7725141218, "lat": 11.6851867, "lon": 75.654366, "tags": {"name": "Nadapuram", "name:kn": "\u0ca8\u0cbe\u0ca6\u0caa\u0cc1\u0cb0\u0c82", "name:ml": "\u0d28\u0d3e\u0d26\u0d3e\u0d2a\u0d41\u0d30\u0d02", "name:ta": "\u0ba8\u0bbe\u0ba4\u0bbe\u0baa\u0bc1\u0bb0\u0bae\u0bcd", "place": "town", "wikidata": "Q6957451", "wikipedia": "en:Nadapuram"}}, {"type": "node", "id": 10208970079, "lat": 11.6530927, "lon": 75.601981, "tags": {"name": "Orkkatteri", "name:kn": "\u0c93\u0cb0\u0ccd\u0c95\u0c9f\u0ccd\u0c9f\u0cc7\u0cb0\u0cbf", "name:ml": "\u0d13\u0d30\u0d4d\u200d\u0d15\u0d4d\u0d15\u0d3e\u0d1f\u0d4d\u0d1f\u0d47\u0d30\u0d3f", "place": "town", "wikidata": "Q267069", "wikipedia": "en:Orkkatteri"}}, {"type": "node", "id": 12031046430, "lat": 11.643421, "lon": 75.6379404, "tags": {"name": "Kalleri", "place": "town"}}]}