{"version": 0.6, "generator": "Overpass API 0.7.62.1 084b4234", "osm3s": {"timestamp_osm_base": "2024-11-07T07:12:16Z", "copyright": "The data included in this document is from www.openstreetmap.org. The data is made available under ODbL."}, "elements": [{"type": "node", "id": 245587412, "lat": 10.7688036, "lon": 76.3816633, "tags": {"source": "AND"}}, {"type": "node", "id": 245587446, "lat": 10.76696, "lon": 76.37241, "tags": {"source": "AND"}}, {"type": "node", "id": 245587471, "lat": 10.7703, "lon": 76.3885, "tags": {"source": "AND"}}, {"type": "node", "id": 245587474, "lat": 10.7707, "lon": 76.3735, "tags": {"source": "AND"}}, {"type": "node", "id": 245587501, "lat": 10.7735, "lon": 76.3726, "tags": {"source": "AND"}}, {"type": "node", "id": 245587526, "lat": 10.777, "lon": 76.3892, "tags": {"source": "AND"}}, {"type": "node", "id": 245587538, "lat": 10.77844, "lon": 76.37711, "tags": {"source": "AND"}}, {"type": "node", "id": 245587573, "lat": 10.7822, "lon": 76.3738, "tags": {"source": "AND"}}, {"type": "node", "id": 245587586, "lat": 10.7845, "lon": 76.3809, "tags": {"source": "AND"}}, {"type": "node", "id": 245587593, "lat": 10.78577, "lon": 76.38774, "tags": {"source": "AND"}}, {"type": "node", "id": 344436927, "lat": 10.6575278, "lon": 76.248113, "tags": {"name": "Wadakkancherry", "name:hi": "\u0935\u0921\u0915\u094d\u0915\u093e\u0928\u094d\u091a\u0947\u0930\u0940", "name:kn": "\u0cb5\u0ca1\u0c95\u0ccd\u0c95\u0c82\u0c9a\u0cc7\u0cb0\u0cbf", "name:ml": "\u0d35\u0d1f\u0d15\u0d4d\u0d15\u0d3e\u0d1e\u0d4d\u0d1a\u0d47\u0d30\u0d3f", "name:ta": "\u0bb5\u0b9f\u0b95\u0bcd\u0b95\u0b9e\u0bcd\u0b9a\u0bc7\u0bb0\u0bbf", "name:te": "\u0c35\u0c21\u0c15\u0c4d\u0c15\u0c28\u0c4d\u0c1a\u0c47\u0c30\u0c3f", "place": "town", "wikidata": "Q7958935", "wikipedia": "en:Wadakkancherry"}}, {"type": "node", "id": 355845180, "lat": 10.9756774, "lon": 76.2262573, "tags": {"name": "Perinthalmanna", "name:ar": "\u0628\u064a\u0631\u0646\u062a\u0627\u0644\u0645\u0627\u0646\u0627", "name:en": "Perinthalmanna", "name:hi": "\u092a\u0947\u0930\u093f\u0902\u0924\u0932\u092e\u0928\u094d\u0928\u093e", "name:kn": "\u0caa\u0cc6\u0cb0\u0cbf\u0c82\u0ca4\u0cb2\u0ccd\u0cae\u0ca8\u0ccd\u0ca8\u0cbe", "name:ml": "\u0d2a\u0d46\u0d30\u0d3f\u0d28\u0d4d\u0d24\u0d32\u0d4d\u200d\u0d2e\u0d23\u0d4d\u0d23", "name:ta": "\u0baa\u0bc6\u0bb0\u0bbf\u0ba8\u0bcd\u0ba4\u0bb2\u0bcd\u0bae\u0ba3\u0bcd\u0ba3\u0bc8", "name:te": "\u0c2a\u0c46\u0c30\u0c3f\u0c02\u0c24\u0c32\u0c4d\u0c2e\u0c28\u0c4d\u0c28", "place": "town", "population": "44613", "postal_code": "679322", "wikidata": "Q720812", "wikipedia": "en:Perintalmanna"}}, {"type": "node", "id": 560536216, "lat": 10.9928999, "lon": 76.45686, "tags": {"AND_a_nosr_p": "10006773", "name": "Mannarkkad", "name:kn": "\u0cae\u0ca8\u0ccd\u0ca8\u0cbe\u0cb0\u0ccd\u0c95\u0ccd\u0c95\u0cbe\u0ca1\u0ccd", "name:ml": "\u0d2e\u0d23\u0d4d\u0d23\u0d3e\u0d30\u0d4d\u200d\u0d15\u0d4d\u0d15\u0d3e\u0d1f\u0d4d", "name:ta": "\u0bae\u0ba3\u0bcd\u0ba3\u0bbe\u0bb0\u0bcd\u0b95\u0bcd\u0b95\u0bbe\u0b9f\u0bc1", "place": "town", "population": "5000", "postal_code": "678582", "wikidata": "Q6750774", "wikipedia": "en:Mannarkkad"}}, {"type": "node", "id": 616276723, "lat": 10.8048616, "lon": 76.1780161, "tags": {"ele": "63", "name": "Pattambi", "name:en": "Pattambi", "name:hi": "\u092a\u091f\u094d\u091f\u093e\u092e\u094d\u092c\u093f", "name:kn": "\u0caa\u0c9f\u0ccd\u0c9f\u0cbe\u0c82\u0cac\u0cbf", "name:ml": "\u0d2a\u0d1f\u0d4d\u0d1f\u0d3e\u0d2e\u0d4d\u0d2a\u0d3f", "name:ta": "\u0baa\u0b9f\u0bcd\u0b9f\u0bbe\u0bae\u0bcd\u0baa\u0bbf", "name:te": "\u0c2a\u0c1f\u0c4d\u0c1f\u0c3e\u0c02\u0c2c\u0c3f", "place": "town", "population": "29000", "postal_code": "679303", "wikidata": "Q3370142", "wikipedia": "en:Pattambi"}}, {"type": "node", "id": 616276741, "lat": 10.7637196, "lon": 76.272355, "tags": {"name": "Shoranur", "name:hi": "\u0936\u094b\u0930\u093e\u0928\u0942\u0930", "name:kn": "\u0cb6\u0ccb\u0cb0\u0ca8\u0cc2\u0cb0\u0cc1", "name:ml": "\u0d37\u0d4a\u0d30\u0d4d\u200d\u0d23\u0d4d\u0d23\u0d42\u0d30\u0d4d", "name:ru": "\u0428\u043e\u0440\u0430\u043d\u0443\u0440", "name:ta": "\u0bb7\u0bca\u0bb0\u0bcd\u0ba3\u0bc2\u0bb0\u0bcd", "name:te": "\u0c37\u0c4b\u0c30\u0c28\u0c42\u0c30\u0c4d", "place": "town", "population": "10000", "postal_code": "679121", "wikidata": "Q2720784", "wikipedia": "en:Shoranur"}}, {"type": "node", "id": 1306280082, "lat": 10.5847059, "lon": 76.2609525}, {"type": "node", "id": 1306280084, "lat": 10.5779984, "lon": 76.2797494}, {"type": "node", "id": 1306280086, "lat": 10.5720712, "lon": 76.2731405}, {"type": "node", "id": 1306280090, "lat": 10.5829341, "lon": 76.2787624}, {"type": "node", "id": 1306280091, "lat": 10.5811201, "lon": 76.2798138}, {"type": "node", "id": 1306280092, "lat": 10.5823435, "lon": 76.25488}, {"type": "node", "id": 1306280094, "lat": 10.5683197, "lon": 76.2606245}, {"type": "node", "id": 1306280096, "lat": 10.5686962, "lon": 76.2561031}, {"type": "node", "id": 1306280098, "lat": 10.5731048, "lon": 76.2530561}, {"type": "node", "id": 1306280100, "lat": 10.5681689, "lon": 76.2684627}, {"type": "node", "id": 1306280104, "lat": 10.5831239, "lon": 76.2609954}, {"type": "node", "id": 1306280105, "lat": 10.5701728, "lon": 76.2720032}, {"type": "node", "id": 1306280107, "lat": 10.5784835, "lon": 76.2542148}, {"type": "node", "id": 1306280109, "lat": 10.5803186, "lon": 76.2534209}, {"type": "node", "id": 1306280111, "lat": 10.5846848, "lon": 76.2646647}, {"type": "node", "id": 1306280113, "lat": 10.5683376, "lon": 76.2702437}, {"type": "node", "id": 1306280115, "lat": 10.5689283, "lon": 76.2593217}, {"type": "node", "id": 1306280118, "lat": 10.5844528, "lon": 76.2731834}, {"type": "node", "id": 1306280120, "lat": 10.5765641, "lon": 76.2526269}, {"type": "node", "id": 1306280122, "lat": 10.5834372, "lon": 76.2561149}, {"type": "node", "id": 1306280124, "lat": 10.5849379, "lon": 76.2683983}, {"type": "node", "id": 1306280126, "lat": 10.5743915, "lon": 76.2768097}, {"type": "node", "id": 1306280128, "lat": 10.5823646, "lon": 76.2627764}, {"type": "node", "id": 1306280130, "lat": 10.5851488, "lon": 76.2586995}, {"type": "node", "id": 1306280132, "lat": 10.5844106, "lon": 76.2760373}, {"type": "node", "id": 1306280135, "lat": 10.5693923, "lon": 76.2543436}, {"type": "node", "id": 1306280137, "lat": 10.5664814, "lon": 76.2663813}, {"type": "node", "id": 1306280139, "lat": 10.5671142, "lon": 76.2636133}, {"type": "node", "id": 1306280141, "lat": 10.5752985, "lon": 76.2529703}, {"type": "node", "id": 1306280143, "lat": 10.5712485, "lon": 76.2538071}, {"type": "node", "id": 1924801826, "lat": 10.5922019, "lon": 76.4840809, "tags": {"name": "Vadakkenchery", "name:hi": "\u0935\u0921\u0915\u094d\u0915\u0902\u091a\u0947\u0930\u0940", "name:kn": "\u0cb5\u0ca1\u0c95\u0ccd\u0c95\u0cc6\u0c82\u0c9a\u0cc7\u0cb0\u0cbf", "name:ml": "\u0d35\u0d1f\u0d15\u0d4d\u0d15\u0d1e\u0d4d\u0d1a\u0d47\u0d30\u0d3f", "name:ta": "\u0bb5\u0b9f\u0b95\u0bcd\u0b95\u0b9e\u0bcd\u0b9a\u0bc7\u0bb0\u0bbf", "name:te": "\u0c35\u0c21\u0c15\u0c4d\u0c15\u0c02\u0c1a\u0c46\u0c30\u0c3f", "place": "town", "wikidata": "Q7908119", "wikipedia": "en:Vadakkencherry"}}, {"type": "node", "id": 2155203643, "lat": 10.8774908, "lon": 76.3138677, "tags": {"name": "Cherpulassery", "name:ml": "\u0d1a\u0d46\u0d30\u0d4d\u200d\u0d2a\u0d4d\u0d2a\u0d41\u0d33\u0d36\u0d4d\u0d36\u0d47\u0d30\u0d3f", "name:ta": "\u0b9a\u0bc6\u0bb0\u0bcd\u0baa\u0bcd\u0baa\u0bc1\u0bb3\u0b9a\u0bcd\u0b9a\u0bc7\u0bb0\u0bbf", "place": "town", "wikidata": "Q5092251", "wikipedia": "en:Cherpulassery"}}, {"type": "node", "id": 3663433334, "lat": 10.7732226, "lon": 76.3772453, "tags": {"name": "Ottapalam", "name:hi": "\u0913\u091f\u094d\u091f\u092a\u0932\u092e", "name:kn": "\u0c92\u0c9f\u0ccd\u0c9f\u0caa\u0ccd\u0caa\u0cbe\u0cb2\u0c82", "name:ml": "\u0d12\u0d31\u0d4d\u0d31\u0d2a\u0d4d\u0d2a\u0d3e\u0d32\u0d02", "name:ru": "\u041e\u0442\u0442\u0430\u043f\u0430\u043b\u0430\u043c", "name:ta": "\u0b92\u0bb1\u0bcd\u0bb1\u0baa\u0bcd\u0baa\u0bbe\u0bb2\u0bae\u0bcd", "name:te": "\u0c12\u0c1f\u0c4d\u0c1f\u0c2a\u0c4d\u0c2a\u0c3e\u0c32\u0c02", "place": "town", "wikidata": "Q2568304", "wikipedia": "en:Ottapalam"}}, {"type": "node", "id": 3762851675, "lat": 10.7771346, "lon": 76.3759182}, {"type": "node", "id": 3762851676, "lat": 10.7770166, "lon": 76.3758105}, {"type": "node", "id": 4527604599, "lat": 10.7826342, "lon": 76.3751403}, {"type": "node", "id": 5015352847, "lat": 10.7683107, "lon": 76.3780765}, {"type": "node", "id": 5217880987, "lat": 10.7726082, "lon": 76.3887412}, {"type": "node", "id": 6056314516, "lat": 10.7687115, "lon": 76.3809929}, {"type": "node", "id": 6056314517, "lat": 10.7687373, "lon": 76.3811808}, {"type": "node", "id": 6102926577, "lat": 10.5844172, "lon": 76.2756254}, {"type": "node", "id": 6102926794, "lat": 10.5844127, "lon": 76.2749545}, {"type": "node", "id": 6102932492, "lat": 10.5844437, "lon": 76.2734578}, {"type": "node", "id": 6201560985, "lat": 10.5846749, "lon": 76.2652112}, {"type": "node", "id": 6201563914, "lat": 10.5847784, "lon": 76.2660451}, {"type": "node", "id": 6201577778, "lat": 10.5849013, "lon": 76.2599587}, {"type": "node", "id": 6213573602, "lat": 10.5845727, "lon": 76.2721286}, {"type": "node", "id": 7515503620, "lat": 10.5736632, "lon": 76.2530343}, {"type": "node", "id": 7832812856, "lat": 10.7764863, "lon": 76.3753263}, {"type": "node", "id": 8744592726, "lat": 10.7767658, "lon": 76.3755815}, {"type": "node", "id": 8987191589, "lat": 10.7685076, "lon": 76.3795091}, {"type": "node", "id": 10182080501, "lat": 10.9056168, "lon": 76.4096015, "tags": {"name": "Sreekrishnapuram", "name:ml": "\u0d36\u0d4d\u0d30\u0d40\u0d15\u0d43\u0d37\u0d4d\u0d23\u0d2a\u0d41\u0d30\u0d02", "name:ta": "\u0bb8\u0bcd\u0bb0\u0bc0\u0b95\u0bbf\u0bb0\u0bc1\u0bb7\u0bcd\u0ba3\u0bbe\u0baa\u0bc1\u0bb0\u0bae\u0bcd", "place": "town", "wikidata": "Q7585707", "wikipedia": "en:Sreekrishnapuram, Palakkad"}}, {"type": "way", "id": 22825941, "nodes": [245587412, 6056314517, 6056314516, 8987191589, 5015352847, 245587446, 245587474, 245587501, 7832812856, 8744592726, 3762851676, 3762851675, 245587538, 245587573, 4527604599, 245587586, 245587593, 245587526, 5217880987, 245587471, 245587412], "tags": {"AND_a_c": "10000339", "name": "Ottappalam", "name:en": "Ottappalam", "name:ml": "\u0d12\u0d31\u0d4d\u0d31\u0d2a\u0d4d\u0d2a\u0d3e\u0d32\u0d02", "place": "town", "wikidata": "Q2568304"}}, {"type": "way", "id": 115684055, "nodes": [1306280137, 1306280100, 1306280113, 1306280105, 1306280086, 1306280126, 1306280084, 1306280091, 1306280090, 1306280132, 6102926577, 6102926794, 6102932492, 1306280118, 6213573602, 1306280124, 6201563914, 6201560985, 1306280111, 1306280128, 1306280104, 1306280082, 6201577778, 1306280130, 1306280122, 1306280092, 1306280109, 1306280107, 1306280120, 1306280141, 7515503620, 1306280098, 1306280143, 1306280135, 1306280096, 1306280115, 1306280094, 1306280139, 1306280137], "tags": {"alt_name": "\u0d24\u0d3e\u0d23\u0d3f\u0d15\u0d4d\u0d15\u0d41\u0d1f\u0d02", "name": "Thanikkudam", "name:ml": "\u0d24\u0d3e\u0d23\u0d3f\u0d15\u0d4d\u0d15\u0d41\u0d1f\u0d02", "name:ta": "\u0ba4\u0bbe\u0ba3\u0bbf\u0b95\u0bcd\u0b95\u0bc1\u0b9f\u0bae\u0bcd", "place": "town", "wikidata": "Q7710398"}}]}