{"version": 0.6, "generator": "Overpass API 0.7.62.1 084b4234", "osm3s": {"timestamp_osm_base": "2024-11-07T07:13:19Z", "copyright": "The data included in this document is from www.openstreetmap.org. The data is made available under ODbL."}, "elements": [{"type": "node", "id": 306447416, "lat": 9.6751372, "lon": 76.5969649, "tags": {"name": "Kattachira", "name:en": "Kattachira", "name:ml": "\u0d15\u0d1f\u0d4d\u0d1f\u0d1a\u0d4d\u0d1a\u0d3f\u0d31", "place": "village"}}, {"type": "node", "id": 316417407, "lat": 9.8497872, "lon": 76.9797914, "tags": {"gns:dsg": "ADM2", "gns:uni": "-2912580", "is_in": "Idukki;Kerala;KL;India;IN", "is_in:country": "india", "is_in:country_code": "IN", "is_in:district": "Idukki", "is_in:state": "kerala", "name": "Idukki", "name:kn": "\u0c87\u0ca1\u0cc1\u0c95\u0ccd\u0c95\u0cbf", "name:ml": "\u0d07\u0d1f\u0d41\u0d15\u0d4d\u0d15\u0d3f", "name:ta": "\u0b87\u0b9f\u0bc1\u0b95\u0bcd\u0b95\u0bbf", "place": "village", "source": "GNS", "wikidata": "Q1756169", "wikipedia": "en:Idukki township"}}, {"type": "node", "id": 594882148, "lat": 9.68325, "lon": 76.6166, "tags": {"name": "Pullappalli", "name:en": "Pullappalli", "name:ml": "\u0d2a\u0d41\u0d32\u0d4d\u0d32\u0d2a\u0d4d\u0d2a\u0d33\u0d4d\u0d33\u0d3f", "place": "village"}}, {"type": "node", "id": 594885510, "lat": 9.71655, "lon": 76.70002, "tags": {"name": "Lalam", "name:en": "Lalam", "name:ml": "\u0d33\u0d3e\u0d32\u0d02", "place": "village", "wikidata": "Q6480174", "wikipedia": "en:Lalam, Kottayam"}}, {"type": "node", "id": 594886147, "lat": 9.807518, "lon": 76.8177366, "tags": {"name": "Kudayathoor", "name:ml": "\u0d15\u0d41\u0d1f\u0d2f\u0d24\u0d4d\u0d24\u0d42\u0d7c", "place": "village"}}, {"type": "node", "id": 594982748, "lat": 9.9437527, "lon": 76.6403576, "tags": {"is_in": "Ernakulam;Kerala;KL;India;IN", "is_in:country": "india", "is_in:district": "Ernakulam", "is_in:state": "kerala", "name": "Vazhakulam", "name:ml": "\u0d35\u0d3e\u0d34\u0d15\u0d4d\u0d15\u0d41\u0d33\u0d02", "place": "village", "wikidata": "Q2913502", "wikimedia_commons": "Category:Vazhakulam", "wikipedia": "en:Vazhakulam"}}, {"type": "node", "id": 594984422, "lat": 10.04992, "lon": 76.78328, "tags": {"name": "Neriyamangalam", "name:ml": "\u0d28\u0d47\u0d30\u0d3f\u0d2f\u0d2e\u0d02\u0d17\u0d32\u0d02", "place": "village", "wikidata": "Q6996195", "wikimedia_commons": "Category:Neriamangalam", "wikipedia": "en:Neriamangalam"}}, {"type": "node", "id": 675549836, "lat": 9.7164463, "lon": 76.6646788, "tags": {"is_in": "kottayam;Kerala;India", "is_in:country": "india", "is_in:district": "kottayam", "is_in:state": "kerala", "name": "Nelliyani", "name:en": "Nelliyani", "name:ml": "\u0d28\u0d46\u0d32\u0d4d\u0d32\u0d3f\u0d2f\u0d3e\u0d28\u0d3f", "place": "village"}}, {"type": "node", "id": 679642709, "lat": 9.7380805, "lon": 76.6218711, "tags": {"is_in": "Andoor;Kottyam;KL;Kerala;India;IN", "is_in:country": "india", "is_in:district": "kottayam", "is_in:state": "kerala", "name": "Andoor", "name:ml": "\u0d06\u0d23\u0d4d\u0d1f\u0d42\u0d7c", "place": "village", "wikidata": "Q4754539", "wikipedia": "en:Andoor"}}, {"type": "node", "id": 679905708, "lat": 9.7492576, "lon": 76.6440418, "tags": {"is_in": "kottayam;Kerala;India", "is_in:country": "india", "is_in:district": "kottayam", "is_in:state": "kerala", "name": "Valavoor", "name:en": "Valavoor", "name:ml": "\u0d35\u0d32\u0d35\u0d42\u0d7c", "place": "village", "population": "1000"}}, {"type": "node", "id": 683081910, "lat": 9.787968, "lon": 76.6107307, "tags": {"is_in:country": "india", "is_in:district": "kottayam", "is_in:state": "kerala", "name": "Uzhavoor", "name:ml": "\u0d09\u0d34\u0d35\u0d42\u0d7c", "place": "village", "wikidata": "Q7904954", "wikimedia_commons": "Category:Uzhavoor", "wikipedia": "en:Uzhavoor"}}, {"type": "node", "id": 685093458, "lat": 9.7710891, "lon": 76.6107705, "tags": {"is_in": "kottayam;Kerala;India", "is_in:country": "india", "is_in:district": "kottayam", "is_in:state": "kerala", "name": "Kurichithanam", "name:ml": "\u0d15\u0d41\u0d31\u0d3f\u0d1a\u0d4d\u0d1a\u0d3f\u0d24\u0d4d\u0d24\u0d3e\u0d28\u0d02", "place": "village", "wikidata": "Q6445986", "wikipedia": "en:Kurichithanam"}}, {"type": "node", "id": 705133722, "lat": 9.6582184, "lon": 76.7768745, "tags": {"is_in:country": "india", "is_in:district": "kottayam", "is_in:state": "Kerala", "name": "Thidanad", "name:ml": "\u0d24\u0d3f\u0d1f\u0d28\u0d3e\u0d1f\u0d4d", "place": "village"}}, {"type": "node", "id": 705156731, "lat": 9.7003362, "lon": 76.7271132, "tags": {"is_in:country": "india", "is_in:district": "kottayam", "is_in:state": "Kerala", "name": "Bharananganam", "name:en": "Bharananganam", "name:ml": "\u0d2d\u0d30\u0d23\u0d19\u0d4d\u0d19\u0d3e\u0d28\u0d02", "place": "village", "wikidata": "Q4901085", "wikimedia_commons": "Category:Bharananganam", "wikipedia": "en:Bharananganam"}}, {"type": "node", "id": 705475426, "lat": 9.7957765, "lon": 76.6893533, "tags": {"name": "Pizhaku", "name:ml": "\u0d2a\u0d3f\u0d34\u0d15\u0d4d", "place": "village", "wikidata": "Q24944811", "wikipedia": "en:Pizhaku"}}, {"type": "node", "id": 705518470, "lat": 9.7424064, "lon": 76.6121494, "tags": {"is_in:country": "india", "is_in:district": "kottayam", "is_in:state": "kerala", "name": "Marangattupilly", "name:ml": "\u0d2e\u0d30\u0d19\u0d4d\u0d19\u0d3e\u0d1f\u0d4d\u0d1f\u0d41\u0d2a\u0d3f\u0d33\u0d4d\u0d33\u0d3f", "place": "village", "wikidata": "Q4121074", "wikimedia_commons": "Category:Marangattupilly", "wikipedia": "en:Marangattupilly"}}, {"type": "node", "id": 705780926, "lat": 9.7483666, "lon": 76.6093598, "tags": {"is_in": "kottayam;Kerala;India", "is_in:country": "india", "is_in:district": "kottayam", "is_in:state": "kerala", "name": "Kurichithanam Junction", "name:ml": "\u0d15\u0d41\u0d31\u0d3f\u0d1a\u0d4d\u0d1a\u0d3f\u0d24\u0d4d\u0d24\u0d3e\u0d28\u0d02 \u0d15\u0d35\u0d32", "place": "village"}}, {"type": "node", "id": 715774714, "lat": 9.8001954, "lon": 76.6621033, "tags": {"name": "Ramapuram", "name:ml": "\u0d30\u0d3e\u0d2e\u0d2a\u0d41\u0d30\u0d02", "place": "village", "wikidata": "Q7289030", "wikimedia_commons": "Category:Ramapuram, Kottayam", "wikipedia": "en:Ramapuram, Kottayam"}}, {"type": "node", "id": 716872260, "lat": 9.7216249, "lon": 76.6787641, "tags": {"is_in": "Pala;kottayam;Kerala;India", "is_in:country": "india", "is_in:district": "kottayam", "is_in:state": "kerala", "name": "Mundupalam", "name:en": "Mundupalam", "name:ml": "\u0d2e\u0d41\u0d23\u0d4d\u0d1f\u0d41\u0d2a\u0d3e\u0d32\u0d02", "place": "village"}}, {"type": "node", "id": 716880174, "lat": 9.7207217, "lon": 76.6284529, "tags": {"is_in": "kottayam;Kerala;India", "is_in:country": "india", "is_in:district": "kottayam", "is_in:state": "kerala", "name": "Palayam", "name:ml": "\u0d2a\u0d3e\u0d33\u0d2f\u0d02", "place": "village"}}, {"type": "node", "id": 716880782, "lat": 9.6929106, "lon": 76.6391492, "tags": {"name": "Cherpunkal", "name:en": "Cherpunkal", "name:ml": "\u0d1a\u0d47\u0d7c\u0d2a\u0d4d\u0d2a\u0d41\u0d19\u0d4d\u0d15\u0d7d", "place": "village", "wikidata": "Q5092249", "wikimedia_commons": "Category:Cherpunkal", "wikipedia": "en:Cherpunkal"}}, {"type": "node", "id": 718570028, "lat": 9.7449855, "lon": 76.6292978, "tags": {"addr:city": "Kottayam", "addr:country": "IN", "alt_name": "Palakkattumala", "name": "Palackattumala", "name:ceb": "Palackattumala", "name:en": "Palackattumala", "name:ml": "\u0d2a\u0d3e\u0d32\u0d15\u0d4d\u0d15\u0d3e\u0d1f\u0d4d\u0d1f\u0d41\u0d2e\u0d32", "name:sv": "Palackattumala", "place": "village", "population": "1000", "postal_code": "686635", "source": "survey;GPS", "wikidata": "Q7126341", "wikipedia": "en:Palackattumala"}}, {"type": "node", "id": 718947242, "lat": 9.8026498, "lon": 76.6520295, "tags": {"is_in:country": "india", "is_in:district": "Kottayam", "is_in:state": "kerala", "is_in:village": "Ramapuram", "name": "Ramapuram Temple", "place": "village"}}, {"type": "node", "id": 725349062, "lat": 9.755441, "lon": 76.5964231, "tags": {"is_in": "kottayam;Kerala;India", "is_in:country": "india", "is_in:district": "kottayam", "is_in:state": "kerala", "name": "Paickad", "name:ml": "\u0d2a\u0d48\u0d15\u0d4d\u0d15\u0d3e\u0d1f\u0d4d", "place": "village"}}, {"type": "node", "id": 725350414, "lat": 9.7585719, "lon": 76.5882264, "tags": {"is_in": "kottayam;Kerala;India", "is_in:country": "india", "is_in:district": "kottayam", "is_in:state": "kerala", "name": "Mannackanad", "name:ml": "\u0d2e\u0d23\u0d4d\u0d23\u0d15\u0d4d\u0d15\u0d28\u0d3e\u0d1f\u0d4d", "place": "village"}}, {"type": "node", "id": 744783377, "lat": 9.7672736, "lon": 76.655876, "tags": {"is_in": "kottayam;Kerala;India", "is_in:country": "india", "is_in:district": "kottayam", "is_in:state": "kerala", "name": "chakkampuzha Kavala", "name:en": "Chakkampuzha Kavala", "name:ml": "\u0d1a\u0d15\u0d4d\u0d15\u0d3e\u0d2e\u0d4d\u0d2a\u0d41\u0d34 \u0d15\u0d35\u0d32", "place": "village"}}, {"type": "node", "id": 744829530, "lat": 9.8461449, "lon": 76.6501506, "tags": {"is_in": "Idukki;Kerala;KL;India;IN", "is_in:country": "india", "is_in:district": "Idukki", "is_in:state": "kerala", "name": "Kuninji", "name:ml": "\u0d15\u0d41\u200d\u0d23\u0d3f\u0d1e\u0d4d\u0d1e\u0d3f", "place": "village", "wikidata": "Q6444720", "wikipedia": "en:Kuninji"}}, {"type": "node", "id": 745822040, "lat": 9.7764945, "lon": 76.7235643, "tags": {"comment": "Not fully accurate", "is_in": "Kottayam;Kerala;KL;India;IN", "is_in:country": "india", "is_in:district": "kottayam", "is_in:state": "Kerala", "name": "Elivaly", "name:ml": "\u0d0e\u0d32\u0d3f\u0d35\u0d3e\u0d32\u0d3f", "place": "village"}}, {"type": "node", "id": 745822404, "lat": 9.7748431, "lon": 76.7162758, "tags": {"is_in": "Kottayam;Kerala;KL;India;IN", "is_in:country": "india", "is_in:district": "kottayam", "is_in:state": "Kerala", "name": "Kodumbidi", "name:ml": "\u0d15\u0d4a\u0d1f\u0d41\u0d2e\u0d4d\u0d2a\u0d3f\u0d1f\u0d3f", "place": "village"}}, {"type": "node", "id": 745837765, "lat": 9.7827884, "lon": 76.7631727, "tags": {"name": "Melukavumattom", "name:ml": "\u0d2e\u0d47\u0d32\u0d41\u0d15\u0d3e\u0d35\u0d41\u0d2e\u0d31\u0d4d\u0d31\u0d02", "place": "village"}}, {"type": "node", "id": 746264688, "lat": 9.7412569, "lon": 76.6925472, "tags": {"is_in": "kottayam;Kerala;India", "is_in:country": "india", "is_in:district": "kottayam", "is_in:state": "kerala", "name": "Paayippaar", "name:en": "Paayippaar", "name:ml": "\u0d2a\u0d3e\u0d2f\u0d3f\u0d2a\u0d4d\u0d2a\u0d3e\u0d7c", "place": "village"}}, {"type": "node", "id": 746270180, "lat": 9.7846874, "lon": 76.6709378, "tags": {"is_in": "kottayam;Kerala;India", "is_in:country": "india", "is_in:district": "kottayam", "is_in:state": "kerala", "name": "Ezhacherry", "name:ml": "\u0d0f\u0d34\u0d3e\u0d1a\u0d4d\u0d1a\u0d47\u0d30\u0d3f", "place": "village"}}, {"type": "node", "id": 747686675, "lat": 9.7636918, "lon": 76.7006233, "tags": {"is_in": "Kottayam;Kerala;KL;India;IN", "is_in:country": "india", "is_in:district": "kottayam", "is_in:state": "Kerala", "name": "Kollappally", "name:en": "Kollappally", "name:ml": "\u0d15\u0d4a\u0d32\u0d4d\u0d32\u0d2a\u0d4d\u0d2a\u0d33\u0d4d\u0d33\u0d3f", "place": "village", "wikidata": "Q16893613", "wikipedia": "en:Kollappally"}}, {"type": "node", "id": 747686683, "lat": 9.7461264, "lon": 76.7026221, "tags": {"is_in": "kottayam;Kerala;India", "is_in:country": "india", "is_in:district": "kottayam", "is_in:state": "kerala", "name": "Pravithanam", "name:en": "Pravithanam", "name:ml": "\u0d2a\u0d4d\u0d30\u0d35\u0d3f\u0d24\u0d4d\u0d24\u0d3e\u0d28\u0d02", "place": "village"}}, {"type": "node", "id": 749165929, "lat": 9.7177192, "lon": 76.6401025, "tags": {"is_in": "kottayam;Kerala;India", "is_in:country": "india", "is_in:district": "kottayam", "is_in:state": "kerala", "name": "Padinjattinkara", "name:en": "Padinjattinkara", "name:ml": "\u0d2a\u0d1f\u0d3f\u0d1e\u0d4d\u0d1e\u0d3e\u0d31\u0d4d\u0d31\u0d3f\u0d19\u0d4d\u0d15\u0d30", "place": "village"}}, {"type": "node", "id": 749695603, "lat": 9.6921235, "lon": 76.6566853, "tags": {"is_in:country": "india", "is_in:district": "kottayam", "is_in:state": "kerala", "name": "Mutholy", "name:en": "Mutholy", "name:ml": "\u0d2e\u0d41\u0d24\u0d4d\u0d24\u0d4b\u0d32\u0d3f", "place": "village", "wikidata": "Q24913155", "wikipedia": "en:Mutholy"}}, {"type": "node", "id": 764894207, "lat": 9.7380961, "lon": 76.6562173, "tags": {"is_in": "kottayam;Kerala;India", "is_in:country": "india", "is_in:district": "kottayam", "is_in:state": "kerala", "name": "Edanad", "name:en": "Edanad", "name:ml": "\u0d07\u0d1f\u0d28\u0d3e\u0d1f\u0d4d", "place": "village"}}, {"type": "node", "id": 765634332, "lat": 9.7354442, "lon": 76.6821406, "tags": {"is_in": "kottayam;Kerala;India", "is_in:country": "india", "is_in:district": "kottayam", "is_in:state": "kerala", "name": "Karoor", "name:en": "Karoor", "name:ml": "\u0d15\u0d30\u0d42\u0d7c", "place": "village"}}, {"type": "node", "id": 765638441, "lat": 9.7585535, "lon": 76.6805675, "tags": {"is_in": "kottayam;Kerala;India", "is_in:country": "india", "is_in:district": "kottayam", "is_in:state": "kerala", "name": "Anthiyalam", "name:en": "Anthiyalam", "name:ml": "\u0d05\u0d28\u0d4d\u0d24\u0d4d\u0d2f\u0d3e\u0d33\u0d02", "place": "village", "wikidata": "Q4771801", "wikipedia": "en:Anthiyalam"}}, {"type": "node", "id": 765644403, "lat": 9.7774872, "lon": 76.6945884, "tags": {"is_in": "Kottayam;Kerala;KL;India;IN", "is_in:country": "india", "is_in:district": "kottayam", "is_in:state": "Kerala", "name": "Aimcombu", "name:ml": "\u0d10\u0d19\u0d4d\u0d15\u0d4a\u0d2e\u0d4d\u0d2a\u0d4d", "place": "village"}}, {"type": "node", "id": 765665693, "lat": 9.7910977, "lon": 76.7080064, "tags": {"is_in:country": "india", "is_in:district": "kottayam", "is_in:state": "Kerala", "name": "Kadanad", "name:ml": "\u0d15\u0d1f\u0d28\u0d3e\u0d1f\u0d4d", "place": "village", "wikidata": "Q6345137", "wikipedia": "en:Kadanad"}}, {"type": "node", "id": 765692107, "lat": 9.8254483, "lon": 76.7208269, "tags": {"name": "Thudanganaad", "name:ml": "\u0d24\u0d41\u0d1f\u0d19\u0d4d\u0d19\u0d28\u0d3e\u0d1f\u0d4d", "place": "village"}}, {"type": "node", "id": 800597162, "lat": 9.8685295, "lon": 76.6683644, "tags": {"name": "Purappuzha", "name:ml": "\u0d2a\u0d41\u0d31\u0d2a\u0d4d\u0d2a\u0d41\u0d34", "place": "village", "wikidata": "Q7260849", "wikipedia": "en:Purapuzha"}}, {"type": "node", "id": 801895880, "lat": 9.8842204, "lon": 76.677363, "tags": {"is_in": "Idukki;Kerala;KL;India;IN", "is_in:country": "india", "is_in:district": "Idukki", "is_in:state": "kerala", "name": "Nediyasala", "name:ml": "\u0d28\u0d46\u0d1f\u0d3f\u0d2f\u0d36\u0d3e\u0d32", "place": "village"}}, {"type": "node", "id": 801902802, "lat": 9.8236424, "lon": 76.6479422, "tags": {"is_in": "Kottayam;Kerala;KL;India;IN", "is_in:country": "india", "is_in:district": "Kottayam", "is_in:state": "kerala", "name": "Neeranthanam", "name:ml": "\u0d28\u0d40\u0d31\u0d28\u0d4d\u0d24\u0d3e\u0d28\u0d02", "place": "village"}}, {"type": "node", "id": 841463184, "lat": 9.8383348, "lon": 76.6336243, "tags": {"is_in": "Idukki;Kerala;KL;India;IN", "is_in:country": "india", "is_in:district": "Idukki", "is_in:state": "kerala", "name": "Methiri", "place": "village"}}, {"type": "node", "id": 864161837, "lat": 9.8421419, "lon": 76.642951, "tags": {"is_in": "Idukki;Kerala;KL;India;IN", "is_in:country": "india", "is_in:district": "Idukki", "is_in:state": "kerala", "name": "Palachuvad Junction", "name:ml": "\u0d2a\u0d3e\u0d32\u0d1a\u0d4d\u0d1a\u0d41\u0d35\u0d1f\u0d4d \u0d1c\u0d02\u0d17\u0d4d\u0d37\u0d28\u0d4d\u200d", "place": "village"}}, {"type": "node", "id": 869851749, "lat": 9.7146487, "lon": 76.609727, "tags": {"is_in": "kottayam;Kerala;India", "is_in:country": "india", "is_in:district": "kottayam", "is_in:state": "kerala", "name": "Kadaplamattom", "name:ml": "\u0d15\u0d1f\u0d2a\u0d4d\u0d32\u0d3e\u0d2e\u0d31\u0d4d\u0d31\u0d02", "place": "village", "wikidata": "Q15232113", "wikipedia": "en:Kadaplamattom"}}, {"type": "node", "id": 870027000, "lat": 9.915959, "lon": 76.7434621, "tags": {"is_in": "Idukki;Kerala;KL;India;IN", "is_in:country": "india", "is_in:district": "Idukki", "is_in:state": "kerala", "name": "Kunnam", "name:ml": "\u0d15\u0d41\u0d28\u0d4d\u0d28\u0d02", "place": "village"}}, {"type": "node", "id": 874242174, "lat": 9.7006988, "lon": 76.6059672, "tags": {"name": "Koodalloor East", "name:en": "Koodalloor East", "name:ml": "\u0d15\u0d3f\u0d34\u0d15\u0d4d\u0d15\u0d47 \u0d15\u0d42\u0d1f\u0d32\u0d4d\u0d32\u0d42\u0d30\u0d4d\u200d", "place": "village"}}, {"type": "node", "id": 945277400, "lat": 9.9656317, "lon": 76.6709797, "tags": {"is_in:country": "india", "is_in:district": "Ernakulam", "is_in:state": "kerala", "name": "Kalloorkad", "name:ml": "\u0d15\u0d32\u0d4d\u0d32\u0d42\u0d7c\u0d15\u0d4d\u0d15\u0d3e\u0d1f\u0d4d", "place": "village", "population": "10000", "wikidata": "Q15233055", "wikipedia": "en:Kalloorkkad"}}, {"type": "node", "id": 945285618, "lat": 10.0331998, "lon": 76.702617, "tags": {"is_in": "Ernakulam;Kerala;KL;India;IN", "is_in:country": "india", "is_in:district": "Ernakulam", "is_in:state": "kerala", "name": "Koovalloor", "name:ml": "\u0d15\u0d42\u0d35\u0d32\u0d4d\u0d32\u0d42\u0d7c", "place": "village"}}, {"type": "node", "id": 945286094, "lat": 10.0377157, "lon": 76.7103318, "tags": {"is_in:country": "india", "is_in:district": "Ernakulam", "is_in:state": "kerala", "name": "Pareekkanni", "name:ml": "\u0d2a\u0d30\u0d40\u0d15\u0d4d\u0d15\u0d23\u0d4d\u0d23\u0d3f", "place": "village"}}, {"type": "node", "id": 963640486, "lat": 9.8003429, "lon": 76.7276642, "tags": {"name": "Neeloor", "name:ml": "\u0d28\u0d40\u0d32\u0d42\u0d7c", "place": "village", "wikidata": "Q17486684"}}, {"type": "node", "id": 966105888, "lat": 9.7353432, "lon": 76.6923273, "tags": {"is_in": "kottayam;Kerala;India", "is_in:country": "india", "is_in:district": "kottayam", "is_in:state": "kerala", "name": "Mundankal", "name:en": "Mundankal", "name:ml": "\u0d2e\u0d41\u0d23\u0d4d\u0d1f\u0d3e\u0d19\u0d4d\u0d15\u0d7d", "place": "village"}}, {"type": "node", "id": 973859524, "lat": 9.7242192, "lon": 76.6454903, "tags": {"is_in": "kottayam;Kerala;India", "is_in:country": "india", "is_in:district": "kottayam", "is_in:state": "kerala", "name": "Cherukara", "name:en": "Cherukara", "name:ml": "\u0d1a\u0d46\u0d31\u0d41\u0d15\u0d30", "place": "village"}}, {"type": "node", "id": 1036911794, "lat": 9.7745291, "lon": 76.6184113}, {"type": "node", "id": 1036911796, "lat": 9.7740509, "lon": 76.6179071}, {"type": "node", "id": 1036911798, "lat": 9.7725867, "lon": 76.6166628}, {"type": "node", "id": 1036911800, "lat": 9.7696824, "lon": 76.6145899}, {"type": "node", "id": 1036911802, "lat": 9.7652782, "lon": 76.61332}, {"type": "node", "id": 1036911803, "lat": 9.7604362, "lon": 76.6159912}, {"type": "node", "id": 1036911805, "lat": 9.7561607, "lon": 76.6210533}, {"type": "node", "id": 1036911808, "lat": 9.7552166, "lon": 76.6241747}, {"type": "node", "id": 1036911809, "lat": 9.754609, "lon": 76.6302368}, {"type": "node", "id": 1036911810, "lat": 9.7544571, "lon": 76.6381485}, {"type": "node", "id": 1036911812, "lat": 9.7559578, "lon": 76.6409377}, {"type": "node", "id": 1036911814, "lat": 9.7605093, "lon": 76.6391734}, {"type": "node", "id": 1036911815, "lat": 9.768487, "lon": 76.6349183}, {"type": "node", "id": 1036911817, "lat": 9.7724758, "lon": 76.6303519}, {"type": "node", "id": 1036920030, "lat": 9.763279, "lon": 76.6294938, "tags": {"is_in": "kottayam;Kerala;India", "is_in:country": "india", "is_in:district": "kottayam", "is_in:state": "kerala", "name": "Kudakkachira", "name:ml": "\u0d15\u0d41\u0d1f\u0d15\u0d4d\u0d15\u0d1a\u0d4d\u0d1a\u0d3f\u0d31", "place": "village", "wikidata": "Q6441628", "wikipedia": "en:Kudakkachira"}}, {"type": "node", "id": 1071187677, "lat": 9.6967224, "lon": 76.5794973, "tags": {"name": "Kadappoor", "name:en": "Kadappoor", "name:ml": "\u0d15\u0d1f\u0d2a\u0d4d\u0d2a\u0d42\u0d7c", "place": "village", "source": "Bing", "wikidata": "Q6345173", "wikipedia": "en:Kadappoor"}}, {"type": "node", "id": 1072217506, "lat": 9.7000654, "lon": 76.7582103, "tags": {"is_in": "Kottayam;Kerala;KL;India;IN", "is_in:country": "india", "is_in:district": "kottayam", "is_in:state": "Kerala", "name": "Panackapalam", "name:ml": "\u0d2a\u0d28\u0d15\u0d4d\u0d15\u0d2a\u0d4d\u0d2a\u0d3e\u0d32\u0d02", "place": "village", "wikidata": "Q17081506", "wikipedia": "en:Panackapalam"}}, {"type": "node", "id": 1077034358, "lat": 10.0240216, "lon": 76.657133, "tags": {"is_in": "Ernakulam;Kerala;KL;India;IN", "is_in:country": "india", "is_in:district": "Ernakulam", "is_in:state": "kerala", "name": "Adivad", "name:ml": "\u0d05\u0d1f\u0d3f\u0d35\u0d3e\u0d1f\u0d4d", "place": "village"}}, {"type": "node", "id": 1195120395, "lat": 10.0503586, "lon": 76.7503821, "tags": {"is_in": "Ernakulam;Kerala;KL;India;IN", "is_in:country": "india", "is_in:district": "Ernakulam", "is_in:state": "kerala", "name": "Thalakode", "name:ml": "\u0d24\u0d32\u0d15\u0d4d\u0d15\u0d4b\u0d1f\u0d4d", "place": "village"}}, {"type": "node", "id": 1195407657, "lat": 10.0584716, "lon": 76.6560664, "tags": {"name": "Kuthukhuzi", "name:ml": "\u0d15\u0d41\u0d24\u0d4d\u0d24\u0d41\u0d15\u0d41\u0d34\u0d3f", "place": "village"}}, {"type": "node", "id": 1195407748, "lat": 10.0765899, "lon": 76.5927892, "tags": {"is_in:country": "india", "is_in:district": "Ernakulam", "is_in:state": "kerala", "name": "Nellikuzhi", "name:ml": "\u0d28\u0d46\u0d32\u0d4d\u0d32\u0d3f\u0d15\u0d4d\u0d15\u0d41\u0d34\u0d3f", "place": "village", "wikidata": "Q6990175", "wikipedia": "en:Nellikuzhi"}}, {"type": "node", "id": 1195407753, "lat": 10.0584403, "lon": 76.6826184, "tags": {"name": "Nellimattom", "name:ml": "\u0d28\u0d46\u0d32\u0d4d\u0d32\u0d3f\u0d2e\u0d31\u0d4d\u0d31\u0d02", "place": "village"}}, {"type": "node", "id": 1413371622, "lat": 9.8783498, "lon": 76.736315, "tags": {"is_in": "Idukki;Kerala;KL;India;IN", "is_in:country": "india", "is_in:district": "Idukki", "is_in:state": "kerala", "name": "Kallanikkal", "name:ml": "\u0d15\u0d32\u0d4d\u0d32\u0d3e\u0d28\u0d3f\u0d15\u0d4d\u0d15\u0d7d", "place": "village"}}, {"type": "node", "id": 1436611776, "lat": 9.8263211, "lon": 76.7407699, "tags": {"name": "Challavayal", "name:ml": "\u0d1a\u0d33\u0d4d\u0d33\u0d35\u0d2f\u0d7d", "place": "village"}}, {"type": "node", "id": 1436634913, "lat": 9.7293034, "lon": 76.7242045, "tags": {"is_in": "kottayam;Kerala;India", "is_in:country": "india", "is_in:district": "kottayam", "is_in:state": "kerala", "name": "Choondachery", "name:en": "Choondachery", "name:ml": "\u0d1a\u0d42\u0d23\u0d4d\u0d1f\u0d1a\u0d4d\u0d1a\u0d47\u0d30\u0d3f", "place": "village"}}, {"type": "node", "id": 1436634914, "lat": 9.7201458, "lon": 76.7771192, "tags": {"is_in": "Kottayam;Kerala;KL;India;IN", "is_in:country": "india", "is_in:district": "kottayam", "is_in:state": "Kerala", "name": "Kalatthukkadavu", "name:ml": "\u0d15\u0d33\u0d24\u0d4d\u0d24\u0d42\u0d15\u0d4d\u0d15\u0d1f\u0d35\u0d4d", "place": "village"}}, {"type": "node", "id": 1436637998, "lat": 9.8637155, "lon": 76.6975005, "tags": {"is_in": "Idukki;Kerala;KL;India;IN", "is_in:country": "india", "is_in:district": "Idukki", "is_in:state": "kerala", "name": "Plantation Kavala", "name:ml": "\u0d2a\u0d4d\u0d32\u0d3e\u0d28\u0d4d\u0d31\u0d47\u0d37\u0d28\u0d4d\u200d \u0d15\u0d35\u0d32", "place": "village"}}, {"type": "node", "id": 1651633082, "lat": 9.7483894, "lon": 76.7847381, "tags": {"is_in:country": "india", "is_in:district": "kottayam", "is_in:state": "Kerala", "name": "Moonnilavu", "name:ml": "\u0d2e\u0d42\u0d28\u0d4d\u0d28\u0d3f\u0d32\u0d35\u0d4d", "place": "village"}}, {"type": "node", "id": 1668628188, "lat": 10.0084036, "lon": 76.6052132, "tags": {"is_in": "Ernakulam;Kerala;KL;India;IN", "is_in:country": "india", "is_in:district": "Ernakulam", "is_in:state": "kerala", "name": "Puthuppady", "name:ml": "\u0d2a\u0d41\u0d24\u0d41\u0d2a\u0d4d\u0d2a\u0d3e\u0d1f\u0d3f", "place": "village", "wikidata": "Q16135103", "wikipedia": "en:Puthuppadi"}}, {"type": "node", "id": 1668640926, "lat": 10.0548588, "lon": 76.6994078, "tags": {"is_in:country": "india", "is_in:district": "Ernakulam", "is_in:state": "kerala", "name": "Kavalangad", "name:ml": "\u0d15\u0d35\u0d33\u0d19\u0d4d\u0d19\u0d3e\u0d1f\u0d4d", "place": "village"}}, {"type": "node", "id": 1682789860, "lat": 9.655434, "lon": 76.7224513, "tags": {"name": "Paika", "name:en": "Paika", "name:ml": "\u0d2a\u0d48\u0d15", "place": "village", "wikidata": "Q7124757", "wikipedia": "en:Paika"}}, {"type": "node", "id": 1930133322, "lat": 9.8799723, "lon": 76.9683736, "tags": {"is_in:country": "india", "is_in:district": "Idukki", "is_in:state": "kerala", "name": "Thadiyambadu", "name:ml": "\u0d24\u0d1f\u0d3f\u0d2f\u0d2e\u0d4d\u0d2a\u0d3e\u0d1f\u0d4d", "place": "village"}}, {"type": "node", "id": 1930133395, "lat": 9.892674, "lon": 76.9721945, "tags": {"name": "Karimban", "name:ml": "\u0d15\u0d30\u0d3f\u0d2e\u0d4d\u0d2a\u0d7b", "place": "village"}}, {"type": "node", "id": 1996937475, "lat": 9.8686201, "lon": 76.8309417, "tags": {"is_in": "Idukki;Kerala;KL;India;IN", "is_in:country": "india", "is_in:district": "Idukki", "is_in:state": "kerala", "name": "Cheppukulam", "name:ml": "\u0d1a\u0d46\u0d2a\u0d4d\u0d2a\u0d41\u0d15\u0d41\u0d33\u0d02", "place": "village"}}, {"type": "node", "id": 2080164342, "lat": 9.9594442, "lon": 76.8193824, "tags": {"is_in": "Idukki;Kerala;KL;India;IN", "is_in:country": "india", "is_in:district": "Idukki", "is_in:state": "kerala", "name": "Thommankutthu", "name:ml": "\u0d24\u0d4a\u0d2e\u0d4d\u0d2e\u0d7b\u0d15\u0d41\u0d24\u0d4d\u0d24\u0d4d", "place": "village", "wikidata": "Q16133943", "wikimedia_commons": "Category:Thommankuthu", "wikipedia": "en:Thommankuthu"}}, {"type": "node", "id": 2235652574, "lat": 9.8825045, "lon": 76.7661968, "tags": {"is_in:country": "india", "is_in:district": "Idukki", "is_in:state": "kerala", "name": "Alakkodu", "name:ml": "\u0d06\u0d32\u0d15\u0d4d\u0d15\u0d4b\u0d1f\u0d4d", "place": "village"}}, {"type": "node", "id": 2258114588, "lat": 10.0068024, "lon": 76.7104039, "tags": {"incorrect_population_tag": "<10000", "is_in:country": "india", "is_in:district": "Ernakulam", "is_in:state": "kerala", "name": "Paingottoor", "name:ml": "\u0d2a\u0d48\u0d19\u0d4d\u0d19\u0d4b\u0d1f\u0d4d\u0d1f\u0d42\u0d7c", "place": "village"}}, {"type": "node", "id": 2271209882, "lat": 9.7334851, "lon": 76.6263019, "tags": {"is_in": "kottayam;Kerala;India", "is_in:country": "india", "is_in:district": "kottayam", "is_in:state": "kerala", "name": "Kozhikombu", "name:ml": "\u0d15\u0d4b\u0d34\u0d3f\u0d15\u0d4d\u0d15\u0d4a\u0d2e\u0d4d\u0d2a\u0d4d", "place": "village", "wikidata": "Q6435241", "wikipedia": "en:Kozhikombu"}}, {"type": "node", "id": 2271213236, "lat": 9.7602738, "lon": 76.577596, "tags": {"is_in": "kottayam;Kerala;India", "is_in:country": "india", "is_in:district": "kottayam", "is_in:state": "kerala", "name": "Nadukunnu", "name:ml": "\u0d28\u0d3e\u0d1f\u0d41\u0d15\u0d41\u0d28\u0d4d\u0d28\u0d4d", "place": "village"}}, {"type": "node", "id": 2271215431, "lat": 9.7194041, "lon": 76.6544855, "tags": {"is_in": "kottayam;Kerala;India", "is_in:country": "india", "is_in:district": "kottayam", "is_in:state": "kerala", "name": "Paingulam", "name:en": "Paingulam", "name:ml": "\u0d2a\u0d48\u0d19\u0d4d\u0d15\u0d41\u0d33\u0d02", "place": "village"}}, {"type": "node", "id": 2271218722, "lat": 9.7199836, "lon": 76.6523965, "tags": {"is_in": "kottayam;Kerala;India", "is_in:country": "india", "is_in:district": "kottayam", "is_in:state": "kerala", "name": "Vallichira", "name:en": "Vallichira", "name:ml": "\u0d35\u0d33\u0d4d\u0d33\u0d3f\u0d1a\u0d4d\u0d1a\u0d3f\u0d31", "place": "village", "wikidata": "Q7912408", "wikimedia_commons": "Category:Vallichira", "wikipedia": "en:Vallichira"}}, {"type": "node", "id": 2271275062, "lat": 9.7525199, "lon": 76.6612275, "tags": {"is_in": "kottayam;Kerala;India", "is_in:country": "india", "is_in:district": "kottayam", "is_in:state": "kerala", "name": "Nechipuzhoor", "name:en": "Nechipuzhoor", "name:ml": "\u0d28\u0d46\u0d1a\u0d4d\u0d1a\u0d3f\u0d2a\u0d41\u0d34\u0d42\u0d30\u0d4d\u200d", "place": "village"}}, {"type": "node", "id": 2271279024, "lat": 9.7271464, "lon": 76.574883, "tags": {"is_in": "kottayam;Kerala;India", "is_in:country": "india", "is_in:district": "kottayam", "is_in:state": "kerala", "name": "Vayala", "name:ml": "\u0d35\u0d2f\u0d32\u0d3e", "place": "village", "wikidata": "Q7917549", "wikimedia_commons": "Category:Vayala", "wikipedia": "en:Vayala"}}, {"type": "node", "id": 2271611706, "lat": 9.8032566, "lon": 76.6141784, "tags": {"is_in": "Kottayam;Kerala;KL;India;IN", "is_in:country": "india", "is_in:district": "Kottayam", "is_in:state": "kerala", "name": "Areekara", "name:ml": "\u0d05\u0d30\u0d40\u0d15\u0d4d\u0d15\u0d30", "place": "village", "wikidata": "Q4788731", "wikipedia": "en:Areekara"}}, {"type": "node", "id": 2271806022, "lat": 9.6907601, "lon": 76.7439329, "tags": {"is_in": "Kottayam;Kerala;KL;India;IN", "is_in:country": "india", "is_in:district": "kottayam", "is_in:state": "Kerala", "name": "Ambara Nirappel", "name:en": "Ambara Nirappel", "name:ml": "\u0d05\u0d2e\u0d4d\u0d2a\u0d3e\u0d31 \u0d28\u0d3f\u0d30\u0d2a\u0d4d\u0d2a\u0d47\u0d7d", "place": "village"}}, {"type": "node", "id": 2271806025, "lat": 9.683231, "lon": 76.7576643, "tags": {"is_in": "Kottayam;Kerala;KL;India;IN", "is_in:country": "india", "is_in:district": "kottayam", "is_in:state": "Kerala", "name": "Chittattinkara", "name:ml": "\u0d1a\u0d3f\u0d31\u0d4d\u0d31\u0d3e\u0d31\u0d4d\u0d31\u0d3f\u0d19\u0d4d\u0d15\u0d30", "place": "village"}}, {"type": "node", "id": 2272651602, "lat": 9.6840144, "lon": 76.7388317, "tags": {"name": "Poovathodu", "name:en": "Poovathodu", "name:ml": "\u0d2a\u0d42\u0d35\u0d24\u0d4d\u0d24\u0d4b\u0d1f\u0d4d", "place": "village"}}, {"type": "node", "id": 2280977116, "lat": 9.6729005, "lon": 76.7974439, "tags": {"name": "Panachipara", "name:ml": "\u0d2a\u0d28\u0d1a\u0d4d\u0d1a\u0d3f\u0d2a\u0d4d\u0d2a\u0d3e\u0d31", "place": "village"}}, {"type": "node", "id": 2359749117, "lat": 9.9060212, "lon": 76.8142565, "tags": {"name": "Udumbannoor", "name:ml": "\u0d09\u0d1f\u0d41\u0d2e\u0d4d\u0d2a\u0d28\u0d4d\u0d28\u0d42\u0d7c", "place": "village"}}, {"type": "node", "id": 2757601409, "lat": 9.7628114, "lon": 76.6146109}, {"type": "node", "id": 2757601410, "lat": 9.774563, "lon": 76.6249533}, {"type": "node", "id": 2757601411, "lat": 9.7770811, "lon": 76.6201103}, {"type": "node", "id": 2757601412, "lat": 9.7772714, "lon": 76.6186248}, {"type": "node", "id": 2766290174, "lat": 9.7836682, "lon": 76.5777457, "tags": {"addr:postcode": "686636", "is_in": "Kottayam;Kerala;KL;India;IN", "is_in:country": "india", "is_in:district": "kottayam", "is_in:state": "kerala", "name": "Kurianad", "name:ml": "\u0d15\u0d41\u0d30\u0d3f\u0d2f\u0d28\u0d3e\u0d1f\u0d4d", "place": "village"}}, {"type": "node", "id": 2897516761, "lat": 9.7779783, "lon": 76.7287411, "tags": {"comment": "May not be exact location, Please correct if wrong", "is_in": "Kottayam;Kerala;KL;India;IN", "name": "Kurumannu", "name:ml": "\u0d15\u0d41\u0d31\u0d41\u0d2e\u0d23\u0d4d\u0d23\u0d4d", "place": "village"}}, {"type": "node", "id": 2897567339, "lat": 9.9846385, "lon": 76.7091779, "tags": {"comment": "May not be exact location, Please correct if wrong", "is_in": "Kerala;KL;India;IN", "name": "Kaloor", "name:ml": "\u0d15\u0d32\u0d42\u0d7c", "place": "village"}}, {"type": "node", "id": 2897567340, "lat": 9.9358851, "lon": 76.7082236, "tags": {"comment": "May not be exact location, Please correct if wrong", "name": "Kumaramangalam", "name:ml": "\u0d15\u0d41\u0d2e\u0d3e\u0d30\u0d2e\u0d02\u0d17\u0d32\u0d02", "place": "village"}}, {"type": "node", "id": 2897567341, "lat": 9.7832518, "lon": 76.7420613, "tags": {"comment": "May not be exact location, Please correct if wrong", "is_in": "Kottayam;Kerala;KL;India;IN", "name": "Maryland", "name:ml": "\u0d2e\u0d47\u0d30\u0d3f\u0d32\u0d3e\u0d28\u0d4d\u0d31\u0d4d", "place": "village"}}, {"type": "node", "id": 2897567342, "lat": 9.9653412, "lon": 76.7107553, "tags": {"comment": "May not be exact location, Please correct if wrong", "is_in": "Kerala;KL;India;IN", "name": "PerumamKandam", "name:ml": "\u0d2a\u0d46\u0d30\u0d41\u0d2e\u0d3e\u0d19\u0d4d\u0d15\u0d23\u0d4d\u0d1f\u0d02", "place": "village"}}, {"type": "node", "id": 2897567343, "lat": 9.9428549, "lon": 76.7097999, "tags": {"comment": "May not be exact location, Please correct if wrong", "is_in": "Kerala;KL;India;IN", "name": "Thaimattom", "name:ml": "\u0d24\u0d48\u0d2e\u0d31\u0d4d\u0d31\u0d02", "place": "village"}}, {"type": "node", "id": 2897612203, "lat": 9.7413091, "lon": 76.6668843, "tags": {"comment": "May not be exact location, Please correct if wrong", "is_in": "Kottayam;Kerala;KL;India;IN", "name": "Chittar", "name:en": "Chittar", "name:ml": "\u0d1a\u0d3f\u0d31\u0d4d\u0d31\u0d3e\u0d30\u0d4d\u200d", "place": "village"}}, {"type": "node", "id": 2897612205, "lat": 9.7893487, "lon": 76.6624164, "tags": {"comment": "May not be exact location, Please correct if wrong", "is_in": "Kottayam;Kerala;KL;India;IN", "name": "Vellilapally", "name:en": "Vellilappilly", "name:ml": "\u0d35\u0d46\u0d33\u0d4d\u0d33\u0d3f\u0d32\u0d3e\u0d2a\u0d33\u0d4d\u0d33\u0d3f", "place": "village"}}, {"type": "node", "id": 2905521641, "lat": 9.8083681, "lon": 76.5754716, "tags": {"comment": "May not be the exact location", "is_in": "Kottayam;Kerala;KL;India;IN", "name": "Monipally", "name:ml": "\u0d2e\u0d4b\u0d28\u0d3f\u0d2a\u0d4d\u0d2a\u0d33\u0d4d\u0d33\u0d3f", "place": "village", "wikidata": "Q6900312", "wikipedia": "en:Monippally"}}, {"type": "node", "id": 2905529037, "lat": 9.7938909, "lon": 76.5743933, "tags": {"comment": "May not be the exact location", "is_in": "Kottayam;Kerala;KL;India;IN", "name": "Cheenkallel", "name:ml": "\u0d1a\u0d40\u0d19\u0d4d\u0d15\u0d32\u0d4d\u0d32\u0d47\u0d32\u0d4d\u200d", "place": "village"}}, {"type": "node", "id": 2905534538, "lat": 9.8313158, "lon": 76.5926245, "tags": {"comment": "May not be the exact location", "is_in": "Kottayam;Kerala;KL;India;IN", "name": "Puthuveli", "name:ml": "\u0d2a\u0d41\u0d24\u0d41\u0d35\u0d47\u0d32\u0d3f", "place": "village", "wikidata": "Q7262277", "wikipedia": "en:Puthuvely"}}, {"type": "node", "id": 2905536264, "lat": 9.929089, "lon": 76.577336, "tags": {"comment": "May not be the exact location", "is_in": "Kerala;KL;India;IN", "name": "Meenkunnam", "name:ml": "\u0d2e\u0d40\u0d19\u0d4d\u0d15\u0d41\u0d28\u0d4d\u0d28\u0d02", "place": "village", "wikidata": "Q15252704", "wikimedia_commons": "Category:Meenkunnam", "wikipedia": "en:Meenkunnam"}}, {"type": "node", "id": 2905873494, "lat": 10.0281759, "lon": 76.877539, "tags": {"comment": "not exact location", "is_in": "Kerala;KL;India;IN", "name": "Irumbu Palam", "name:ml": "\u0d07\u0d30\u0d3f\u0d2e\u0d4d\u0d2a\u0d41 \u0d2a\u0d3e\u0d32\u0d02", "place": "village"}}, {"type": "node", "id": 2905893441, "lat": 9.9883519, "lon": 76.9854033, "tags": {"comment": "not exact location", "is_in": "Kerala;KL;India;IN", "name": "Ayiram Acre", "name:ml": "\u0d06\u0d2f\u0d3f\u0d30\u0d02 \u0d0f\u0d15\u0d4d\u0d15\u0d7c", "place": "village"}}, {"type": "node", "id": 2905893442, "lat": 9.9980104, "lon": 76.9732649, "tags": {"comment": "not exact location", "is_in": "Kerala;KL;India;IN", "name": "Irunnoor Acre", "name:ml": "\u0d07\u0d30\u0d41\u0d28\u0d4d\u0d28\u0d42\u0d31\u0d47\u0d15\u0d4d\u0d15\u0d7c", "place": "village"}}, {"type": "node", "id": 2905893443, "lat": 9.9538011, "lon": 76.9750173, "tags": {"comment": "not exact location", "is_in": "Kerala;KL;India;IN", "name": "Panamkutty", "name:ml": "\u0d2a\u0d28\u0d02\u0d15\u0d41\u0d1f\u0d4d\u0d1f\u0d3f", "place": "village"}}, {"type": "node", "id": 2905983449, "lat": 9.6855828, "lon": 76.7771601, "tags": {"comment": "not exact location", "is_in": "Kerala;KL;India;IN", "name": "Aruvithura", "name:ml": "\u0d05\u0d30\u0d41\u0d35\u0d3f\u0d24\u0d4d\u0d24\u0d41\u0d31", "place": "village"}}, {"type": "node", "id": 2906166022, "lat": 9.6994052, "lon": 76.6911615, "tags": {"name": "Kannadiyurunbu", "name:en": "Kannadiyurumbu", "name:ml": "\u0d15\u0d23\u0d4d\u0d23\u0d3e\u0d1f\u0d3f\u0d2f\u0d41\u0d31\u0d41\u0d2e\u0d4d\u0d2a\u0d4d", "place": "village"}}, {"type": "node", "id": 2906166028, "lat": 9.7014187, "lon": 76.7015136, "tags": {"name": "Parappalli", "name:en": "Parappalli", "name:ml": "\u0d2a\u0d3e\u0d31\u0d2a\u0d4d\u0d2a\u0d33\u0d4d\u0d33\u0d3f", "place": "village"}}, {"type": "node", "id": 2909519386, "lat": 9.7332756, "lon": 76.8680113, "tags": {"comment": "May not be exact location", "name": "Pullikkanam", "name:ml": "\u0d2a\u0d41\u0d33\u0d4d\u0d33\u0d3f\u0d15\u0d4d\u0d15\u0d3e\u0d28\u0d02", "place": "village"}}, {"type": "node", "id": 2909520769, "lat": 9.8925709, "lon": 76.8404377, "tags": {"comment": "May not be exact location", "name": "Cheenikuzhi Kurisupally", "place": "village"}}, {"type": "node", "id": 2909532532, "lat": 9.6612239, "lon": 76.9198143, "tags": {"comment": "May not be exact location", "name": "Kolahalamedu", "name:ml": "\u0d15\u0d4b\u0d32\u0d3e\u0d39\u0d32\u0d2e\u0d47\u0d1f\u0d4d", "place": "village"}}, {"type": "node", "id": 2909545861, "lat": 9.7149829, "lon": 76.8926542, "tags": {"comment": "May not be exact location", "name": "Chottupara", "name:ml": "\u0d1a\u0d4b\u0d31\u0d4d\u0d31\u0d41\u0d2a\u0d3e\u0d31", "place": "village"}}, {"type": "node", "id": 2909557320, "lat": 9.7041781, "lon": 76.7420765, "tags": {"comment": "May not be exact location", "is_in": "Kottayam;Kerala;KL;India;IN", "is_in:country": "india", "is_in:district": "kottayam", "is_in:state": "Kerala", "name": "Ampara", "name:en": "Ampara", "name:ml": "\u0d05\u0d2e\u0d4d\u0d2a\u0d3e\u0d31", "place": "village"}}, {"type": "node", "id": 2909557321, "lat": 9.7091744, "lon": 76.711935, "tags": {"is_in": "Kottayam;Kerala;KL;India;IN", "name": "Idappadi (edappady)", "name:en": "Idappadi (Edappady)", "name:ml": "\u0d07\u0d1f\u0d2a\u0d4d\u0d2a\u0d3e\u0d1f\u0d3f", "place": "village"}}, {"type": "node", "id": 2909557323, "lat": 9.7040343, "lon": 76.745478, "tags": {"alt_name:en": "Melambara", "comment": "May not be exact location", "is_in": "Kottayam;Kerala;KL;India;IN", "is_in:country": "india", "is_in:district": "kottayam", "is_in:state": "Kerala", "name": "Melampara", "name:en": "Melampara", "name:ml": "\u0d2e\u0d47\u0d32\u0d2e\u0d4d\u0d2a\u0d3e\u0d31", "place": "village", "postal_code": "686578"}}, {"type": "node", "id": 2909644684, "lat": 9.6548312, "lon": 76.6644452, "tags": {"comment": "May not be exact location", "is_in": "Kottayam;Kerala;KL;India;IN", "is_in:country": "india", "is_in:district": "kottayam", "is_in:state": "Kerala", "name": "Kozhuvanal", "name:en": "Kozhuvanal", "name:ml": "\u0d15\u0d4a\u0d34\u0d41\u0d35\u0d28\u0d3e\u0d7d", "place": "village", "wikidata": "Q6435254", "wikipedia": "en:Kozhuvanal"}}, {"type": "node", "id": 2909651874, "lat": 9.6708115, "lon": 76.669907, "tags": {"comment": "May not be exact location", "is_in": "Kottayam;Kerala;KL;India;IN", "is_in:country": "india", "is_in:district": "kottayam", "is_in:state": "Kerala", "name": "Mevada", "name:en": "Mevada", "name:ml": "\u0d2e\u0d47\u0d35\u0d1f", "place": "village"}}, {"type": "node", "id": 2909699668, "lat": 9.6865992, "lon": 76.6939776, "tags": {"is_in:country": "india", "is_in:district": "Kottayam", "is_in:state": "Kerala", "name": "Meenachil", "name:en": "Meenachil", "name:ml": "\u0d2e\u0d40\u0d28\u0d1a\u0d4d\u0d1a\u0d3f\u0d7d", "place": "village"}}, {"type": "node", "id": 2909699669, "lat": 9.7072406, "lon": 76.6839273, "tags": {"comment": "May not be exact location", "is_in": "Pala;Kottayam;Kerala;KL;India;IN", "is_in:country": "india", "is_in:district": "kottayam", "is_in:state": "Kerala", "name": "Murikkumpuzha", "name:en": "Murikkumpuzha", "name:ml": "\u0d2e\u0d41\u0d30\u0d3f\u0d15\u0d4d\u0d15\u0d41\u0d2e\u0d4d\u0d2a\u0d41\u0d34", "place": "village"}}, {"type": "node", "id": 2909699671, "lat": 9.6685488, "lon": 76.7076397, "tags": {"comment": "May not be exact location", "is_in": "Kottayam;Kerala;KL;India;IN", "is_in:country": "india", "is_in:district": "kottayam", "is_in:state": "Kerala", "name": "Poovarani", "name:en": "Poovarani", "name:ml": "\u0d2a\u0d42\u0d35\u0d30\u0d23\u0d3f", "place": "village", "wikidata": "Q7228897", "wikipedia": "en:Poovarany"}}, {"type": "node", "id": 2914404355, "lat": 9.6852491, "lon": 76.7026339, "tags": {"name": "Palakadu", "name:en": "Palakadu", "name:ml": "\u0d2a\u0d3e\u0d32\u0d3e\u0d15\u0d4d\u0d15\u0d3e\u0d1f\u0d4d", "place": "village"}}, {"type": "node", "id": 2914406467, "lat": 9.6986535, "lon": 76.6854877, "tags": {"name": "12th Mile", "name:en": "12th Mile", "name:ml": "\u0d2a\u0d28\u0d4d\u0d24\u0d4d\u0d30\u0d23\u0d4d\u0d1f\u0d3e\u0d02 \u0d2e\u0d48\u0d7d", "place": "village"}}, {"type": "node", "id": 2914440950, "lat": 9.6699136, "lon": 76.5805398, "tags": {"name": "Vettymukal", "name:en": "Vettymukal", "name:ml": "\u0d35\u0d46\u0d1f\u0d4d\u0d1f\u0d3f\u0d2e\u0d41\u0d15\u0d7e", "place": "village"}}, {"type": "node", "id": 2914649148, "lat": 9.7554892, "lon": 76.7012776, "tags": {"name": "Anthinad", "name:en": "Anthinad", "name:ml": "\u0d05\u0d28\u0d4d\u0d24\u0d3f\u0d28\u0d3e\u0d1f\u0d4d", "place": "village", "wikidata": "Q16868936", "wikimedia_commons": "Category:Anthinad", "wikipedia": "en:Anthinad"}}, {"type": "node", "id": 2914675550, "lat": 9.809757, "lon": 76.6874079, "tags": {"addr:city": "Pala", "addr:postcode": "686651", "name": "Manathoor", "name:ml": "\u0d2e\u0d3e\u0d28\u0d24\u0d4d\u0d24\u0d42\u0d7c", "place": "village", "population": "2500", "wikidata": "Q15244477", "wikimedia_commons": "Category:Manathoor", "wikipedia": "en:Manathoor"}}, {"type": "node", "id": 2914697009, "lat": 9.8388444, "lon": 76.6789241, "tags": {"name": "Nellappara", "name:ml": "\u0d28\u0d46\u0d32\u0d4d\u0d32\u0d3e\u0d2a\u0d4d\u0d2a\u0d3e\u0d31", "place": "village"}}, {"type": "node", "id": 2921468688, "lat": 9.6993383, "lon": 76.8166368, "tags": {"name": "Teekoy", "name:ml": "\u0d24\u0d40\u0d15\u0d4d\u0d15\u0d4b\u0d2f\u0d3f", "place": "village", "wikidata": "Q7694218", "wikimedia_commons": "Category:Teekoy", "wikipedia": "en:Teekoy"}}, {"type": "node", "id": 2921628470, "lat": 9.6986164, "lon": 76.8692482, "tags": {"name": "Vellikulam", "name:ml": "\u0d35\u0d46\u0d33\u0d4d\u0d33\u0d3f\u0d15\u0d41\u0d33\u0d02", "place": "village"}}, {"type": "node", "id": 2921657284, "lat": 9.6840197, "lon": 76.8953139, "tags": {"name": "Vazhikadavu", "name:ml": "\u0d35\u0d34\u0d3f\u0d15\u0d4d\u0d15\u0d1f\u0d35\u0d4d", "place": "village"}}, {"type": "node", "id": 2985655036, "lat": 9.6573982, "lon": 76.6857406, "tags": {"name": "Thodanal", "name:en": "Thodanal", "name:ml": "\u0d24\u0d4b\u0d1f\u0d28\u0d3e\u0d7d", "place": "village"}}, {"type": "node", "id": 2986113830, "lat": 9.6515006, "lon": 76.6847678, "tags": {"name": "Kappilikunnu", "name:en": "Kappilikunnu", "name:ml": "\u0d15\u0d2a\u0d4d\u0d2a\u0d3f\u0d32\u0d3f\u0d15\u0d41\u0d28\u0d4d\u0d28\u0d4d", "place": "village"}}, {"type": "node", "id": 2986113832, "lat": 9.6555253, "lon": 76.693375, "tags": {"name": "Mandakunnu", "name:en": "Mandakunnu", "name:ml": "\u0d2e\u0d23\u0d4d\u0d1f\u0d15\u0d4d\u0d15\u0d41\u0d28\u0d4d\u0d28\u0d4d", "place": "village"}}, {"type": "node", "id": 2986116133, "lat": 9.6634307, "lon": 76.6913013, "tags": {"name": "Mannani", "name:en": "Mannani", "name:ml": "\u0d2e\u0d3e\u0d28\u0d4d\u0d28\u0d3e\u0d28\u0d3f", "place": "village"}}, {"type": "node", "id": 3007217120, "lat": 9.6629431, "lon": 76.7477979, "tags": {"name": "ChathanKkulam", "name:en": "Chathankulam", "name:ml": "\u0d1a\u0d3e\u0d24\u0d4d\u0d24\u0d7b\u0d15\u0d41\u0d33\u0d02", "place": "village"}}, {"type": "node", "id": 3007236909, "lat": 9.6393595, "lon": 76.7461138}, {"type": "node", "id": 3104118447, "lat": 9.7233786, "lon": 76.8086522, "tags": {"is_in:country": "india", "is_in:district": "kottayam", "is_in:state": "Kerala", "name": "Thalanad", "name:ml": "\u0d24\u0d32\u0d28\u0d3e\u0d1f\u0d4d", "place": "village", "wikidata": "Q7709516", "wikipedia": "en:Thalanadu"}}, {"type": "node", "id": 3177442202, "lat": 9.7385938, "lon": 76.7214815, "tags": {"name": "Areekkakunnu", "name:en": "Areekkakunnu", "name:ml": "\u0d05\u0d30\u0d40\u0d15\u0d4d\u0d15\u0d15\u0d41\u0d28\u0d4d\u0d28\u0d4d", "place": "village"}}, {"type": "node", "id": 3249487933, "lat": 9.8547893, "lon": 76.6143351, "tags": {"name": "Ayinumakkal", "place": "village"}}, {"type": "node", "id": 3286245537, "lat": 9.720094, "lon": 76.5687341, "tags": {"name": "Kallalipalam", "name:ml": "\u0d15\u0d32\u0d4d\u0d32\u0d3e\u0d32\u0d3f\u0d2a\u0d3e\u200d\u0d32\u0d02", "place": "village"}}, {"type": "node", "id": 3357397862, "lat": 9.921132, "lon": 76.6812243, "tags": {"name": "Madakkathanam", "name:ml": "\u0d2e\u0d1f\u0d15\u0d4d\u0d15\u0d24\u0d4d\u0d24\u0d3e\u0d28\u0d02", "place": "village", "wikidata": "Q6726195", "wikipedia": "en:Madakkathanam"}}, {"type": "node", "id": 3410982540, "lat": 9.6811872, "lon": 76.5667219, "tags": {"name": "Vallikkad", "name:ml": "\u0d35\u0d33\u0d4d\u0d33\u0d3f\u0d15\u0d4d\u0d15\u0d3e\u0d1f\u0d4d", "place": "village"}}, {"type": "node", "id": 3412340128, "lat": 9.7564251, "lon": 76.6041046, "tags": {"name": "Nedumbara", "name:ml": "\u0d28\u0d46\u0d1f\u0d41\u0d02\u0d2a\u0d3e \u0d31", "place": "village"}}, {"type": "node", "id": 3412647435, "lat": 9.7966745, "lon": 76.5909546, "tags": {"name": "Chettukulam", "name:ml": "\u0d1a\u0d47\u0d31\u0d4d\u0d31\u0d41\u0d15\u0d41\u0d33\u0d02", "place": "village"}}, {"type": "node", "id": 3870455565, "lat": 9.910549, "lon": 76.6074631, "tags": {"alt_name:en": "Pandapilly", "name": "Pandappilly", "name:ml": "\u0d2a\u0d23\u0d4d\u0d1f\u0d2a\u0d4d\u0d2a\u0d3f\u0d33\u0d4d\u0d33\u0d3f", "place": "village"}}, {"type": "node", "id": 3870455566, "lat": 9.9349134, "lon": 76.5989777, "tags": {"alt_name:en": "Moozhy", "name": "Moozhi", "name:ml": "\u0d2e\u0d42\u0d34\u0d3f", "place": "village"}}, {"type": "node", "id": 3870455567, "lat": 9.912244, "lon": 76.6349246, "tags": {"name": "Parakaddavu", "name:ml": "\u0d2a\u0d3e\u0d31\u0d15\u0d4d\u0d15\u0d1f\u0d35\u0d4d", "place": "village"}}, {"type": "node", "id": 3870646244, "lat": 10.0880707, "lon": 76.6088628, "tags": {"name": "Ayakkadu", "name:ml": "\u0d06\u0d2f\u0d15\u0d4d\u0d15\u0d3e\u0d1f\u0d4d \u0d1c\u0d19\u0d4d\u0d37\u0d7b", "place": "village"}}, {"type": "node", "id": 3874242975, "lat": 9.8325276, "lon": 76.5700597, "tags": {"name": "Mutholapuram", "name:ml": "\u0d2e\u0d41\u0d24\u0d4d\u0d24\u0d4b\u0d32\u0d2a\u0d41\u0d30\u0d02", "place": "village", "wikidata": "Q15260445", "wikipedia": "en:Mutholapuram"}}, {"type": "node", "id": 3874274728, "lat": 9.8826179, "lon": 76.6317002, "tags": {"is_in": "Idukki;Kerala;KL;India;IN", "is_in:country": "india", "is_in:district": "Idukki", "is_in:state": "kerala", "name": "Marika", "name:ml": "\u0d2e\u0d3e\u200d\u0d31\u0d3f\u0d15", "place": "village"}}, {"type": "node", "id": 3874274730, "lat": 9.88443, "lon": 76.643701, "tags": {"is_in": "Idukki;Kerala;KL;India;IN", "is_in:country": "india", "is_in:district": "Idukki", "is_in:state": "kerala", "name": "Vazhithala", "name:ml": "\u0d35\u0d34\u0d3f\u0d24\u0d4d\u0d24\u0d32", "place": "village", "wikidata": "Q7917618", "wikipedia": "en:Vazhithala"}}, {"type": "node", "id": 3874495523, "lat": 9.9587192, "lon": 76.7419221, "tags": {"is_in": "Idukki;Kerala;KL;India;IN", "is_in:country": "india", "is_in:district": "Idukki", "is_in:state": "kerala", "name": "Kodikulam West", "place": "village"}}, {"type": "node", "id": 3874495526, "lat": 9.9966812, "lon": 76.7835988, "tags": {"name": "Ambalapady", "place": "village"}}, {"type": "node", "id": 3876053163, "lat": 9.8886338, "lon": 76.5716046, "tags": {"name": "Oliyapuram", "name:ml": "\u0d12\u0d33\u0d3f\u0d2f\u0d2a\u0d4d\u0d2a\u0d41\u0d31\u0d02", "place": "village"}}, {"type": "node", "id": 3876053165, "lat": 9.8820109, "lon": 76.6064651, "tags": {"is_in": "Ernakulam;Kerala;KL;India;IN", "is_in:country": "india", "is_in:district": "Ernakulam", "is_in:state": "kerala", "name": "Palakuzha", "name:ml": "\u0d2a\u0d3e\u0d32\u0d15\u0d4d\u0d15\u0d41\u0d34", "place": "village", "wikidata": "Q7126636", "wikipedia": "en:Palakkuzha"}}, {"type": "node", "id": 3876053168, "lat": 9.8890235, "lon": 76.5912446, "tags": {"name": "Uppukandam", "name:ml": "\u0d09\u0d2a\u0d4d\u0d2a\u0d41\u0d15\u0d23\u0d4d\u0d1f\u0d02", "place": "village"}}, {"type": "node", "id": 3876059581, "lat": 9.8520628, "lon": 76.6860858, "tags": {"name": "Karimkunnum", "name:ml": "\u0d15\u0d30\u0d3f\u0d02\u0d15\u0d41\u0d28\u0d4d\u0d28\u0d02", "place": "village", "wikidata": "Q6370774", "wikipedia": "en:Karimkunnam (village)"}}, {"type": "node", "id": 3923067769, "lat": 9.9673436, "lon": 76.909105, "tags": {"name": "Pazhayarikandom", "name:ml": "\u0d2a\u0d34\u0d2f\u0d30\u0d3f\u0d15\u0d4d\u0d15\u0d23\u0d4d\u0d1f\u0d02", "place": "village"}}, {"type": "node", "id": 3960117260, "lat": 9.6912052, "lon": 76.8440242, "tags": {"name": "Velathusseri", "name:ml": "\u0d35\u0d47\u0d32\u0d24\u0d4d\u0d24\u0d41\u0d36\u0d4d\u0d36\u0d47\u0d30\u0d3f", "place": "village", "wikidata": "Q101189580"}}, {"type": "node", "id": 4007415694, "lat": 9.7910035, "lon": 76.8537047, "tags": {"name": "Moolamattom", "name:ml": "\u0d2e\u0d42\u0d32\u0d2e\u0d31\u0d4d\u0d31\u0d02", "place": "village", "wikidata": "Q6907357", "wikimedia_commons": "Category:Moolamattom", "wikipedia": "en:Moolamattom"}}, {"type": "node", "id": 4009158823, "lat": 9.7952426, "lon": 76.8879338, "tags": {"name": "Kulamavu", "name:ml": "\u0d15\u0d41\u0d33\u0d2e\u0d3e\u0d35\u0d4d", "place": "village"}}, {"type": "node", "id": 4012389901, "lat": 9.8564465, "lon": 76.9875977, "tags": {"name": "Mariyapuram", "name:ml": "\u0d2e\u0d30\u0d3f\u0d2f\u0d3e\u0d2a\u0d41\u0d30\u0d02", "place": "village"}}, {"type": "node", "id": 4081008459, "lat": 9.79862, "lon": 76.7999355, "tags": {"name": "Chakkikavu", "name:ml": "\u0d1a\u0d15\u0d4d\u0d15\u0d3f\u0d15\u0d4d\u0d15\u0d3e\u0d35\u0d4d", "place": "village"}}, {"type": "node", "id": 4214846473, "lat": 9.9542905, "lon": 76.9321479, "tags": {"name": "Kanjikkuzhy", "name:ml": "\u0d15\u0d1e\u0d4d\u0d1e\u0d3f\u0d15\u0d4d\u0d15\u0d41\u0d34\u0d3f", "place": "village", "wikidata": "Q6363449", "wikipedia": "en:Kanjikuzhi"}}, {"type": "node", "id": 4214847304, "lat": 9.9744604, "lon": 76.8713141, "tags": {"name": "Venmani", "name:ml": "\u0d35\u0d46\u0d7a\u0d2e\u0d23\u0d3f", "place": "village"}}, {"type": "node", "id": 4345651301, "lat": 9.9752006, "lon": 76.7818129, "tags": {"name": "Kaliyar", "name:ml": "\u0d15\u0d3e\u0d33\u0d3f\u0d2f\u0d3e\u0d7c", "place": "village"}}, {"type": "node", "id": 4345656007, "lat": 9.9383874, "lon": 76.9645968, "tags": {"name": "Keerithodu", "name:ml": "\u0d15\u0d40\u0d30\u0d3f\u0d24\u0d4d\u0d24\u0d4b\u0d1f\u0d4d", "place": "village"}}, {"type": "node", "id": 4353972972, "lat": 9.990651, "lon": 76.7906145, "tags": {"name": "Vannappuram", "name:ml": "\u0d35\u0d23\u0d4d\u0d23\u0d2a\u0d4d\u0d2a\u0d41\u0d31\u0d02", "place": "village", "website": "http://lsgkerala.in/vannappurampanchayat/", "wikidata": "Q7915102", "wikipedia": "en:Vannappuram"}}, {"type": "node", "id": 5884422408, "lat": 9.9941163, "lon": 76.7592658, "tags": {"name": "Njaarakkad", "name:ml": "\u0d1e\u0d3e\u0d31\u0d15\u0d4d\u0d15\u0d3e\u0d1f\u0d4d", "place": "village"}}, {"type": "node", "id": 6139268391, "lat": 9.7049967, "lon": 76.5892971, "tags": {"name": "Koodalloor", "name:ml": "\u0d15\u0d42\u0d1f\u0d32\u0d4d\u0d32\u0d42\u0d30\u0d4d\u200d", "place": "village"}}, {"type": "node", "id": 6263142096, "lat": 9.7191579, "lon": 76.9756931, "tags": {"name": "Valacode", "name:ml": "\u0d35\u0d33\u0d15\u0d4b\u0d1f\u0d4d", "place": "village"}}, {"type": "node", "id": 6315947361, "lat": 9.6393663, "lon": 76.7502768}, {"type": "node", "id": 6315947362, "lat": 9.6421106, "lon": 76.7538773}, {"type": "node", "id": 6315947363, "lat": 9.6449578, "lon": 76.7568502}, {"type": "node", "id": 6315947364, "lat": 9.6498287, "lon": 76.7580252}, {"type": "node", "id": 6315947365, "lat": 9.653876, "lon": 76.7520511}, {"type": "node", "id": 6315947366, "lat": 9.6544622, "lon": 76.7451992}, {"type": "node", "id": 6315947367, "lat": 9.6511519, "lon": 76.7374444}, {"type": "node", "id": 6315947368, "lat": 9.6429899, "lon": 76.7372431}, {"type": "node", "id": 6315947369, "lat": 9.6405335, "lon": 76.741476}, {"type": "node", "id": 6812459510, "lat": 9.8229964, "lon": 76.7012979, "tags": {"name": "Mattathipara", "name:ml": "\u0d2e\u0d31\u0d4d\u0d31\u0d24\u0d4d\u0d24\u0d3f\u0d2a\u0d4d\u0d2a\u0d3e\u0d31", "place": "village", "wikipedia": "en:Mattathippara"}}, {"type": "node", "id": 6919662691, "lat": 9.6714121, "lon": 76.7813531, "tags": {"name": "Veyilkanampara", "name:ml": "\u0d35\u0d46\u0d2f\u0d3f\u0d32\u0d4d\u200d\u0d15\u0d3e\u0d23\u0d3e\u0d02\u0d2a\u0d3e\u0d31", "place": "village"}}, {"type": "node", "id": 7310532098, "lat": 9.7973586, "lon": 76.6455656, "tags": {"is_in": "Kottayam;Kerala;KL;India;IN", "is_in:country": "india", "is_in:district": "Kottayam", "is_in:state": "kerala", "name": "Kondadu", "name:ml": "\u0d15\u0d4a\u0d23\u0d4d\u0d1f\u0d3e\u0d1f\u0d4d", "place": "village"}}, {"type": "node", "id": 7317776220, "lat": 10.0002887, "lon": 76.7421994, "tags": {"district": "Eranakulam", "name": "Kadavoor", "name:ml": "\u0d15\u0d1f\u0d35\u0d42\u0d7c", "place": "village", "postal_code": "686671", "wikidata": "Q783857", "wikimedia_commons": "Category:Kadavoor", "wikipedia": "en:Kadavoor"}}, {"type": "node", "id": 7340386538, "lat": 9.8126182, "lon": 76.6125012, "tags": {"name": "Areekara", "name:ml": "\u0d05\u0d30\u0d40\u0d15\u0d4d\u0d15\u0d30", "place": "village"}}, {"type": "node", "id": 7391480782, "lat": 9.9805373, "lon": 76.7398667, "tags": {"name": "Parapuzha", "name:ml": "\u0d2a\u0d3e\u0d31\u0d2a\u0d4d\u0d2a\u0d41\u0d34", "place": "village"}}, {"type": "node", "id": 7391480783, "lat": 9.9952033, "lon": 76.6360277, "tags": {"name": "Kalampoor", "place": "village"}}, {"type": "node", "id": 7391480784, "lat": 9.9840084, "lon": 76.6379428, "tags": {"name": "Ayavana", "place": "village"}}, {"type": "node", "id": 7391503585, "lat": 10.0040363, "lon": 76.6593039, "tags": {"name": "Pulinthanam", "place": "village"}}, {"type": "node", "id": 7391503619, "lat": 10.0047337, "lon": 76.6908145, "tags": {"name": "Ayamkara", "name:ml": "\u0d05\u0d2f\u0d19\u0d4d\u0d15\u0d30", "place": "village"}}, {"type": "node", "id": 7391503637, "lat": 10.0063555, "lon": 76.6813356, "tags": {"name": "Pothanicad", "name:ml": "\u0d2a\u0d4b\u0d24\u0d4d\u0d24\u0d3e\u0d28\u0d3f\u0d15\u0d4d\u0d15\u0d3e\u0d1f\u0d4d\u200c", "place": "village"}}, {"type": "node", "id": 7391503638, "lat": 9.9927995, "lon": 76.7069185, "tags": {"name": "Kulappuram", "place": "village"}}, {"type": "node", "id": 7394716411, "lat": 10.0922586, "lon": 76.8157303, "tags": {"place": "village"}}, {"type": "node", "id": 7445174317, "lat": 9.9503435, "lon": 76.7663329, "tags": {"name": "Kodikulam", "name:ml": "\u0d15\u0d4a\u0d1f\u0d3f\u0d15\u0d41\u0d33\u0d02", "place": "village"}}, {"type": "node", "id": 7446969061, "lat": 10.0184091, "lon": 76.6275925, "tags": {"name": "Varappetty", "place": "village", "postal_code": "686691", "wikidata": "Q7915465", "wikipedia": "en:Varappetty"}}, {"type": "node", "id": 7462502678, "lat": 9.8733852, "lon": 76.7772071, "tags": {"check_date": "2020-04-28", "name": "Kalayanthani", "name:ml": "\u0d15\u0d32\u0d2f\u0d28\u0d4d\u0d24\u0d3e\u0d28\u0d3f", "place": "village", "wikidata": "Q12060936", "wikimedia_commons": "Category:Kalayanthani", "wikipedia": "en:Kalayanthani"}}, {"type": "node", "id": 7473876248, "lat": 9.9292712, "lon": 76.6058479, "tags": {"name": "Arakuzha", "name:ml": "\u0d06\u0d30\u0d15\u0d4d\u0d15\u0d41\u0d34", "place": "village", "wikidata": "Q4783867", "wikipedia": "en:Arakuzha"}}, {"type": "node", "id": 7475739873, "lat": 9.9082417, "lon": 76.7624234, "tags": {"name": "Chalassery", "name:ml": "\u0d1a\u0d3e\u0d32\u0d3e\u0d36\u0d4d\u0d36\u0d47\u0d30\u0d3f", "place": "village"}}, {"type": "node", "id": 7477725650, "lat": 9.8296182, "lon": 76.6073889, "tags": {"name": "Veliyannoor", "name:ml": "\u0d35\u0d46\u0d33\u0d3f\u0d2f\u0d28\u0d4d\u0d28\u0d42\u0d7c", "place": "village"}}, {"type": "node", "id": 7498219198, "lat": 9.8747128, "lon": 76.959695, "tags": {"name": "Vazhathope", "name:ml": "\u0d35\u0d3e\u0d34\u0d24\u0d4d\u0d24\u0d4b\u0d2a\u0d4d\u0d2a\u0d4d", "place": "village"}}, {"type": "node", "id": 7499989243, "lat": 9.8923919, "lon": 76.939311, "tags": {"name": "Pallicity", "place": "village"}}, {"type": "node", "id": 7529365784, "lat": 9.8178675, "lon": 76.8097785, "tags": {"name": "Kanjar", "name:ml": "\u0d15\u0d3e\u0d1e\u0d4d\u0d1e\u0d3e\u0d7c", "place": "village"}}, {"type": "node", "id": 7883247672, "lat": 9.6891752, "lon": 76.9691741, "tags": {"name": "Pasuppara", "name:ml": "\u0d2a\u0d36\u0d41\u0d2a\u0d4d\u0d2a\u0d3e\u0d31", "place": "village"}}, {"type": "node", "id": 7948504191, "lat": 9.6677814, "lon": 76.9568576, "tags": {"name": "Kochukarimtharuvi", "name:ml": "\u0d15\u0d4a\u0d1a\u0d4d\u0d1a\u0d41\u0d15\u0d30\u0d3f\u0d28\u0d4d\u0d24\u0d30\u0d41\u0d35\u0d3f", "place": "village"}}, {"type": "node", "id": 8396872939, "lat": 10.0400814, "lon": 76.5852883, "tags": {"name": "Cheruvattur", "name:ml": "\u0d1a\u0d46\u0d31\u0d41\u0d35\u0d1f\u0d4d\u0d1f\u0d42\u0d7c", "place": "village"}}, {"type": "node", "id": 8399929045, "lat": 10.0298782, "lon": 76.6660389, "tags": {"name": "Pallarimangalam", "place": "village"}}, {"type": "node", "id": 8459318942, "lat": 9.7666947, "lon": 76.6523033, "tags": {"is_in": "Kottayam;Kerala;KL;India;IN", "is_in:country": "india", "is_in:district": "kottayam", "is_in:state": "Kerala", "name": "Chakkampuzha", "name:en": "Chakkampuzha", "name:ml": "\u0d1a\u0d15\u0d4d\u0d15\u0d3e\u0d2e\u0d4d\u0d2a\u0d41\u0d34", "place": "village"}}, {"type": "node", "id": 8859297118, "lat": 9.7718897, "lon": 76.6310229}, {"type": "node", "id": 8875516753, "lat": 9.89269, "lon": 76.745002, "tags": {"name": "Edavetty", "name:ml": "\u0d07\u0d1f\u0d35\u0d46\u0d1f\u0d4d\u0d1f\u0d3f", "place": "village"}}, {"type": "node", "id": 8922092653, "lat": 9.843362, "lon": 76.8503029, "tags": {"addr:city": "Thodupuzha", "district": "Idukki", "name": "Poomala", "name:ml": "\u0d2a\u0d42\u0d2e\u0d3e\u0d32", "place": "village"}}, {"type": "node", "id": 9154166089, "lat": 10.0874418, "lon": 76.834448, "tags": {"name": "Elamblassery Colony", "place": "village"}}, {"type": "node", "id": 9280022059, "lat": 9.6411779, "lon": 76.7526536}, {"type": "node", "id": 9280264575, "lat": 9.6395736, "lon": 76.7505487}, {"type": "node", "id": 9280264576, "lat": 9.6397692, "lon": 76.7507998}, {"type": "node", "id": 9315053180, "lat": 9.6405855, "lon": 76.7413864}, {"type": "node", "id": 9595217574, "lat": 9.7083881, "lon": 76.7615709, "tags": {"addr:state": "Kerala", "country": "IN", "description": "May not be the exact location.", "district": "Kottayam", "name": "Plassanal", "name:ml": "\u0d2a\u0d4d\u0d32\u0d3e\u0d36\u0d28\u0d3e\u0d7d", "place": "village", "postal_code": "686579"}}, {"type": "node", "id": 9717497265, "lat": 9.8243629, "lon": 76.8648441, "tags": {"addr:city": "Thodupuzha", "addr:country": "IN", "addr:district": "idukki", "addr:state": "Kerala", "addr:street": "Poomala", "name": "Naliyani", "name:ml": "\u0d28\u0d3e\u0d33\u0d3f\u0d2f\u0d3e\u0d28\u0d3f", "place": "village"}}, {"type": "node", "id": 10230126197, "lat": 9.704247, "lon": 76.6268247, "tags": {"name": "Mariyidom", "name:ml": "\u0d2e\u0d3e\u0d31\u0d3f\u0d1f\u0d02", "place": "village"}}, {"type": "node", "id": 10288032076, "lat": 10.0787914, "lon": 76.5819349, "tags": {"name": "Eramalloor", "name:ml": "\u0d0e\u0d30\u0d2e\u0d32\u0d4d\u0d32\u0d42\u0d7c", "place": "village"}}, {"type": "node", "id": 10548556959, "lat": 9.6812811, "lon": 76.6279375, "tags": {"name": "Chempilavu", "name:en": "Chempilavu", "name:ml": "\u0d1a\u0d46\u0d2e\u0d4d\u0d2a\u0d3f\u0d33\u0d3e\u0d35\u0d4d", "place": "village"}}, {"type": "node", "id": 10548556960, "lat": 9.7431847, "lon": 76.5921032, "tags": {"name": "Elackadu", "name:ml": "\u0d07\u0d32\u0d2f\u0d4d\u0d15\u0d4d\u0d15\u0d3e\u0d1f\u0d4d", "place": "village"}}, {"type": "node", "id": 10548556961, "lat": 9.6859937, "lon": 76.5752233, "tags": {"name": "Clamattom", "name:en": "Clamattom", "name:ml": "\u0d15\u0d4d\u0d32\u0d3e\u0d2e\u0d31\u0d4d\u0d31\u0d02", "place": "village"}}, {"type": "node", "id": 10548556962, "lat": 9.6646271, "lon": 76.6001626, "tags": {"name": "Punnathura East", "name:en": "Punnathura East", "name:ml": "\u0d2a\u0d41\u0d28\u0d4d\u0d28\u0d24\u0d4d\u0d24\u0d41\u0d31 \u0d15\u0d3f\u0d34\u0d15\u0d4d\u0d15\u0d4d", "place": "village"}}, {"type": "node", "id": 10548556963, "lat": 9.6603336, "lon": 76.5859778, "tags": {"name": "Punnathura West", "name:en": "Punnathura West", "name:ml": "\u0d2a\u0d41\u0d28\u0d4d\u0d28\u0d24\u0d4d\u0d24\u0d41\u0d31 \u0d2a\u0d1f\u0d3f\u0d1e\u0d4d\u0d1e\u0d3e\u0d31\u0d4d", "place": "village"}}, {"type": "node", "id": 10584936487, "lat": 9.7364384, "lon": 76.5767639, "tags": {"name": "Madayakunnu", "name:ml": "\u0d2e\u0d1f\u0d2f\u0d15\u0d41\u0d28\u0d4d\u0d28\u0d4d", "place": "village"}}, {"type": "node", "id": 10584936488, "lat": 9.7345446, "lon": 76.599709, "tags": {"name": "Kunukkumpara", "name:ml": "\u0d15\u0d41\u0d23\u0d41\u0d15\u0d4d\u0d15\u0d41\u0d02\u0d2a\u0d3e\u0d31", "place": "village"}}, {"type": "node", "id": 10584936489, "lat": 9.7282463, "lon": 76.5898059, "tags": {"name": "Nellikkunnu", "name:ml": "\u0d28\u0d46\u0d32\u0d4d\u0d32\u0d3f\u0d15\u0d4d\u0d15\u0d41\u0d28\u0d4d\u0d28\u0d4d", "place": "village"}}, {"type": "node", "id": 10584936490, "lat": 9.7497108, "lon": 76.5827498, "tags": {"name": "Kakkinikadu", "name:ml": "\u0d15\u0d15\u0d4d\u0d15\u0d3f\u0d28\u0d3f\u0d15\u0d4d\u0d15\u0d3e\u0d1f\u0d4d\u200c", "place": "village"}}, {"type": "node", "id": 10585014371, "lat": 9.7235578, "lon": 76.5948071, "tags": {"name": "Puthanangadi", "name:ml": "\u0d2a\u0d41\u0d24\u0d4d\u0d24\u0d28\u0d19\u0d4d\u0d19\u0d3e\u0d1f\u0d3f", "place": "village"}}, {"type": "node", "id": 10604018291, "lat": 9.7445874, "lon": 76.5761513, "tags": {"name": "Nechimattom", "name:ml": "\u0d28\u0d46\u0d1a\u0d4d\u0d1a\u0d3f\u0d2e\u0d31\u0d4d\u0d31\u0d02", "place": "village"}}, {"type": "node", "id": 10620778244, "lat": 9.7050185, "lon": 76.6357246, "tags": {"name": "Kizhakke Mariyidom", "name:ml": "\u0d15\u0d3f\u0d34\u0d15\u0d4d\u0d15\u0d47 \u0d2e\u0d31\u0d3f\u0d2f\u0d3f\u0d1f\u0d02", "place": "village"}}, {"type": "node", "id": 10741449559, "lat": 9.6889236, "lon": 76.6257194, "tags": {"name": "Kummannoor", "name:en": "Kummannoor", "name:ml": "\u0d15\u0d41\u0d2e\u0d4d\u0d2e\u0d23\u0d4d\u0d23\u0d42\u0d7c", "place": "village"}}, {"type": "node", "id": 10860238243, "lat": 9.6738945, "lon": 76.9772204, "tags": {"name": "Cheenthalar", "name:ml": "\u0d1a\u0d40\u0d28\u0d4d\u0d24\u0d32\u0d3e\u0d7c", "place": "village"}}, {"type": "node", "id": 10873880326, "lat": 9.919292, "lon": 76.9628876, "tags": {"name": "Chelachuvadu", "name:ml": "\u0d1a\u0d47\u0d32\u0d1a\u0d4d\u0d1a\u0d41\u0d35\u0d1f\u0d4d", "place": "village"}}, {"type": "node", "id": 11014634476, "lat": 9.692514, "lon": 76.6761391, "tags": {"name": "Velliappally", "name:en": "Velliappally", "name:ml": "\u0d35\u0d32\u0d3f\u0d2f\u0d2a\u0d33\u0d4d\u0d33\u0d3f", "place": "village"}}, {"type": "node", "id": 11014634477, "lat": 9.6882507, "lon": 76.6660543, "tags": {"name": "Panthatthala", "name:en": "Panthatthala", "name:ml": "\u0d2a\u0d28\u0d4d\u0d24\u0d24\u0d4d\u0d24\u0d32", "place": "village"}}, {"type": "node", "id": 11014642463, "lat": 9.6963702, "lon": 76.7095164, "tags": {"name": "Kizhaparayar", "name:en": "Kizhaparayar", "name:ml": "\u0d15\u0d3f\u0d34\u0d2a\u0d31\u0d2f\u0d3e\u0d7c", "place": "village"}}, {"type": "node", "id": 11014642464, "lat": 9.6835881, "lon": 76.7226556, "tags": {"name": "Edamattom", "name:en": "Edamattom", "name:ml": "\u0d07\u0d1f\u0d2e\u0d31\u0d4d\u0d31\u0d02", "place": "village"}}, {"type": "node", "id": 11108964675, "lat": 9.6431988, "lon": 76.7550135}, {"type": "node", "id": 11443387236, "lat": 9.6608149, "lon": 76.6287221, "tags": {"name": "Paduva", "place": "village"}}, {"type": "node", "id": 11443387237, "lat": 9.6684145, "lon": 76.6458334, "tags": {"name": "Kezhuvamkulam", "place": "village"}}, {"type": "node", "id": 11460220191, "lat": 9.6521163, "lon": 76.6429846, "tags": {"name": "Nellikkunnu", "place": "village"}}, {"type": "node", "id": 11460220193, "lat": 9.6501581, "lon": 76.6155097, "tags": {"name": "Kongandoor", "place": "village"}}, {"type": "node", "id": 11460327448, "lat": 9.6674745, "lon": 76.6186997, "tags": {"name": "Chirappuram", "place": "village"}}, {"type": "node", "id": 11460327449, "lat": 9.6734682, "lon": 76.6098761, "tags": {"name": "Kidangoor South", "place": "village"}}, {"type": "way", "id": 89395428, "nodes": [1036911794, 1036911796, 1036911798, 1036911800, 1036911802, 2757601409, 1036911803, 1036911805, 1036911808, 1036911809, 1036911810, 1036911812, 1036911814, 1036911815, 8859297118, 1036911817, 2757601410, 2757601411, 2757601412, 1036911794], "tags": {"area": "no", "boundary": "yes", "name": "Kudakkachira", "name:ml": "\u0d15\u0d41\u0d1f\u0d15\u0d4d\u0d15\u0d1a\u0d4d\u0d1a\u0d3f\u0d31", "place": "village", "population": "1000"}}, {"type": "way", "id": 674415029, "nodes": [3007236909, 6315947361, 9280264575, 9280264576, 9280022059, 6315947362, 11108964675, 6315947363, 6315947364, 6315947365, 6315947366, 6315947367, 6315947368, 9315053180, 6315947369, 3007236909], "tags": {"name": "Mallikashery", "place": "village"}}]}