{"version": 0.6, "generator": "Overpass API 0.7.62.1 084b4234", "osm3s": {"timestamp_osm_base": "2024-11-07T07:13:19Z", "copyright": "The data included in this document is from www.openstreetmap.org. The data is made available under ODbL."}, "elements": [{"type": "node", "id": 307508617, "lat": 9.4020713, "lon": 76.66772, "tags": {"name": "Vennikulam", "name:ml": "\u0d35\u0d46\u0d23\u0d4d\u0d23\u0d3f\u0d15\u0d41\u0d33\u0d02", "place": "village", "wikidata": "Q30621481", "wikipedia": "en:Vennikulam"}}, {"type": "node", "id": 425164777, "lat": 9.4349643, "lon": 76.6103113, "tags": {"name": "Kunnamthanam", "name:en": "Kunnamthanam", "name:ml": "\u0d15\u0d41\u0d28\u0d4d\u0d28\u0d28\u0d4d\u0d24\u0d3e\u0d28\u0d02", "place": "village", "wikidata": "Q6444918", "wikipedia": "en:Kunnamthanam"}}, {"type": "node", "id": 425248530, "lat": 9.4058829, "lon": 76.6093008, "tags": {"name": "Kaniyanpara", "name:ml": "\u0d15\u0d23\u0d3f\u0d2f\u0d3e\u0d7b\u0d2a\u0d3e\u0d31", "place": "village"}}, {"type": "node", "id": 594884210, "lat": 9.43331, "lon": 76.71669, "tags": {"name": "Elamattur", "name:ml": "\u0d0f\u0d33\u0d2e\u0d31\u0d4d\u0d31\u0d42\u0d30\u0d4d\u200d", "place": "village"}}, {"type": "node", "id": 649325171, "lat": 9.4742204, "lon": 76.5760842, "tags": {"name": "Thengana", "name:en": "Thengana", "name:ml": "\u0d24\u0d46\u0d19\u0d4d\u0d19\u0d23", "place": "village", "wikidata": "Q7781367", "wikipedia": "en:Thengana"}}, {"type": "node", "id": 649325174, "lat": 9.4808408, "lon": 76.6058271, "tags": {"name": "Mammood", "name:en": "Mammood", "name:ml": "\u0d2e\u0d3e\u0d2e\u0d4d\u0d2e\u0d42\u0d1f\u0d4d", "place": "village", "wikidata": "Q6745844", "wikipedia": "en:Mammood"}}, {"type": "node", "id": 649325177, "lat": 9.5701642, "lon": 76.6959232, "tags": {"name": "Vazhoor", "name:en": "Vazhoor", "name:ml": "\u0d35\u0d3e\u0d34\u0d42\u0d30\u0d4d\u200d", "place": "village", "wikidata": "Q7917621", "wikipedia": "en:Vazhoor"}}, {"type": "node", "id": 649325180, "lat": 9.5664064, "lon": 76.7058641, "tags": {"name": "Kodungoor", "name:ml": "\u0d15\u0d4a\u0d1f\u0d41\u0d19\u0d4d\u0d19\u0d42\u0d7c", "place": "village", "wikidata": "Q6425472", "wikipedia": "en:Kodungoor"}}, {"type": "node", "id": 746023493, "lat": 9.5254441, "lon": 76.8268162, "tags": {"name": "Koovapally", "name:ml": "\u0d15\u0d42\u0d35\u0d2a\u0d4d\u0d2a\u0d33\u0d4d\u0d33\u0d3f", "place": "village", "wikidata": "Q16137063", "wikipedia": "en:Koovappally"}}, {"type": "node", "id": 746264456, "lat": 9.5981569, "lon": 76.7460778, "tags": {"alt_name": "Panamattom", "name": "Panamattam", "name:ml": "\u0d2a\u0d28\u0d2e\u0d31\u0d4d\u0d31\u0d02", "place": "village", "wikidata": "Q7130009", "wikimedia_commons": "Category:Panamattom", "wikipedia": "en:Panamattom"}}, {"type": "node", "id": 746264694, "lat": 9.6315982, "lon": 76.7308948, "tags": {"name": "Elikkulam", "name:en": "Elikkulam", "name:ml": "\u0d0e\u0d32\u0d3f\u0d15\u0d4d\u0d15\u0d41\u0d33\u0d02", "place": "village", "wikidata": "Q5361022", "wikipedia": "en:Elikkulam"}}, {"type": "node", "id": 800687076, "lat": 9.639972, "lon": 76.7770921, "tags": {"is_in": "Kottayam;Kerala;KL;India;IN", "is_in:country": "india", "is_in:district": "kottayam", "is_in:state": "Kerala", "name": "Chemmalamattom", "name:ml": "\u0d1a\u0d46\u0d2e\u0d4d\u0d2e\u0d32\u0d2e\u0d31\u0d4d\u0d31\u0d02", "place": "village", "wikidata": "Q5090584", "wikipedia": "en:Chemmalamattam"}}, {"type": "node", "id": 980065823, "lat": 9.4208998, "lon": 76.9638305, "tags": {"name": "Thulappally", "name:ml": "\u0d24\u0d41\u0d32\u0d3e\u0d2a\u0d4d\u0d2a\u0d33\u0d4d\u0d33\u0d3f", "place": "village", "wikidata": "Q24287440", "wikipedia": "en:Thulappally"}}, {"type": "node", "id": 1143532123, "lat": 9.6360116, "lon": 76.7316404, "tags": {"name": "Kuruvikkoodu", "name:en": "Kuruvikkoodu", "name:ml": "\u0d15\u0d41\u0d30\u0d41\u0d35\u0d3f\u0d15\u0d4d\u0d15\u0d42\u0d1f\u0d4d", "place": "village"}}, {"type": "node", "id": 1446285533, "lat": 9.5183753, "lon": 76.5712021, "tags": {"name": "Vakathanam", "name:en": "Vakathanam", "name:ml": "\u0d35\u0d3e\u0d15\u0d24\u0d4d\u0d24\u0d3e\u0d28\u0d02", "place": "village", "wikidata": "Q7908975", "wikipedia": "en:Vakathanam"}}, {"type": "node", "id": 1653497020, "lat": 9.6363661, "lon": 76.6068439, "tags": {"name": "Ayarkkunnam", "name:en": "Ayarkkunnam", "name:ml": "\u0d05\u0d2f\u0d7c\u0d15\u0d4d\u0d15\u0d41\u0d28\u0d4d\u0d28\u0d02", "place": "village", "wikidata": "Q4830967", "wikipedia": "en:Ayarkunnam"}}, {"type": "node", "id": 1667562446, "lat": 9.5528013, "lon": 76.9268244, "tags": {"name": "Peruvanthanam", "name:ml": "\u0d2a\u0d46\u0d30\u0d41\u0d35\u0d28\u0d4d\u0d24\u0d3e\u0d28\u0d02", "name:ta": "\u0baa\u0bc6\u0bb0\u0bc1\u0bb5\u0ba8\u0bcd\u0ba4\u0bbe\u0ba9\u0bae\u0bcd", "place": "village", "wikidata": "Q7171131", "wikipedia": "en:Peruvanthanam"}}, {"type": "node", "id": 1668582976, "lat": 9.5827155, "lon": 76.6081417, "tags": {"name": "Velloor", "name:en": "Velloor", "name:ml": "\u0d35\u0d46\u0d33\u0d4d\u0d33\u0d42\u0d7c", "place": "village"}}, {"type": "node", "id": 1952475733, "lat": 9.355411, "lon": 76.6760396, "tags": {"name": "Pullad", "name:ml": "\u0d2a\u0d41\u0d32\u0d4d\u0d32\u0d3e\u0d1f\u0d4d", "place": "village", "wikidata": "Q13479856", "wikipedia": "en:Pullad"}}, {"type": "node", "id": 1967115771, "lat": 9.6310851, "lon": 76.6895421, "tags": {"name": "Kanjiramattom", "name:en": "Kanjiramattom", "name:ml": "\u0d15\u0d3e\u0d1e\u0d4d\u0d1e\u0d3f\u0d30\u0d2e\u0d31\u0d4d\u0d31\u0d02", "place": "village"}}, {"type": "node", "id": 2291930760, "lat": 9.5225047, "lon": 76.5730407, "tags": {"name": "Njaliyakuzhi", "name:en": "Njaliyakuzhi", "name:ml": "\u0d1e\u0d3e\u0d32\u0d3f\u0d2f\u0d3e\u0d15\u0d41\u0d34\u0d3f", "place": "village", "wikidata": "Q124387924"}}, {"type": "node", "id": 2496510950, "lat": 9.2288737, "lon": 76.6270488, "tags": {"name": "Edappon", "name:ml": "\u0d07\u0d1f\u0d2a\u0d4d\u0d2a\u0d4b\u0d7a", "place": "village"}}, {"type": "node", "id": 2728196027, "lat": 9.3829181, "lon": 76.6408905, "tags": {"name": "Eraviperoor", "name:ml": "\u0d07\u0d30\u0d35\u0d3f\u0d2a\u0d47\u0d30\u0d42\u0d7c", "place": "village"}}, {"type": "node", "id": 2728196044, "lat": 9.2823557, "lon": 76.6555156, "tags": {"name": "Karakkad", "name:ml": "\u0d15\u0d3e\u0d30\u0d15\u0d4d\u0d15\u0d3e\u0d1f\u0d4d", "place": "village", "wikidata": "Q56435698"}}, {"type": "node", "id": 2728196049, "lat": 9.3409015, "lon": 76.6921777, "tags": {"name": "Chettimukku", "name:ml": "\u0d1a\u0d46\u0d1f\u0d4d\u0d1f\u0d3f\u0d2e\u0d41\u0d15\u0d4d\u0d15\u0d4d", "place": "village"}}, {"type": "node", "id": 2883759866, "lat": 9.3695512, "lon": 76.907966, "tags": {"name": "Lahai", "name:ml": "\u0d33\u0d3e\u0d39", "name:ta": "\u0bb3\u0bbe\u0bb9\u0bc8", "place": "village", "wikidata": "Q6473113", "wikipedia": "en:Lahai, Kerala"}}, {"type": "node", "id": 2897151559, "lat": 9.2313311, "lon": 76.7503928, "tags": {"name": "Kaipattoor", "name:en": "Kaipattoor", "name:ml": "\u0d15\u0d48\u0d2a\u0d4d\u0d2a\u0d1f\u0d4d\u0d1f\u0d42\u0d7c", "place": "village", "wikidata": "Q6348209", "wikipedia": "en:Kaipattoor"}}, {"type": "node", "id": 2905983448, "lat": 9.5767785, "lon": 76.7871401, "tags": {"comment": "not exact location", "name": "Anakkal", "name:ml": "\u0d06\u0d28\u0d15\u0d4d\u0d15\u0d32\u0d4d\u0d32\u0d4d", "place": "village"}}, {"type": "node", "id": 2905983450, "lat": 9.6062335, "lon": 76.776531, "tags": {"comment": "not exact location", "name": "Kappad", "name:ml": "\u0d15\u0d2a\u0d4d\u0d2a\u0d3e\u0d1f\u0d4d", "place": "village", "wikidata": "Q6367109", "wikipedia": "en:Kappadu"}}, {"type": "node", "id": 2905983451, "lat": 9.6174102, "lon": 76.7778385, "tags": {"comment": "not exact location", "is_in": "Kerala;KL;India;IN", "name": "kalaketty", "name:ml": "\u0d15\u0d3e\u0d33\u0d15\u0d46\u0d1f\u0d4d\u0d1f\u0d3f", "place": "village"}}, {"type": "node", "id": 2909575451, "lat": 9.5725211, "lon": 76.825083, "tags": {"comment": "May not be exact location", "name": "Parathodu (28Mile)", "official_name": "Parathode", "place": "village", "wikidata": "Q7136140", "wikipedia": "en:Parathodu"}}, {"type": "node", "id": 2909575452, "lat": 9.5723108, "lon": 76.8339602, "tags": {"comment": "May not be exact location", "is_in:country": "india", "is_in:district": "kottayam", "is_in:state": "Kerala", "name": "Velichiyani", "name:ml": "\u0d35\u0d46\u0d33\u0d3f\u0d1a\u0d4d\u0d1a\u0d3f\u0d2f\u0d3e\u0d28\u0d3f", "place": "village"}}, {"type": "node", "id": 2909635970, "lat": 9.6052898, "lon": 76.7006078, "tags": {"comment": "May not be exact location", "is_in": "Kottayam;Kerala;KL;India;IN", "is_in:country": "india", "is_in:district": "kottayam", "is_in:state": "Kerala", "name": "Anikkadu", "name:en": "Anikkadu", "name:ml": "\u0d06\u0d28\u0d3f\u0d15\u0d4d\u0d15\u0d3e\u0d1f\u0d4d", "place": "village", "wikidata": "Q4764482", "wikipedia": "en:Anicad (Kottayam)"}}, {"type": "node", "id": 2909635971, "lat": 9.603476, "lon": 76.6825375, "tags": {"comment": "May not be exact location", "is_in:country": "india", "is_in:district": "kottayam", "is_in:state": "Kerala", "name": "Pallickathodu", "name:en": "Pallickathodu", "name:ml": "\u0d2a\u0d33\u0d4d\u0d33\u0d3f\u0d15\u0d4d\u0d15\u0d24\u0d4d\u0d24\u0d4b\u0d1f\u0d4d", "place": "village", "wikidata": "Q7127863", "wikipedia": "en:Pallickathode"}}, {"type": "node", "id": 2909635972, "lat": 9.6360448, "lon": 76.673265, "tags": {"comment": "May not be exact location", "is_in": "Kottayam;Kerala;KL;India;IN", "is_in:country": "india", "is_in:district": "kottayam", "is_in:state": "Kerala", "name": "Mynkandam", "name:en": "Mynkandam", "name:ml": "\u0d2e\u0d48\u0d19\u0d4d\u0d15\u0d23\u0d4d\u0d1f\u0d02", "place": "village"}}, {"type": "node", "id": 2914293483, "lat": 9.5175677, "lon": 76.7668935, "tags": {"name": "Cheruvally", "name:ml": "\u0d1a\u0d46\u0d31\u0d41\u0d35\u0d33\u0d4d\u0d33\u0d3f", "place": "village", "wikidata": "Q5092636", "wikipedia": "en:Cheruvally"}}, {"type": "node", "id": 2914393664, "lat": 9.6066076, "lon": 76.730498, "tags": {"name": "Elangulam", "name:ml": "\u0d0e\u200d\u0d33\u0d19\u0d4d\u0d19\u0d41\u0d33\u0d02", "place": "village", "wikidata": "Q5353367", "wikipedia": "en:Elamgulam"}}, {"type": "node", "id": 2914448593, "lat": 9.6083022, "lon": 76.6125265, "tags": {"name": "Areeparambu", "name:en": "Areeparambu", "name:ml": "\u0d05\u0d30\u0d40\u0d2a\u0d4d\u0d2a\u0d31\u0d2e\u0d4d\u0d2a\u0d4d", "place": "village"}}, {"type": "node", "id": 2914448594, "lat": 9.5982946, "lon": 76.7311413, "tags": {"name": "Koorali", "name:ml": "\u0d15\u0d42\u0d1f\u0d3e\u0d33\u0d3f", "place": "village"}}, {"type": "node", "id": 2914448595, "lat": 9.6112552, "lon": 76.6029315, "tags": {"name": "Oravakkal", "name:en": "Oravakkal", "name:ml": "\u0d12\u0d31\u0d35\u0d15\u0d4d\u0d15\u0d7d", "place": "village"}}, {"type": "node", "id": 2917197208, "lat": 9.5410817, "lon": 76.5859717, "tags": {"name": "Pariyaram", "name:en": "Pariyaram", "name:ml": "\u0d2a\u0d30\u0d3f\u0d2f\u0d3e\u0d30\u0d02", "place": "village"}}, {"type": "node", "id": 2917221862, "lat": 9.5330062, "lon": 76.6018106, "tags": {"name": "Thottakadu", "name:en": "Thottakadu", "name:ml": "\u0d24\u0d4b\u0d1f\u0d4d\u0d1f\u0d15\u0d4d\u0d15\u0d3e\u0d1f\u0d4d", "place": "village", "wikidata": "Q7796918"}}, {"type": "node", "id": 2917300182, "lat": 9.4635588, "lon": 76.6362508, "tags": {"name": "Nedungadappally", "name:en": "Nedungadappally", "name:ml": "\u0d28\u0d46\u0d1f\u0d41\u0d19\u0d4d\u0d19\u0d3e\u0d1f\u0d2a\u0d4d\u0d2a\u0d33\u0d4d\u0d33\u0d3f", "place": "village", "wikidata": "Q15261459", "wikimedia_commons": "Category:Nedungadappally", "wikipedia": "en:Nedungadappally"}}, {"type": "node", "id": 2918242306, "lat": 9.2500055, "lon": 76.5707655, "tags": {"name": "Eravankara", "name:ml": "\u0d07\u0d31\u0d35\u0d19\u0d4d\u0d15\u0d30", "place": "village"}}, {"type": "node", "id": 2918264646, "lat": 9.3275048, "lon": 76.6545188, "tags": {"name": "Malakkara", "name:ml": "\u0d2e\u0d32\u0d15\u0d4d\u0d15\u0d30", "place": "village"}}, {"type": "node", "id": 2986116135, "lat": 9.6425299, "lon": 76.7073348, "tags": {"name": "Njandupara", "name:en": "Njandupara", "name:ml": "\u0d1e\u0d23\u0d4d\u0d1f\u0d41\u0d2a\u0d3e\u0d31", "place": "village"}}, {"type": "node", "id": 2986116136, "lat": 9.6387071, "lon": 76.7160266, "tags": {"name": "Urulikunnam", "name:en": "Urulikunnam", "name:ml": "\u0d09\u0d30\u0d41\u0d33\u0d3f\u0d15\u0d41\u0d28\u0d4d\u0d28\u0d02", "place": "village"}}, {"type": "node", "id": 3007217127, "lat": 9.6425459, "lon": 76.7344357, "tags": {"name": "Pampoly", "name:en": "Pampoly", "name:ml": "\u0d2a\u0d3e\u0d2e\u0d4d\u0d2a\u0d4b\u0d32\u0d3f", "place": "village"}}, {"type": "node", "id": 3007236909, "lat": 9.6393595, "lon": 76.7461138}, {"type": "node", "id": 3009061748, "lat": 9.6191014, "lon": 76.7085675, "tags": {"name": "Chengalam", "name:ml": "\u0d1a\u0d46\u0d19\u0d4d\u0d19\u0d33\u0d02", "place": "village", "wikidata": "Q5091280", "wikipedia": "en:Chengalam"}}, {"type": "node", "id": 3009061751, "lat": 9.6299526, "lon": 76.7130107, "tags": {"name": "Nayiplavu", "name:en": "Nayiplavu", "name:ml": "\u0d28\u0d3e\u0d2f\u0d3f\u0d2a\u0d4d\u0d32\u0d3e\u0d35\u0d4d", "place": "village"}}, {"type": "node", "id": 3190301635, "lat": 9.6134866, "lon": 76.7230125, "tags": {"name": "Panthamakkal", "name:ml": "\u0d2a\u0d28\u0d4d\u0d24\u0d2e\u0d3e\u0d15\u0d4d\u0d15\u0d7d", "place": "village"}}, {"type": "node", "id": 3190301639, "lat": 9.6408428, "lon": 76.7229528, "tags": {"name": "Srikrishnapuram", "name:en": "Srikrishnapuram", "name:ml": "\u0d36\u0d4d\u0d30\u0d40\u0d15\u0d43\u0d37\u0d4d\u0d23\u0d2a\u0d41\u0d30\u0d02", "place": "village"}}, {"type": "node", "id": 3244448708, "lat": 9.6094013, "lon": 76.7017016, "tags": {"name": "Perumbara", "name:en": "Perumbara", "name:ml": "\u0d2a\u0d46\u0d30\u0d41\u0d2e\u0d4d\u0d2a\u0d3e\u0d31", "place": "village"}}, {"type": "node", "id": 3268594536, "lat": 9.45856, "lon": 76.7111239, "tags": {"name": "Kulathoormoozhi", "name:ml": "\u0d15\u0d41\u0d33\u0d24\u0d4d\u0d24\u0d42\u0d7c\u0d2e\u0d42\u0d34\u0d3f", "place": "village"}}, {"type": "node", "id": 3268632904, "lat": 9.5092242, "lon": 76.6646618, "tags": {"junction": "yes", "name": "Nedumkunnam", "name:ml": "\u0d28\u0d46\u0d1f\u0d41\u0d02\u0d19\u0d4d\u0d15\u0d41\u0d28\u0d4d\u0d28\u0d02", "place": "village", "wikidata": "Q12063662", "wikimedia_commons": "Category:Nedumkunnam", "wikipedia": "en:Nedumkunnam"}}, {"type": "node", "id": 3268643162, "lat": 9.469897, "lon": 76.7134294, "tags": {"name": "Thazhathu vadakara", "place": "village"}}, {"type": "node", "id": 3283724514, "lat": 9.5266412, "lon": 76.6450731, "tags": {"name": "Manthuruthy", "name:en": "Manthuruthy", "name:ml": "\u0d2e\u0d3e\u0d28\u0d4d\u0d24\u0d41\u0d30\u0d41\u0d24\u0d4d\u0d24\u0d3f", "place": "village"}}, {"type": "node", "id": 3283740346, "lat": 9.5375542, "lon": 76.7212024, "tags": {"alt_name": "Chakonpathal", "name": "Chamampathal", "name:ml": "\u0d1a\u0d3e\u0d2e\u0d02\u0d2a\u0d24\u0d3e\u0d7d", "place": "village"}}, {"type": "node", "id": 3285869478, "lat": 9.6370887, "lon": 76.8182888, "tags": {"name": "Chennad", "name:ml": "\u0d1a\u0d47\u0d28\u0d4d\u0d28\u0d3e\u0d1f\u0d4d", "place": "village"}}, {"type": "node", "id": 3285923261, "lat": 9.5649006, "lon": 76.8490162, "tags": {"name": "Chotti", "name:ml": "\u0d1a\u0d4b\u0d31\u0d4d\u0d31\u0d3f", "place": "village"}}, {"type": "node", "id": 3341025995, "lat": 9.5823102, "lon": 76.970999, "tags": {"name": "Kuttikkanam", "name:ml": "\u0d15\u0d41\u0d1f\u0d4d\u0d1f\u0d3f\u0d15\u0d4d\u0d15\u0d3e\u0d28\u0d02", "name:ta": "\u0b95\u0bc1\u0b9f\u0bcd\u0b9f\u0bbf\u0b95\u0bcd\u0b95\u0bbe\u0ba9\u0bae\u0bcd", "place": "village", "wikidata": "Q6448593", "wikipedia": "en:Kuttikkanam"}}, {"type": "node", "id": 3452069348, "lat": 9.3600808, "lon": 76.7871496, "tags": {"name": "Mandiram", "name:ml": "\u0d2e\u0d28\u0d4d\u0d26\u0d3f\u0d30\u0d02", "place": "village"}}, {"type": "node", "id": 3452069349, "lat": 9.3320453, "lon": 76.7949585, "tags": {"name": "Uthimoodu", "name:ml": "\u0d09\u0d24\u0d3f\u0d2e\u0d42\u0d1f\u0d4d", "place": "village"}}, {"type": "node", "id": 3452070802, "lat": 9.3053202, "lon": 76.8046683, "tags": {"name": "Mannarkulanji", "name:ml": "\u0d2e\u0d23\u0d4d\u0d23\u0d3e\u0d7c\u0d15\u0d41\u0d33\u0d1e\u0d4d\u0d1e\u0d3f", "place": "village"}}, {"type": "node", "id": 3461577441, "lat": 9.4629984, "lon": 76.8006541, "tags": {"name": "Mukkada", "name:ml": "\u0d2e\u0d41\u0d15\u0d4d\u0d15\u0d1f", "place": "village"}}, {"type": "node", "id": 3461579813, "lat": 9.4518922, "lon": 76.7972992, "tags": {"name": "Plachery", "name:ml": "\u0d2a\u0d4d\u0d32\u0d3e\u0d1a\u0d4d\u0d1a\u0d47\u0d30\u0d3f", "place": "village"}}, {"type": "node", "id": 3461580203, "lat": 9.4404645, "lon": 76.79927, "tags": {"name": "Makkappuzha", "name:en": "Makkappuzha", "name:ml": "\u0d2e\u0d15\u0d4d\u0d15\u0d2a\u0d4d\u0d2a\u0d41\u0d34", "place": "village"}}, {"type": "node", "id": 3461581149, "lat": 9.4221875, "lon": 76.7971074, "tags": {"name": "Manthamaruthy", "name:en": "Manthamaruthy", "name:ml": "\u0d2e\u0d28\u0d4d\u0d26\u0d2e\u0d30\u0d41\u0d24\u0d3f", "place": "village"}}, {"type": "node", "id": 3461586849, "lat": 9.3944418, "lon": 76.793591, "tags": {"name": "Chethomkara", "name:en": "Chethonkara", "name:ml": "\u0d1a\u0d47\u0d24\u0d4d\u0d24\u0d4b\u0d19\u0d4d\u0d15\u0d30", "place": "village"}}, {"type": "node", "id": 3592491234, "lat": 9.4518537, "lon": 76.7455434, "tags": {"alt_name:en": "Chunkapara", "name": "Chunkappara", "name:ml": "\u0d1a\u0d41\u0d19\u0d4d\u0d15\u0d2a\u0d4d\u0d2a\u0d3e\u0d31", "place": "village", "wikidata": "Q5116430", "wikipedia": "en:Chunkappara"}}, {"type": "node", "id": 3604363563, "lat": 9.254596, "lon": 76.8365206, "tags": {"name": "Vettoor", "name:ml": "\u0d35\u0d46\u0d1f\u0d4d\u0d1f\u0d42\u0d30\u0d4d\u200d", "place": "village"}}, {"type": "node", "id": 3605016570, "lat": 9.2876157, "lon": 76.8227465, "tags": {"name": "Malayalappuzha", "name:ml": "\u0d2e\u0d32\u0d2f\u0d3e\u0d32\u0d2a\u0d4d\u0d2a\u0d41\u0d34", "place": "village", "wikidata": "Q6741587", "wikipedia": "en:Malayalappuzha"}}, {"type": "node", "id": 3605020790, "lat": 9.4351054, "lon": 76.853677, "tags": {"name": "Vechoochira", "name:ml": "\u0d35\u0d46\u0d1a\u0d4d\u0d1a\u0d42\u0d1a\u0d4d\u0d1a\u0d3f\u0d31", "place": "village", "wikidata": "Q7917744", "wikipedia": "en:Vechoochira"}}, {"type": "node", "id": 3631902399, "lat": 9.4772409, "lon": 76.8728285, "tags": {"name": "Peroorthodu", "name:ml": "\u0d2a\u0d47\u0d30\u0d42\u0d7c\u0d24\u0d4b\u0d1f\u0d4d", "place": "village"}}, {"type": "node", "id": 3631902400, "lat": 9.4896125, "lon": 76.9402646, "tags": {"name": "Madukka", "name:ml": "\u0d2e\u0d1f\u0d41\u0d15\u0d4d\u0d15", "place": "village", "wikidata": "Q6728772", "wikipedia": "en:Madukka"}}, {"type": "node", "id": 3720163539, "lat": 9.2035573, "lon": 76.6060178, "tags": {"name": "Chunakkara", "name:ml": "\u0d1a\u0d41\u0d28\u0d15\u0d4d\u0d15\u0d30", "place": "village"}}, {"type": "node", "id": 3797908340, "lat": 9.569805, "lon": 76.8148617, "tags": {"name": "Podimattom", "name:ml": "\u0d2a\u0d4a\u0d1f\u0d3f\u0d2e\u0d31\u0d4d\u0d31\u0d02", "place": "village"}}, {"type": "node", "id": 3804484779, "lat": 9.3897305, "lon": 76.8585353, "tags": {"name": "Kolinchi", "place": "village"}}, {"type": "node", "id": 3808166922, "lat": 9.5017532, "lon": 76.9260084, "tags": {"name": "Panakkachira", "name:ml": "\u0d2a\u0d28\u0d15\u0d4d\u0d15\u0d1a\u0d4d\u0d1a\u0d3f\u0d31", "place": "village"}}, {"type": "node", "id": 3809515139, "lat": 9.5221984, "lon": 76.9011986, "tags": {"name": "Vandanpathal", "name:ml": "\u0d35\u0d23\u0d4d\u0d1f\u0d7b\u0d2a\u0d24\u0d3e\u0d7d", "place": "village", "wikidata": "Q7914359", "wikipedia": "en:Vandanpathal"}}, {"type": "node", "id": 3809648136, "lat": 9.4216811, "lon": 76.9350464, "tags": {"alt_name": "Pambavalley", "name": "Kanamala", "name:ml": "\u0d15\u0d23\u0d2e\u0d32", "place": "village", "wikidata": "Q101190189"}}, {"type": "node", "id": 3809804241, "lat": 9.4319387, "lon": 76.9203419, "tags": {"name": "Eruthuvapuzha", "name:ml": "\u0d0e\u0d30\u0d41\u0d24\u0d4d\u0d35\u0d3e\u0d2a\u0d4d\u0d2a\u0d41\u0d34", "place": "village"}}, {"type": "node", "id": 3809804248, "lat": 9.4449096, "lon": 76.894108, "tags": {"junction": "yes", "name": "Muttappally", "name:ml": "\u0d2e\u0d41\u0d1f\u0d4d\u0d1f\u0d2a\u0d4d\u0d2a\u0d33\u0d4d\u0d33\u0d3f", "place": "village"}}, {"type": "node", "id": 3809804250, "lat": 9.4392306, "lon": 76.9084277, "tags": {"name": "Panapilavu", "name:ml": "\u0d2a\u0d3e\u200d\u0d23\u0d2a\u0d3f\u0d32\u0d3e\u0d35\u0d4d", "place": "village"}}, {"type": "node", "id": 3812212606, "lat": 9.4467459, "lon": 76.8781257, "tags": {"junction": "yes", "name": "Mukkoottuthara", "name:ml": "\u0d2e\u0d41\u0d15\u0d4d\u0d15\u0d42\u0d1f\u0d4d\u0d1f\u0d41\u0d24\u0d31", "name:ta": "\u0bae\u0bc1\u0b95\u0bcd\u0b95\u0bc2\u0b9f\u0bcd\u0b9f\u0bc1\u0ba4\u0bb1\u0bc8", "place": "village", "wikidata": "Q6933557", "wikipedia": "en:Mukkoottuthara"}}, {"type": "node", "id": 3816559490, "lat": 9.5983116, "lon": 76.9682541, "tags": {"name": "Pallikunnu", "name:ml": "\u0d2a\u0d33\u0d4d\u0d33\u0d3f\u0d15\u0d4d\u0d15\u0d41\u0d28\u0d4d\u0d28\u0d4d", "place": "village"}}, {"type": "node", "id": 3816717632, "lat": 9.5542569, "lon": 76.9718368, "tags": {"name": "Murinjapuzha", "name:ml": "\u0d2e\u0d41\u0d31\u0d3f\u0d1e\u0d4d\u0d1e\u0d2a\u0d41\u0d34", "place": "village"}}, {"type": "node", "id": 3896939450, "lat": 9.541015, "lon": 76.6927886, "tags": {"name": "Kanam", "name:en": "Kanam", "name:ml": "\u0d15\u0d3e\u0d28\u0d02", "place": "village", "wikidata": "Q2323500", "wikipedia": "en:Kanam (Kerala)"}}, {"type": "node", "id": 3960116236, "lat": 9.5650845, "lon": 76.7307262, "tags": {"alt_name": "Vazhoor East", "name": "Chenkal", "name:ml": "\u0d1a\u0d46\u0d19\u0d4d\u0d15\u0d7d", "place": "village"}}, {"type": "node", "id": 3960116857, "lat": 9.533939, "lon": 76.6712969, "tags": {"name": "Kangazha", "name:en": "Kangazha", "name:ml": "\u0d15\u0d19\u0d4d\u0d19\u0d34", "place": "village"}}, {"type": "node", "id": 4032463496, "lat": 9.6225679, "lon": 76.5750581, "tags": {"name": "Thiruvanchoor", "name:en": "Thiruvanchoor", "name:ml": "\u0d24\u0d3f\u0d30\u0d41\u0d35\u0d1e\u0d4d\u0d1a\u0d42\u0d7c", "place": "village"}}, {"type": "node", "id": 4391592330, "lat": 9.5937113, "lon": 76.7610403, "tags": {"name": "Thambalakad", "name:ml": "\u0d24\u0d2e\u0d4d\u0d2a\u0d32\u0d15\u0d4d\u0d15\u0d3e\u0d1f\u0d4d", "place": "village", "wikidata": "Q7710043", "wikipedia": "en:Thampalakad"}}, {"type": "node", "id": 4410813987, "lat": 9.458924, "lon": 76.8538939, "tags": {"name": "Manipuzha", "name:ml": "\u0d2e\u0d23\u0d3f\u0d2a\u0d4d\u0d2a\u0d41\u0d34", "place": "village"}}, {"type": "node", "id": 4443049059, "lat": 9.5542621, "lon": 76.7571828}, {"type": "node", "id": 4443049060, "lat": 9.5559265, "lon": 76.7657455}, {"type": "node", "id": 4443049061, "lat": 9.5538764, "lon": 76.7710355}, {"type": "node", "id": 4443049062, "lat": 9.5533188, "lon": 76.7717622}, {"type": "node", "id": 4443049063, "lat": 9.5452721, "lon": 76.7801167}, {"type": "node", "id": 4443049064, "lat": 9.5328191, "lon": 76.7899079}, {"type": "node", "id": 4443049065, "lat": 9.5312839, "lon": 76.7850735}, {"type": "node", "id": 4443049066, "lat": 9.5302285, "lon": 76.7855029}, {"type": "node", "id": 4443049067, "lat": 9.5270616, "lon": 76.7831798}, {"type": "node", "id": 4443049068, "lat": 9.5255797, "lon": 76.7829328}, {"type": "node", "id": 4443049069, "lat": 9.5249707, "lon": 76.7832416}, {"type": "node", "id": 4443049070, "lat": 9.5247677, "lon": 76.7836944}, {"type": "node", "id": 4443049071, "lat": 9.5248692, "lon": 76.7848883}, {"type": "node", "id": 4443049072, "lat": 9.5242602, "lon": 76.7857322}, {"type": "node", "id": 4443049073, "lat": 9.5221288, "lon": 76.7866379}, {"type": "node", "id": 4443049074, "lat": 9.5191649, "lon": 76.786432}, {"type": "node", "id": 4443049075, "lat": 9.5179875, "lon": 76.7865349}, {"type": "node", "id": 4443049076, "lat": 9.5175409, "lon": 76.7888815}, {"type": "node", "id": 4443049077, "lat": 9.5163432, "lon": 76.7900753}, {"type": "node", "id": 4443049078, "lat": 9.5151252, "lon": 76.7816155}, {"type": "node", "id": 4443049079, "lat": 9.5160567, "lon": 76.7779377}, {"type": "node", "id": 4443049080, "lat": 9.5193916, "lon": 76.771854}, {"type": "node", "id": 4443049081, "lat": 9.5207893, "lon": 76.7699087}, {"type": "node", "id": 4443049082, "lat": 9.5256203, "lon": 76.7661572}, {"type": "node", "id": 4443049083, "lat": 9.5293891, "lon": 76.7639335}, {"type": "node", "id": 4443049084, "lat": 9.5343694, "lon": 76.7611554}, {"type": "node", "id": 4443049085, "lat": 9.5387216, "lon": 76.7597589}, {"type": "node", "id": 4443049086, "lat": 9.5409474, "lon": 76.759007}, {"type": "node", "id": 4443049087, "lat": 9.543646, "lon": 76.758459}, {"type": "node", "id": 4443049088, "lat": 9.5460819, "lon": 76.7579032}, {"type": "node", "id": 4443106104, "lat": 9.5053541, "lon": 76.7769662, "tags": {"name": "Pazhayidam", "name:ml": "\u0d2a\u0d34\u0d2f\u0d3f\u0d1f\u0d02", "place": "village"}}, {"type": "node", "id": 4471324993, "lat": 9.3277408, "lon": 76.7504586, "tags": {"name": "Naranganam", "name:ml": "\u0d28\u0d3e\u0d30\u0d19\u0d4d\u0d19\u0d3e\u0d28\u0d02", "place": "village"}}, {"type": "node", "id": 4475199143, "lat": 9.5509686, "lon": 76.7742023}, {"type": "node", "id": 4487003997, "lat": 9.508758, "lon": 76.6939967, "tags": {"name": "Pathanad", "name:ml": "\u0d2a\u0d24\u0d4d\u0d24\u0d28\u0d3e\u0d1f\u0d4d", "place": "village"}}, {"type": "node", "id": 4494263059, "lat": 9.5932828, "lon": 76.7143232, "tags": {"name": "Elampally, Neyyattusserry", "place": "village"}}, {"type": "node", "id": 4498743270, "lat": 9.5289076, "lon": 76.7848602}, {"type": "node", "id": 4525779525, "lat": 9.5379322, "lon": 76.7600122}, {"type": "node", "id": 4528255179, "lat": 9.5362381, "lon": 76.7566035, "tags": {"alt_name": "Thekkethu Kavala", "name": "Thekkethukavala", "name:ml": "\u0d24\u0d46\u0d15\u0d4d\u0d15\u0d47\u0d24\u0d4d\u0d24\u0d41\u0d15\u0d35\u0d32", "place": "village", "short_name": "T. Kavala"}}, {"type": "node", "id": 4528255181, "lat": 9.5288894, "lon": 76.7843088, "tags": {"name": "Chirakkadavu", "name:ml": "\u0d1a\u0d3f\u0d31\u0d15\u0d4d\u0d15\u0d1f\u0d35\u0d4d", "place": "village"}}, {"type": "node", "id": 4551013093, "lat": 9.5554381, "lon": 76.760345}, {"type": "node", "id": 4586273674, "lat": 9.5985255, "lon": 76.6456438, "tags": {"name": "Kooroppada", "name:en": "Kooroppada", "name:ml": "\u0d15\u0d42\u0d30\u0d4b\u0d2a\u0d4d\u0d2a\u0d1f", "place": "village", "wikidata": "Q6430772", "wikipedia": "en:Kooroppada"}}, {"type": "node", "id": 4620515024, "lat": 9.506384, "lon": 76.7965518, "tags": {"name": "Chenappady", "name:ml": "\u0d1a\u0d47\u0d28\u0d2a\u0d4d\u0d2a\u0d3e\u0d1f\u0d3f", "place": "village", "wikidata": "Q5091045", "wikipedia": "en:Chenappady"}}, {"type": "node", "id": 4753835022, "lat": 9.621612, "lon": 76.6045689, "tags": {"name": "Amayannoor", "name:en": "Amayannoor", "name:ml": "\u0d05\u0d2e\u0d2f\u0d28\u0d4d\u0d28\u0d42\u0d7c", "place": "village"}}, {"type": "node", "id": 4776206521, "lat": 9.4812481, "lon": 76.7341415, "tags": {"name": "Erathu Vadakara", "name:ml": "\u0d0f\u0d31\u0d24\u0d4d\u0d24\u0d41 \u0d35\u0d1f\u0d15\u0d30", "place": "village"}}, {"type": "node", "id": 4933526748, "lat": 9.513469, "lon": 76.8106597, "tags": {"name": "Vizhikkathodu", "name:ml": "\u0d35\u0d3f\u0d34\u0d3f\u0d15\u0d4d\u0d15\u0d24\u0d4d\u0d24\u0d4b\u0d1f\u0d4d", "place": "village"}}, {"type": "node", "id": 5239128850, "lat": 9.4967931, "lon": 76.8483241, "tags": {"alt_name": "Koratti", "name": "Koratty", "name:ml": "\u0d15\u0d4a\u0d30\u0d1f\u0d4d\u0d1f\u0d3f", "place": "village"}}, {"type": "node", "id": 5433200701, "lat": 9.6433438, "lon": 76.6348279, "tags": {"name": "Mattakkara", "name:en": "Mattakkara", "name:ml": "\u0d2e\u0d31\u0d4d\u0d31\u0d15\u0d4d\u0d15\u0d30", "place": "village"}}, {"type": "node", "id": 5433301827, "lat": 9.6442023, "lon": 76.5900099, "tags": {"alt_name:en": "Arumanur", "name": "Arumanoor", "name:en": "Arumanoor", "name:ml": "\u0d06\u0d31\u0d41\u0d2e\u0d3e\u0d28\u0d42\u0d7c", "place": "village"}}, {"type": "node", "id": 5830101090, "lat": 9.5645675, "lon": 76.6652641, "tags": {"alt_name": "12th Mile", "alt_name:ml": "\u0d2a\u0d28\u0d4d\u0d24\u0d4d\u0d30\u0d23\u0d4d\u0d1f\u0d3e\u0d02 \u0d2e\u0d48\u0d7d", "name": "Kothala", "name:en": "Kothala", "name:ml": "\u0d15\u0d4b\u0d24\u0d4d\u0d24\u0d32", "place": "village", "wikidata": "Q6433983", "wikipedia": "en:Kothala"}}, {"type": "node", "id": 6265372215, "lat": 9.3251972, "lon": 76.969719, "tags": {"name": "Seethathodu", "name:ml": "\u0d38\u0d40\u0d24\u0d24\u0d4d\u0d24\u0d4b\u0d1f\u0d4d", "name:ta": "\u0b9a\u0bc0\u0ba4\u0ba4\u0bcd\u0ba4\u0bcb\u0b9f\u0bc1", "place": "village", "wikidata": "Q7445983", "wikipedia": "en:Seethathodu"}}, {"type": "node", "id": 6267302515, "lat": 9.5302732, "lon": 76.973173, "tags": {"name": "Panchalimedu", "name:ml": "\u0d2a\u0d3e\u0d1e\u0d4d\u0d1a\u0d3e\u0d32\u0d3f\u0d2e\u0d47\u0d1f\u0d4d", "place": "village"}}, {"type": "node", "id": 6269262500, "lat": 9.3114471, "lon": 76.9568952, "tags": {"name": "Vayyattupuzha", "name:ml": "\u0d35\u0d2f\u0d4d\u0d2f\u0d3e\u0d31\u0d4d\u0d31\u0d41\u0d2a\u0d41\u0d34", "place": "village", "wikidata": "Q7917590", "wikipedia": "en:Vayyattupuzha"}}, {"type": "node", "id": 6280248187, "lat": 9.2495146, "lon": 76.9568846, "tags": {"name": "Thekkuthodu", "name:ml": "\u0d24\u0d47\u0d15\u0d4d\u0d15\u0d41\u0d24\u0d4b\u0d1f\u0d4d", "place": "village"}}, {"type": "node", "id": 6280319390, "lat": 9.2692682, "lon": 76.9294954, "tags": {"name": "Thannithodu", "name:ml": "\u0d24\u0d23\u0d4d\u0d23\u0d3f\u0d24\u0d4d\u0d24\u0d4b\u0d1f\u0d4d", "place": "village", "population": "14352"}}, {"type": "node", "id": 6280668655, "lat": 9.3286473, "lon": 76.8761517, "tags": {"name": "Maniyar", "name:ml": "\u0d2e\u0d23\u0d3f\u0d2f\u0d3e\u0d7c", "place": "village", "wikidata": "Q6750296", "wikipedia": "en:Maniyar, Pathanamthitta"}}, {"type": "node", "id": 6315947361, "lat": 9.6393663, "lon": 76.7502768}, {"type": "node", "id": 6315947362, "lat": 9.6421106, "lon": 76.7538773}, {"type": "node", "id": 6315947363, "lat": 9.6449578, "lon": 76.7568502}, {"type": "node", "id": 6315947364, "lat": 9.6498287, "lon": 76.7580252}, {"type": "node", "id": 6315947365, "lat": 9.653876, "lon": 76.7520511}, {"type": "node", "id": 6315947366, "lat": 9.6544622, "lon": 76.7451992}, {"type": "node", "id": 6315947367, "lat": 9.6511519, "lon": 76.7374444}, {"type": "node", "id": 6315947368, "lat": 9.6429899, "lon": 76.7372431}, {"type": "node", "id": 6315947369, "lat": 9.6405335, "lon": 76.741476}, {"type": "node", "id": 6622418650, "lat": 9.3870979, "lon": 76.8428551, "tags": {"name": "Athikkayam", "name:ml": "\u0d05\u0d24\u0d4d\u0d24\u0d3f\u0d15\u0d4d\u0d15\u0d2f\u0d02", "place": "village", "wikidata": "Q4813653", "wikipedia": "en:Athikkayam"}}, {"type": "node", "id": 6622418651, "lat": 9.367741, "lon": 76.85341, "tags": {"name": "Perunadu", "name:ml": "\u0d2a\u0d46\u0d30\u0d41\u0d28\u0d3e\u0d1f\u0d4d", "place": "village"}}, {"type": "node", "id": 7334080826, "lat": 9.559395, "lon": 76.6815896, "tags": {"name": "Pulickal Kavala", "name:en": "Pulickal Kavala", "name:ml": "\u0d2a\u0d41\u0d33\u0d3f\u0d15\u0d4d\u0d15\u0d32\u0d4d\u200d\u0d15\u0d35\u0d32", "place": "village"}}, {"type": "node", "id": 7400373843, "lat": 9.3200278, "lon": 76.8976235, "tags": {"place": "village"}}, {"type": "node", "id": 7460509415, "lat": 9.2977753, "lon": 76.6868261, "tags": {"name": "Kidangannur", "name:ml": "\u0d15\u0d3f\u0d1f\u0d19\u0d4d\u0d19\u0d28\u0d4d\u0d28\u0d42\u0d7c", "place": "village"}}, {"type": "node", "id": 7518925972, "lat": 9.2920509, "lon": 76.6474603, "tags": {"name": "Mulakuzha", "name:ml": "\u0d2e\u0d41\u0d33\u0d15\u0d4d\u0d15\u0d41\u0d34", "place": "village", "wikidata": "Q15260201", "wikipedia": "en:Mulakuzha"}}, {"type": "node", "id": 7608005469, "lat": 9.2383541, "lon": 76.7420524, "tags": {"name": "Mathoor", "name:ml": "\u0d2e\u0d3e\u0d24\u0d4d\u0d24\u0d42\u0d7c", "place": "village", "wikidata": "Q48724053", "wikipedia": "en:Mathoor"}}, {"type": "node", "id": 7610014071, "lat": 9.2197254, "lon": 76.7119249, "tags": {"name": "Thumpamon", "name:hi": "\u0925\u0941\u092e\u094d\u092a\u092e\u0923", "name:ml": "\u0d24\u0d41\u0d2e\u0d4d\u0d2a\u0d2e\u0d7a", "name:ta": "\u0ba4\u0bc1\u0bae\u0bcd\u0baa\u0bae\u0ba9\u0bcd", "name:te": "\u0c24\u0c41\u0c02\u0c2a\u0c2e\u0c28\u0c4d", "place": "village", "population": "98,705", "wikidata": "Q7798860", "wikimedia_commons": "Category:Thumpamon", "wikipedia": "en:Thumpamon"}}, {"type": "node", "id": 7611799944, "lat": 9.2471448, "lon": 76.7411952, "tags": {"name": "Manjinikkara", "name:ml": "\u0d2e\u0d1e\u0d4d\u0d1e\u0d3f\u0d28\u0d3f\u0d15\u0d4d\u0d15\u0d30", "place": "village"}}, {"type": "node", "id": 7611799945, "lat": 9.2529736, "lon": 76.7321152, "tags": {"name": "Oonnukal", "name:ml": "\u0d0a\u0d28\u0d4d\u0d28\u0d41\u0d15\u0d7e", "place": "village"}}, {"type": "node", "id": 7611799946, "lat": 9.2640971, "lon": 76.7114301, "tags": {"name": "Elavumthitta", "name:ml": "\u0d07\u0d32\u0d35\u0d41\u0d02\u0d24\u0d3f\u0d1f\u0d4d\u0d1f", "place": "village", "wikidata": "Q5353628", "wikimedia_commons": "Category:Elavumthitta", "wikipedia": "en:Elavumthitta"}}, {"type": "node", "id": 7611799947, "lat": 9.2743342, "lon": 76.6932679, "tags": {"name": "Mezhuveli", "name:ml": "\u0d2e\u0d46\u0d34\u0d41\u0d35\u0d47\u0d32\u0d3f", "place": "village", "wikidata": "Q15253284", "wikipedia": "en:Mezhuveli"}}, {"type": "node", "id": 7611799948, "lat": 9.2434458, "lon": 76.6719736, "tags": {"name": "Kulanada", "name:en": "Kulanada", "name:ml": "\u0d15\u0d41\u0d33\u0d28\u0d1f", "place": "village", "wikidata": "Q6442784", "wikipedia": "en:Kulanada"}}, {"type": "node", "id": 7611799950, "lat": 9.2390962, "lon": 76.7220493, "tags": {"name": "Chenneerkara", "name:ml": "\u0d1a\u0d46\u0d28\u0d4d\u0d28\u0d40\u0d7c\u0d15\u0d4d\u0d15\u0d30", "place": "village", "wikidata": "Q5091507", "wikipedia": "en:Chenneerkara"}}, {"type": "node", "id": 7613296617, "lat": 9.2994214, "lon": 76.7294449, "tags": {"name": "Elanthoor", "name:ml": "\u0d07\u0d32\u0d28\u0d4d\u0d24\u0d42\u0d7c", "place": "village"}}, {"type": "node", "id": 7613296620, "lat": 9.2373996, "lon": 76.710804, "tags": {"name": "Ramanchira", "name:ml": "\u0d30\u0d3e\u0d2e\u0d7b\u0d1a\u0d3f\u0d31", "place": "village"}}, {"type": "node", "id": 7613296621, "lat": 9.225481, "lon": 76.737188, "tags": {"name": "Nariyapuram", "name:ml": "\u0d28\u0d30\u0d3f\u0d2f\u0d3e\u0d2a\u0d41\u0d30\u0d02", "place": "village", "wikidata": "Q15261018", "wikimedia_commons": "Category:Nariyapuram", "wikipedia": "en:Nariyapuram"}}, {"type": "node", "id": 7613296622, "lat": 9.2363774, "lon": 76.6957787, "tags": {"name": "Ulanadu", "name:ml": "\u0d09\u0d33\u0d28\u0d3e\u0d1f\u0d4d", "place": "village"}}, {"type": "node", "id": 7613334967, "lat": 9.1965879, "lon": 76.850839, "tags": {"name": "Vakayar", "name:ml": "\u0d35\u0d15\u0d2f\u0d3e\u0d31\u0d4d", "place": "village"}}, {"type": "node", "id": 7613334969, "lat": 9.2115175, "lon": 76.7663585, "tags": {"name": "Chandanappally", "name:ml": "\u0d1a\u0d28\u0d4d\u0d26\u0d28\u0d2a\u0d4d\u0d2a\u0d33\u0d4d\u0d33\u0d3f", "place": "village"}}, {"type": "node", "id": 7615923486, "lat": 9.1985861, "lon": 76.624222, "tags": {"name": "Nooranad Padanilam", "name:ml": "\u0d28\u0d42\u0d31\u0d28\u0d3e\u0d1f\u0d4d \u0d2a\u0d1f\u0d28\u0d3f\u0d32\u0d02", "place": "village"}}, {"type": "node", "id": 7615923488, "lat": 9.2549515, "lon": 76.5873341, "tags": {"name": "Kollakadavu", "name:ml": "\u0d15\u0d4a\u0d32\u0d4d\u0d32\u0d15\u0d4d\u0d15\u0d1f\u0d35\u0d4d", "place": "village", "wikidata": "Q6427341", "wikipedia": "en:Kollakadavu"}}, {"type": "node", "id": 7615923490, "lat": 9.2346691, "lon": 76.7785576, "tags": {"name": "Vazhamuttom", "name:ml": "\u0d35\u0d3e\u0d34\u0d2e\u0d41\u0d1f\u0d4d\u0d1f\u0d02", "place": "village"}}, {"type": "node", "id": 7615923491, "lat": 9.2182367, "lon": 76.7770059, "tags": {"name": "Vallicode", "name:ml": "\u0d35\u0d33\u0d4d\u0d33\u0d3f\u0d15\u0d4d\u0d15\u0d4b\u0d1f\u0d4d", "place": "village", "wikidata": "Q7912409", "wikimedia_commons": "Category:Vallicode", "wikipedia": "en:Vallicode"}}, {"type": "node", "id": 7615923492, "lat": 9.2414339, "lon": 76.8021982, "tags": {"name": "Mallassery", "name:ml": "\u0d2e\u0d32\u0d4d\u0d32\u0d36\u0d47\u0d30\u0d3f", "place": "village"}}, {"type": "node", "id": 7615923494, "lat": 9.230844, "lon": 76.717749, "tags": {"name": "Muttathukonam", "name:ml": "\u0d2e\u0d41\u0d1f\u0d4d\u0d1f\u0d24\u0d4d\u0d24\u0d41\u0d15\u0d4b\u0d23\u0d02", "place": "village"}}, {"type": "node", "id": 7615923495, "lat": 9.2453414, "lon": 76.6242446, "tags": {"name": "Venmony", "name:ml": "\u0d35\u0d46\u0d7a\u0d2e\u0d23\u0d3f", "place": "village", "wikidata": "Q12989426", "wikipedia": "en:Venmony"}}, {"type": "node", "id": 7804833861, "lat": 9.32681, "lon": 76.6856956, "tags": {"name": "Aranmula", "name:hi": "\u0906\u0930\u0928\u094d\u092e\u0941\u0932\u093e", "name:ml": "\u0d06\u0d31\u0d28\u0d4d\u0d2e\u0d41\u0d33", "name:ru": "\u0410\u0440\u0430\u043d\u043c\u0443\u043b\u0430", "place": "village", "wikidata": "Q4784130", "wikipedia": "en:Aranmula"}}, {"type": "node", "id": 7810984533, "lat": 9.3055689, "lon": 76.773236, "tags": {"name": "Kadammanitta", "name:ml": "\u0d15\u0d1f\u0d2e\u0d4d\u0d2e\u0d28\u0d3f\u0d1f\u0d4d\u0d1f", "place": "village", "wikidata": "Q6345100", "wikipedia": "en:Kadammanitta"}}, {"type": "node", "id": 7813276051, "lat": 9.2303724, "lon": 76.5993376, "tags": {"name": "Vettiyar", "name:ml": "\u0d35\u0d46\u0d1f\u0d4d\u0d1f\u0d3f\u0d2f\u0d3e\u0d7c", "place": "village", "wikidata": "Q7923827", "wikipedia": "en:Vettiyar"}}, {"type": "node", "id": 7813304389, "lat": 9.2342047, "lon": 76.590553, "tags": {"name": "Mankamkuzhy", "name:ml": "\u0d2e\u0d3e\u0d19\u0d4d\u0d15\u0d3e\u0d02\u0d15\u0d41\u0d34\u0d3f", "place": "village"}}, {"type": "node", "id": 7813304390, "lat": 9.2450626, "lon": 76.585146, "tags": {"name": "Kochalumoodu", "name:ml": "\u0d15\u0d4a\u0d1a\u0d4d\u0d1a\u0d3e\u0d32\u0d41\u0d2e\u0d4d\u0d2e\u0d42\u0d1f\u0d4d", "name:ta": "\u0b95\u0bca\u0b9a\u0bcd\u0b9a\u0bbe\u0bb2\u0bc1\u0bae\u0bcd\u0bae\u0bc2\u0b9f\u0bc1", "place": "village"}}, {"type": "node", "id": 7813908179, "lat": 9.2662256, "lon": 76.7227159, "tags": {"name": "Kannankara", "name:ml": "\u0d15\u0d23\u0d4d\u0d23\u0d7b\u0d15\u0d4d\u0d15\u0d30", "place": "village"}}, {"type": "node", "id": 7813929299, "lat": 9.2760973, "lon": 76.6863589, "tags": {"name": "Kuriyanappally", "name:ml": "\u0d15\u0d41\u0d30\u0d3f\u0d2f\u0d3e\u0d28\u0d2a\u0d4d\u0d2a\u0d33\u0d33\u0d3f", "place": "village"}}, {"type": "node", "id": 7813929324, "lat": 9.3040872, "lon": 76.6574868, "tags": {"name": "Kurichimuttom", "name:ml": "\u0d15\u0d41\u0d31\u0d3f\u0d1a\u0d4d\u0d1a\u0d3f\u0d2e\u0d41\u0d1f\u0d4d\u0d1f\u0d02", "place": "village"}}, {"type": "node", "id": 7813929325, "lat": 9.3248028, "lon": 76.6768567, "tags": {"name": "Edayaranmula", "name:ml": "\u0d07\u0d1f\u0d2f\u0d3e\u0d31\u0d28\u0d4d\u0d2e\u0d41\u0d33", "place": "village"}}, {"type": "node", "id": 7813929326, "lat": 9.3209326, "lon": 76.6749318, "tags": {"addr:postcode": "689532", "name": "Thuruthimala", "place": "village"}}, {"type": "node", "id": 7813929327, "lat": 9.318006, "lon": 76.6836851, "tags": {"name": "Thottapuzhassery", "name:ml": "\u0d24\u0d4b\u0d1f\u0d4d\u0d1f\u0d2a\u0d4d\u0d2a\u0d41\u0d34\u0d36\u0d47\u0d30\u0d3f", "place": "village", "wikidata": "Q7796930", "wikipedia": "en:Thottapuzhassery"}}, {"type": "node", "id": 7813929329, "lat": 9.3104594, "lon": 76.6759277, "tags": {"name": "Erumakkadu", "name:ml": "\u0d0e\u0d30\u0d41\u0d2e\u0d15\u0d4d\u0d15\u0d3e\u0d1f\u0d4d", "place": "village"}}, {"type": "node", "id": 7817373789, "lat": 9.3896274, "lon": 76.6523101, "tags": {"name": "Puramattom", "name:ml": "\u0d2a\u0d41\u0d31\u0d2e\u0d31\u0d4d\u0d31\u0d02", "place": "village"}}, {"type": "node", "id": 7830500635, "lat": 9.1996371, "lon": 76.7665933, "tags": {"name": "Edathitta", "name:ml": "\u0d07\u0d1f\u0d24\u0d4d\u0d24\u0d3f\u0d1f\u0d4d\u0d1f", "place": "village"}}, {"type": "node", "id": 7843245130, "lat": 9.3223327, "lon": 76.6330163, "tags": {"name": "Puthencavu", "name:ml": "\u0d2a\u0d41\u0d24\u0d4d\u0d24\u0d7b\u0d15\u0d3e\u0d35\u0d4d", "place": "village", "wikidata": "Q7262215", "wikipedia": "en:Puthencavu"}}, {"type": "node", "id": 7843245138, "lat": 9.3587884, "lon": 76.5881013, "tags": {"name": "Kuttoor", "name:ml": "\u0d15\u0d41\u0d31\u0d4d\u0d31\u0d42\u0d7c", "place": "village"}}, {"type": "node", "id": 7843245139, "lat": 9.337855, "lon": 76.6088265, "tags": {"name": "Kallissery", "name:ml": "\u0d15\u0d32\u0d4d\u0d32\u0d3f\u0d36\u0d47\u0d30\u0d3f", "place": "village", "wikidata": "Q6353866", "wikipedia": "en:Kallissery"}}, {"type": "node", "id": 7972740741, "lat": 9.6187219, "lon": 76.9429682, "tags": {"name": "Uppukulam", "name:ml": "\u0d09\u0d2a\u0d4d\u0d2a\u0d41\u0d15\u0d41\u0d33\u0d02", "place": "village"}}, {"type": "node", "id": 7973426811, "lat": 9.5380143, "lon": 76.9022875, "tags": {"name": "35th Mile", "name:ml": "35-\u0d3e\u0d02 \u0d2e\u0d48\u0d7d", "place": "village"}}, {"type": "node", "id": 7973427985, "lat": 9.4938176, "lon": 76.8702911, "tags": {"name": "Kannimala", "name:ml": "\u0d15\u0d23\u0d4d\u0d23\u0d3f\u0d2e\u0d32", "place": "village"}}, {"type": "node", "id": 7973427986, "lat": 9.5068, "lon": 76.8854228, "tags": {"name": "Pulikkunnu", "name:ml": "\u0d2a\u0d41\u0d32\u0d3f\u0d15\u0d4d\u0d15\u0d41\u0d28\u0d4d\u0d28\u0d4d", "place": "village"}}, {"type": "node", "id": 7980246282, "lat": 9.4230298, "lon": 76.8827568, "tags": {"name": "Chathanthara", "name:ml": "\u0d1a\u0d3e\u0d24\u0d4d\u0d24\u0d7b\u0d24\u0d31", "place": "village"}}, {"type": "node", "id": 7980688860, "lat": 9.5376546, "lon": 76.9373816, "tags": {"name": "Paloorkavu", "name:ml": "\u0d2a\u0d3e\u0d32\u0d42\u0d7c\u0d15\u0d4d\u0d15\u0d3e\u0d35\u0d4d", "place": "village"}}, {"type": "node", "id": 7980688861, "lat": 9.5339662, "lon": 76.9511763, "tags": {"name": "Thekkemala", "name:ml": "\u0d24\u0d46\u0d15\u0d4d\u0d15\u0d47\u0d2e\u0d32", "place": "village"}}, {"type": "node", "id": 7983830486, "lat": 9.5211315, "lon": 76.985432, "tags": {"name": "Kanayankavayal", "name:ml": "\u0d15\u0d23\u0d2f\u0d19\u0d4d\u0d15\u0d35\u0d2f\u0d7d", "place": "village"}}, {"type": "node", "id": 7984401496, "lat": 9.39121, "lon": 76.8528146, "tags": {"name": "Thonikkadavu", "name:ml": "\u0d24\u0d4b\u0d23\u0d3f\u0d15\u0d4d\u0d15\u0d1f\u0d35\u0d4d", "place": "village"}}, {"type": "node", "id": 7987048326, "lat": 9.4365401, "lon": 76.8090162, "tags": {"name": "Chethackal", "name:ml": "\u0d1a\u0d47\u0d24\u0d4d\u0d24\u0d2f\u0d4d\u0d15\u0d4d\u0d15\u0d7d", "place": "village"}}, {"type": "node", "id": 7987048327, "lat": 9.4422544, "lon": 76.813852, "tags": {"name": "Edamon", "name:ml": "\u0d07\u0d1f\u0d2e\u0d7a", "place": "village"}}, {"type": "node", "id": 7987048328, "lat": 9.4706812, "lon": 76.794146, "tags": {"name": "Charuveli", "name:ml": "\u0d1a\u0d3e\u0d30\u0d41\u0d35\u0d47\u0d32\u0d3f", "place": "village"}}, {"type": "node", "id": 8266260704, "lat": 9.275328, "lon": 76.5738491}, {"type": "node", "id": 8266260705, "lat": 9.2756408, "lon": 76.5738524}, {"type": "node", "id": 8266260706, "lat": 9.2761828, "lon": 76.5738834}, {"type": "node", "id": 8266260707, "lat": 9.2763752, "lon": 76.5738824}, {"type": "node", "id": 8266260708, "lat": 9.2768725, "lon": 76.5739258}, {"type": "node", "id": 8266260709, "lat": 9.2774389, "lon": 76.5739892}, {"type": "node", "id": 8266260710, "lat": 9.2777748, "lon": 76.5740593}, {"type": "node", "id": 8266260711, "lat": 9.2781601, "lon": 76.5741427}, {"type": "node", "id": 8266260712, "lat": 9.2786178, "lon": 76.574463}, {"type": "node", "id": 8266260713, "lat": 9.2789932, "lon": 76.5747366}, {"type": "node", "id": 8266260714, "lat": 9.2794477, "lon": 76.5751037}, {"type": "node", "id": 8266260715, "lat": 9.2798494, "lon": 76.575394}, {"type": "node", "id": 8266260716, "lat": 9.2803599, "lon": 76.5757777}, {"type": "node", "id": 8266291517, "lat": 9.280597, "lon": 76.5759078}, {"type": "node", "id": 8266291518, "lat": 9.281002, "lon": 76.5761047}, {"type": "node", "id": 8266291519, "lat": 9.2815487, "lon": 76.5764651}, {"type": "node", "id": 8266291520, "lat": 9.2819241, "lon": 76.5766319}, {"type": "node", "id": 8266291521, "lat": 9.2821447, "lon": 76.5767053}, {"type": "node", "id": 8266291522, "lat": 9.2826058, "lon": 76.5768588}, {"type": "node", "id": 8266291523, "lat": 9.2829812, "lon": 76.5770257}, {"type": "node", "id": 8266291524, "lat": 9.2838703, "lon": 76.577306}, {"type": "node", "id": 8266291525, "lat": 9.2846211, "lon": 76.5775696}, {"type": "node", "id": 8266291526, "lat": 9.2849834, "lon": 76.5781001}, {"type": "node", "id": 8266291527, "lat": 9.2855597, "lon": 76.5789643}, {"type": "node", "id": 8266291528, "lat": 9.2858704, "lon": 76.5797028}, {"type": "node", "id": 8266291529, "lat": 9.2862973, "lon": 76.5801723}, {"type": "node", "id": 8266291530, "lat": 9.2861985, "lon": 76.5814603}, {"type": "node", "id": 8266291531, "lat": 9.2861129, "lon": 76.5825814}, {"type": "node", "id": 8266291532, "lat": 9.2860404, "lon": 76.5834523}, {"type": "node", "id": 8266291533, "lat": 9.2859845, "lon": 76.5843132}, {"type": "node", "id": 8266291534, "lat": 9.2859482, "lon": 76.5852775}, {"type": "node", "id": 8266291535, "lat": 9.2858692, "lon": 76.5861017}, {"type": "node", "id": 8266291536, "lat": 9.2858231, "lon": 76.5864921}, {"type": "node", "id": 8266291537, "lat": 9.285474, "lon": 76.5868358}, {"type": "node", "id": 8266291538, "lat": 9.2852139, "lon": 76.5871829}, {"type": "node", "id": 8266291539, "lat": 9.2850756, "lon": 76.5872629}, {"type": "node", "id": 8266291540, "lat": 9.2849636, "lon": 76.5873397}, {"type": "node", "id": 8266291541, "lat": 9.2848582, "lon": 76.5874198}, {"type": "node", "id": 8266291542, "lat": 9.2847891, "lon": 76.5874565}, {"type": "node", "id": 8266291543, "lat": 9.2847331, "lon": 76.5875132}, {"type": "node", "id": 8266291544, "lat": 9.2846014, "lon": 76.5876066}, {"type": "node", "id": 8266291545, "lat": 9.2843149, "lon": 76.5878569}, {"type": "node", "id": 8266291546, "lat": 9.2841568, "lon": 76.587967}, {"type": "node", "id": 8266291547, "lat": 9.2828231, "lon": 76.5892083}, {"type": "node", "id": 8266291548, "lat": 9.2827079, "lon": 76.5893751}, {"type": "node", "id": 8266291549, "lat": 9.2825761, "lon": 76.5894652}, {"type": "node", "id": 8266291550, "lat": 9.2824444, "lon": 76.5896054}, {"type": "node", "id": 8266291551, "lat": 9.2823193, "lon": 76.5897055}, {"type": "node", "id": 8266291552, "lat": 9.282204, "lon": 76.589899}, {"type": "node", "id": 8266291553, "lat": 9.282013, "lon": 76.5901459}, {"type": "node", "id": 8266291554, "lat": 9.2819076, "lon": 76.5903628}, {"type": "node", "id": 8266291555, "lat": 9.281822, "lon": 76.5906064}, {"type": "node", "id": 8266291556, "lat": 9.2817331, "lon": 76.5909534}, {"type": "node", "id": 8266291557, "lat": 9.2815652, "lon": 76.5910735}, {"type": "node", "id": 8266291558, "lat": 9.2813774, "lon": 76.5913138}, {"type": "node", "id": 8266291559, "lat": 9.2809526, "lon": 76.5920546}, {"type": "node", "id": 8266291560, "lat": 9.2785289, "lon": 76.592842}, {"type": "node", "id": 8266291561, "lat": 9.278305, "lon": 76.5941734}, {"type": "node", "id": 8266291562, "lat": 9.2773467, "lon": 76.5949509}, {"type": "node", "id": 8266291563, "lat": 9.2778341, "lon": 76.5957684}, {"type": "node", "id": 8266291564, "lat": 9.2778999, "lon": 76.5970597}, {"type": "node", "id": 8266291565, "lat": 9.2779921, "lon": 76.597994}, {"type": "node", "id": 8266291566, "lat": 9.2771688, "lon": 76.5982543}, {"type": "node", "id": 8266291567, "lat": 9.2762994, "lon": 76.5977972}, {"type": "node", "id": 8266291568, "lat": 9.275351, "lon": 76.5961455}, {"type": "node", "id": 8266291569, "lat": 9.2746693, "lon": 76.594407}, {"type": "node", "id": 8266291570, "lat": 9.2738263, "lon": 76.5933325}, {"type": "node", "id": 8266291571, "lat": 9.2726836, "lon": 76.5933125}, {"type": "node", "id": 8266291572, "lat": 9.2707867, "lon": 76.5934894}, {"type": "node", "id": 8266291573, "lat": 9.2686955, "lon": 76.5883908}, {"type": "node", "id": 8266291574, "lat": 9.2679347, "lon": 76.5841864}, {"type": "node", "id": 8266291575, "lat": 9.2680632, "lon": 76.583499}, {"type": "node", "id": 8266291576, "lat": 9.2681192, "lon": 76.5832721}, {"type": "node", "id": 8266291577, "lat": 9.2681653, "lon": 76.5831086}, {"type": "node", "id": 8266291578, "lat": 9.2681982, "lon": 76.5829318}, {"type": "node", "id": 8266291579, "lat": 9.2682311, "lon": 76.5827916}, {"type": "node", "id": 8266291580, "lat": 9.2683003, "lon": 76.5825214}, {"type": "node", "id": 8266291581, "lat": 9.2683596, "lon": 76.5823078}, {"type": "node", "id": 8266291582, "lat": 9.2684024, "lon": 76.582151}, {"type": "node", "id": 8266291583, "lat": 9.2684518, "lon": 76.5820142}, {"type": "node", "id": 8266291584, "lat": 9.268488, "lon": 76.5819207}, {"type": "node", "id": 8266291585, "lat": 9.2685341, "lon": 76.5817472}, {"type": "node", "id": 8266291586, "lat": 9.2685868, "lon": 76.5815837}, {"type": "node", "id": 8266291587, "lat": 9.2686329, "lon": 76.5814202}, {"type": "node", "id": 8266291588, "lat": 9.268679, "lon": 76.5812601}, {"type": "node", "id": 8266291589, "lat": 9.2687251, "lon": 76.5811166}, {"type": "node", "id": 8266291590, "lat": 9.2687613, "lon": 76.5809097}, {"type": "node", "id": 8266291591, "lat": 9.2688042, "lon": 76.5808229}, {"type": "node", "id": 8266291592, "lat": 9.2688371, "lon": 76.5806694}, {"type": "node", "id": 8266291593, "lat": 9.2689491, "lon": 76.5802257}, {"type": "node", "id": 8266291594, "lat": 9.2689589, "lon": 76.5800021}, {"type": "node", "id": 8266291595, "lat": 9.2689886, "lon": 76.5798352}, {"type": "node", "id": 8266291596, "lat": 9.2690413, "lon": 76.5795683}, {"type": "node", "id": 8266291597, "lat": 9.2690841, "lon": 76.5794015}, {"type": "node", "id": 8266291598, "lat": 9.2691104, "lon": 76.5792346}, {"type": "node", "id": 8266291599, "lat": 9.2691401, "lon": 76.5791579}, {"type": "node", "id": 8266291600, "lat": 9.2691895, "lon": 76.5789877}, {"type": "node", "id": 8266291601, "lat": 9.2692323, "lon": 76.5788542}, {"type": "node", "id": 8266291602, "lat": 9.2693278, "lon": 76.5785406}, {"type": "node", "id": 8266291603, "lat": 9.2694793, "lon": 76.5784838}, {"type": "node", "id": 8266291604, "lat": 9.2696242, "lon": 76.5784305}, {"type": "node", "id": 8266291605, "lat": 9.2697361, "lon": 76.5783938}, {"type": "node", "id": 8266291606, "lat": 9.2698152, "lon": 76.5783604}, {"type": "node", "id": 8266291607, "lat": 9.2701873, "lon": 76.5781802}, {"type": "node", "id": 8266291608, "lat": 9.2703256, "lon": 76.5781301}, {"type": "node", "id": 8266291609, "lat": 9.2704112, "lon": 76.5781001}, {"type": "node", "id": 8266291610, "lat": 9.2704771, "lon": 76.5780834}, {"type": "node", "id": 8266291611, "lat": 9.2706055, "lon": 76.5780267}, {"type": "node", "id": 8266291612, "lat": 9.270701, "lon": 76.57799}, {"type": "node", "id": 8266291613, "lat": 9.2707998, "lon": 76.5779733}, {"type": "node", "id": 8266291614, "lat": 9.2711226, "lon": 76.5778031}, {"type": "node", "id": 8266291615, "lat": 9.271195, "lon": 76.5777564}, {"type": "node", "id": 8266291616, "lat": 9.2713136, "lon": 76.5776964}, {"type": "node", "id": 8266291617, "lat": 9.2714288, "lon": 76.577633}, {"type": "node", "id": 8266291618, "lat": 9.2715178, "lon": 76.5775929}, {"type": "node", "id": 8266291619, "lat": 9.2716363, "lon": 76.5775562}, {"type": "node", "id": 8266291620, "lat": 9.2717516, "lon": 76.5775329}, {"type": "node", "id": 8266291621, "lat": 9.2718668, "lon": 76.5774962}, {"type": "node", "id": 8266291622, "lat": 9.2719228, "lon": 76.5774828}, {"type": "node", "id": 8266291623, "lat": 9.2719953, "lon": 76.5774661}, {"type": "node", "id": 8266291624, "lat": 9.2721237, "lon": 76.5774161}, {"type": "node", "id": 8266291625, "lat": 9.2722456, "lon": 76.5773694}, {"type": "node", "id": 8266291626, "lat": 9.272565, "lon": 76.5771725}, {"type": "node", "id": 8266291627, "lat": 9.2726868, "lon": 76.576732}, {"type": "node", "id": 8266291628, "lat": 9.2727889, "lon": 76.5765218}, {"type": "node", "id": 8266291629, "lat": 9.2728449, "lon": 76.5764217}, {"type": "node", "id": 8266291630, "lat": 9.2729207, "lon": 76.5762482}, {"type": "node", "id": 8266291631, "lat": 9.2729865, "lon": 76.5761147}, {"type": "node", "id": 8266291632, "lat": 9.2731347, "lon": 76.5758178}, {"type": "node", "id": 8266291633, "lat": 9.2732335, "lon": 76.5756075}, {"type": "node", "id": 8266291634, "lat": 9.273329, "lon": 76.5754107}, {"type": "node", "id": 8266291635, "lat": 9.2734311, "lon": 76.5751938}, {"type": "node", "id": 8266291636, "lat": 9.2735266, "lon": 76.5749702}, {"type": "node", "id": 8266291637, "lat": 9.2736335, "lon": 76.5746677}, {"type": "node", "id": 8266291638, "lat": 9.2737868, "lon": 76.5743362}, {"type": "node", "id": 8266291639, "lat": 9.2738691, "lon": 76.5742828}, {"type": "node", "id": 8266291640, "lat": 9.2740008, "lon": 76.5742395}, {"type": "node", "id": 8266291641, "lat": 9.2740667, "lon": 76.5742194}, {"type": "node", "id": 8266291642, "lat": 9.2741622, "lon": 76.5741861}, {"type": "node", "id": 8266291643, "lat": 9.2742445, "lon": 76.574166}, {"type": "node", "id": 8266291644, "lat": 9.2743927, "lon": 76.5741293}, {"type": "node", "id": 8266291645, "lat": 9.2744783, "lon": 76.5740893}, {"type": "node", "id": 8266291646, "lat": 9.2745672, "lon": 76.5740893}, {"type": "node", "id": 8266291647, "lat": 9.2747517, "lon": 76.5740359}, {"type": "node", "id": 8266291648, "lat": 9.2749427, "lon": 76.5739658}, {"type": "node", "id": 8266291649, "lat": 9.2751962, "lon": 76.5738924}, {"type": "node", "id": 8325403559, "lat": 9.3685102, "lon": 76.6738561, "tags": {"name": "Purayidathilkavu", "name:ml": "\u0d2a\u0d41\u0d30\u0d2f\u0d1f\u0d24\u0d4d\u0d24\u0d3f\u0d7d\u0d15\u0d3e\u0d35\u0d4d", "place": "village"}}, {"type": "node", "id": 8325616106, "lat": 9.3813667, "lon": 76.6705733, "tags": {"name": "Pattakkala", "name:ml": "\u0d2a\u0d1f\u0d4d\u0d1f\u0d15\u0d4d\u0d15\u0d32", "place": "village"}}, {"type": "node", "id": 8349424985, "lat": 9.2861159, "lon": 76.5825427}, {"type": "node", "id": 8349425001, "lat": 9.286234, "lon": 76.5809974}, {"type": "node", "id": 8349444338, "lat": 9.2861035, "lon": 76.5826938}, {"type": "node", "id": 8349473520, "lat": 9.2857436, "lon": 76.5794979}, {"type": "node", "id": 8904733343, "lat": 9.3314661, "lon": 76.9270443, "tags": {"place": "village"}}, {"type": "node", "id": 8941900812, "lat": 9.295558, "lon": 76.7677714, "tags": {"name": "Thonniamala", "name:ml": "\u0d24\u0d4b\u0d28\u0d4d\u0d28\u0d3f\u0d2f\u0d3e\u0d2e\u0d32", "place": "village"}}, {"type": "node", "id": 8941900816, "lat": 9.2077103, "lon": 76.7828579, "tags": {"name": "Angadickal North", "name:ml": "\u0d05\u0d19\u0d4d\u0d19\u0d3e\u0d1f\u0d3f\u0d15\u0d4d\u0d15\u0d7d \u0d35\u0d1f\u0d15\u0d4d\u0d15\u0d4d", "place": "village"}}, {"type": "node", "id": 8941941817, "lat": 9.197715, "lon": 76.7895262, "tags": {"name": "Angadickal", "name:ml": "\u0d05\u0d19\u0d4d\u0d19\u0d3e\u0d1f\u0d3f\u0d15\u0d4d\u0d15\u0d7d", "place": "village"}}, {"type": "node", "id": 8941941818, "lat": 9.2717295, "lon": 76.735303, "tags": {"name": "Prakkanam", "name:ml": "\u0d2a\u0d4d\u0d30\u0d15\u0d4d\u0d15\u0d3e\u0d28\u0d02", "place": "village", "wikidata": "Q7238212", "wikimedia_commons": "Category:Prakkanam", "wikipedia": "en:Prakkanam"}}, {"type": "node", "id": 8941941819, "lat": 9.2886263, "lon": 76.7101553, "tags": {"name": "Kuzhikala", "name:ml": "\u0d15\u0d41\u0d34\u0d3f\u0d15\u0d4d\u0d15\u0d3e\u0d32", "place": "village"}}, {"type": "node", "id": 8943608184, "lat": 9.3973381, "lon": 76.6345009, "tags": {"name": "Kallooppara", "name:ml": "\u0d15\u0d32\u0d4d\u0d32\u0d42\u0d2a\u0d4d\u0d2a\u0d3e\u0d31", "place": "village", "population": "17719", "wikidata": "Q6353921", "wikipedia": "en:Kallooppara"}}, {"type": "node", "id": 8954592366, "lat": 9.2118541, "lon": 76.7245124, "tags": {"name": "Keerukuzhy", "name:ml": "\u0d15\u0d40\u0d30\u0d41\u0d15\u0d41\u0d34\u0d3f", "place": "village"}}, {"type": "node", "id": 8954592368, "lat": 9.2022384, "lon": 76.6761775, "tags": {"name": "Poozhikad", "name:ml": "\u0d2a\u0d42\u0d34\u0d3f\u0d15\u0d4d\u0d15\u0d3e\u0d1f\u0d4d", "place": "village"}}, {"type": "node", "id": 8954592369, "lat": 9.344548, "lon": 76.6513056, "tags": {"name": "Koipuram", "name:ml": "\u0d15\u0d4b\u0d2f\u0d3f\u0d2a\u0d4d\u0d2a\u0d41\u0d31\u0d02", "place": "village"}}, {"type": "node", "id": 8954592370, "lat": 9.4318801, "lon": 76.6720277, "tags": {"name": "Keezhvaipur", "name:ml": "\u0d15\u0d40\u0d34\u0d4d\u0d35\u0d3e\u0d2f\u0d4d\u0d2a\u0d42\u0d7c", "place": "village"}}, {"type": "node", "id": 8992527483, "lat": 9.2699673, "lon": 76.6119831, "tags": {"name": "Kodukulanji", "name:ml": "\u0d15\u0d4b\u0d1f\u0d41\u0d15\u0d41\u0d33\u0d1e\u0d4d\u0d1e\u0d3f", "place": "village"}}, {"type": "node", "id": 8992533421, "lat": 9.2757795, "lon": 76.5870412, "tags": {"name": "Cheriyanad", "name:ml": "\u0d1a\u0d46\u0d31\u0d3f\u0d2f\u0d28\u0d3e\u0d1f\u0d4d", "name:ta": "\u0b9a\u0bc6\u0bb0\u0bbf\u0baf\u0ba8\u0bbe\u0b9f\u0bc1", "place": "village", "wikidata": "Q5091994"}}, {"type": "node", "id": 8992548594, "lat": 9.2220677, "lon": 76.7027144, "tags": {"name": "Kadakkad", "name:ml": "\u0d15\u0d1f\u0d15\u0d4d\u0d15\u0d3e\u0d1f\u0d4d", "place": "village"}}, {"type": "node", "id": 9042458133, "lat": 9.6033648, "lon": 76.6269833, "tags": {"name": "Avathamkunnu", "name:en": "Avathamkunnu", "name:ml": "\u0d05\u0d35\u0d24\u0d3e\u0d02\u0d15\u0d41\u0d28\u0d4d\u0d28\u0d4d", "place": "village"}}, {"type": "node", "id": 9140462775, "lat": 9.6203026, "lon": 76.6632322, "tags": {"name": "Moozhoor", "name:en": "Moozhoor", "name:ml": "\u0d2e\u0d42\u0d34\u0d42\u0d7c", "place": "village"}}, {"type": "node", "id": 9140462818, "lat": 9.6295859, "lon": 76.6477811, "tags": {"name": "Manjamattam", "name:en": "Manjamattam", "name:ml": "\u0d2e\u0d1e\u0d4d\u0d1e\u0d3e\u0d2e\u0d31\u0d4d\u0d31\u0d02", "place": "village"}}, {"type": "node", "id": 9177915972, "lat": 9.5841147, "lon": 76.8854329, "tags": {"name": "Koottickal", "name:ml": "\u0d15\u0d42\u0d1f\u0d4d\u0d1f\u0d3f\u0d15\u0d4d\u0d15\u0d7d", "place": "village"}}, {"type": "node", "id": 9237526382, "lat": 9.3271841, "lon": 76.5777127, "tags": {"alt_name": "Pandavar Nadu", "name": "Pandanad", "name:ml": "\u0d2a\u0d3e\u0d23\u0d4d\u0d1f\u0d28\u0d3e\u0d1f\u0d4d", "place": "village", "wikidata": "Q7130486", "wikipedia": "en:Pandanad"}}, {"type": "node", "id": 9237526383, "lat": 9.3159818, "lon": 76.7094344, "tags": {"name": "Mallapuzhassery", "name:ml": "\u0d2e\u0d32\u0d4d\u0d32\u0d2a\u0d4d\u0d2a\u0d41\u0d34\u0d36\u0d4d\u0d36\u0d47\u0d30\u0d3f", "place": "village"}}, {"type": "node", "id": 9237526384, "lat": 9.3096098, "lon": 76.7102204, "tags": {"name": "Punnakkad", "name:ml": "\u0d2a\u0d41\u0d28\u0d4d\u0d28\u0d15\u0d4d\u0d15\u0d3e\u0d1f\u0d4d", "place": "village"}}, {"type": "node", "id": 9280022059, "lat": 9.6411779, "lon": 76.7526536}, {"type": "node", "id": 9280264575, "lat": 9.6395736, "lon": 76.7505487}, {"type": "node", "id": 9280264576, "lat": 9.6397692, "lon": 76.7507998}, {"type": "node", "id": 9315053180, "lat": 9.6405855, "lon": 76.7413864}, {"type": "node", "id": 9393743114, "lat": 9.4738609, "lon": 76.6281905, "tags": {"name": "Santhipuram", "name:en": "Santhipuram", "name:ml": "\u0d36\u0d3e\u0d28\u0d4d\u0d24\u0d3f\u0d2a\u0d41\u0d30\u0d02", "place": "village"}}, {"type": "node", "id": 9393759989, "lat": 9.4562977, "lon": 76.6256345, "tags": {"name": "Mukkoor", "name:en": "Mukkoor", "name:ml": "\u0d2e\u0d41\u0d15\u0d4d\u0d15\u0d42\u0d7c", "place": "village"}}, {"type": "node", "id": 9502758030, "lat": 9.4561726, "lon": 76.6209277, "tags": {"name": "Palackathakidi", "name:en": "Palackathakidi", "name:ml": "\u0d2a\u0d3e\u0d32\u0d2f\u0d4d\u0d15\u0d4d\u0d15\u0d3e\u0d24\u0d4d\u0d24\u0d15\u0d3f\u0d1f\u0d3f", "place": "village", "postal_code": "689581"}}, {"type": "node", "id": 9519179111, "lat": 9.2192148, "lon": 76.6679494, "tags": {"name": "Kurilkkavil", "place": "village", "population": "1000"}}, {"type": "node", "id": 9519214987, "lat": 9.2241471, "lon": 76.671154, "tags": {"name": "Muttar", "name:ml": "\u0d2e\u0d41\u0d1f\u0d4d\u0d1f\u0d3e\u0d7c", "place": "village"}}, {"type": "node", "id": 9527403764, "lat": 9.4785048, "lon": 76.5822899, "tags": {"name": "Perumpanachy", "name:en": "Perumpanachy", "name:ml": "\u0d2a\u0d46\u0d30\u0d41\u0d2e\u0d4d\u0d2a\u0d28\u0d1a\u0d4d\u0d1a\u0d3f", "place": "village", "wikidata": "Q7171071", "wikipedia": "en:Perumpanachy"}}, {"type": "node", "id": 9570929814, "lat": 9.4721607, "lon": 76.6715379, "tags": {"name": "Noorommavu", "place": "village"}}, {"type": "node", "id": 9572582503, "lat": 9.478066, "lon": 76.6416396, "tags": {"name": "Kochuparambu", "name:en": "Kochuparambu", "name:ml": "\u0d15\u0d4a\u0d1a\u0d4d\u0d1a\u0d41\u0d2a\u0d31\u0d2e\u0d4d\u0d2a\u0d4d", "place": "village"}}, {"type": "node", "id": 9651025728, "lat": 9.4338265, "lon": 76.6273287, "tags": {"name": "Chengaroor", "name:ml": "\u0d1a\u0d46\u0d19\u0d4d\u0d19\u0d30\u0d42\u0d30\u0d4d\u200d", "place": "village"}}, {"type": "node", "id": 9651043899, "lat": 9.4449457, "lon": 76.6218952, "tags": {"name": "Pulinthanam", "name:en": "Pulinthanam", "name:ml": "\u0d2a\u0d41\u0d33\u0d3f\u0d28\u0d4d\u0d24\u0d3e\u0d28\u0d02", "place": "village"}}, {"type": "node", "id": 9974027109, "lat": 9.3828672, "lon": 76.5925475, "tags": {"name": "Meenathalakkara", "name:ml": "\u0d2e\u0d40\u0d28\u0d24\u0d4d\u0d24\u0d32\u0d15\u0d4d\u0d15\u0d30", "place": "village"}}, {"type": "node", "id": 10143187334, "lat": 9.3542852, "lon": 76.6234922, "tags": {"name": "Othera", "name:ml": "\u0d13\u0d24\u0d31", "place": "village", "wikidata": "Q7108656", "wikipedia": "en:Othera"}}, {"type": "node", "id": 10143187335, "lat": 9.3337493, "lon": 76.6536699, "tags": {"name": "Nellickal", "name:ml": "\u0d28\u0d46\u0d32\u0d4d\u0d32\u0d3f\u0d15\u0d4d\u0d15\u0d7d", "place": "village"}}, {"type": "node", "id": 10143187336, "lat": 9.3147976, "lon": 76.6487953, "tags": {"name": "Neervilakom", "name:ml": "\u0d28\u0d40\u0d7c\u0d35\u0d3f\u0d33\u0d3e\u0d15\u0d02", "place": "village", "wikidata": "Q6986964", "wikipedia": "en:Neervilakom"}}, {"type": "node", "id": 10143187337, "lat": 9.2479139, "lon": 76.7894308, "tags": {"name": "Pramadom", "name:ml": "\u0d2a\u0d4d\u0d30\u0d2e\u0d26\u0d02", "place": "village"}}, {"type": "node", "id": 10213956203, "lat": 9.258892, "lon": 76.6594901, "tags": {"name": "Manthuka", "name:ml": "\u0d2e\u0d3e\u0d28\u0d4d\u0d24\u0d41\u0d15", "place": "village"}}, {"type": "node", "id": 10213956204, "lat": 9.2576361, "lon": 76.6767811, "tags": {"name": "Ullannoor", "name:ml": "\u0d09\u0d33\u0d4d\u0d33\u0d28\u0d4d\u0d28\u0d42\u0d7c", "place": "village"}}, {"type": "node", "id": 10213956205, "lat": 9.1995431, "lon": 76.7225038, "tags": {"name": "Pandalam Thekkekara", "name:ml": "\u0d2a\u0d28\u0d4d\u0d24\u0d33\u0d02 \u0d24\u0d46\u0d15\u0d4d\u0d15\u0d47\u0d15\u0d4d\u0d15\u0d30", "place": "village"}}, {"type": "node", "id": 10288032079, "lat": 9.3814135, "lon": 76.7454872, "tags": {"name": "Plankamon", "name:ml": "\u0d2a\u0d4d\u0d32\u0d3e\u0d19\u0d4d\u0d15\u0d2e\u0d7a", "place": "village"}}, {"type": "node", "id": 10288032080, "lat": 9.3838759, "lon": 76.7101824, "tags": {"name": "Thadiyoor", "name:ml": "\u0d24\u0d1f\u0d3f\u0d2f\u0d42\u0d7c", "place": "village"}}, {"type": "node", "id": 10288032081, "lat": 9.352403, "lon": 76.7241662, "tags": {"name": "Cherukolpuzha", "name:ml": "\u0d1a\u0d46\u0d31\u0d41\u0d15\u0d4b\u0d7d\u0d2a\u0d4d\u0d2a\u0d41\u0d34", "place": "village"}}, {"type": "node", "id": 10574432902, "lat": 9.310354, "lon": 76.6001538, "tags": {"name": "Perissery", "name:ml": "\u0d2a\u0d46\u0d30\u0d3f\u0d36\u0d4d\u0d36\u0d47\u0d30\u0d3f", "place": "village"}}, {"type": "node", "id": 10574432903, "lat": 9.3011801, "lon": 76.5869772, "tags": {"name": "Puliyoor", "name:ml": "\u0d2a\u0d41\u0d32\u0d3f\u0d2f\u0d42\u0d7c", "place": "village"}}, {"type": "node", "id": 10701432609, "lat": 9.3408993, "lon": 76.8520466, "tags": {"name": "Pezhumpara", "name:ml": "\u0d2a\u0d47\u0d34\u0d41\u0d02\u0d2a\u0d3e\u0d31", "note": "good village", "place": "village", "population": "315"}}, {"type": "node", "id": 10856282631, "lat": 9.4654264, "lon": 76.9629568, "tags": {"name": "Koruthodu", "name:ml": "\u0d15\u0d4b\u0d30\u0d41\u0d24\u0d4d\u0d24\u0d4b\u0d1f\u0d4d", "place": "village", "wikidata": "Q13111718", "wikipedia": "en:Koruthodu"}}, {"type": "node", "id": 10857589008, "lat": 9.4967741, "lon": 76.898007, "tags": {"name": "Punchavayal", "name:ml": "\u0d2a\u0d41\u0d1e\u0d4d\u0d1a\u0d35\u0d2f\u0d7d", "place": "village"}}, {"type": "node", "id": 10857686823, "lat": 9.5735294, "lon": 76.8974332, "tags": {"name": "Kokkayar", "name:ml": "\u0d15\u0d4a\u0d15\u0d4d\u0d15\u0d2f\u0d3e\u0d7c", "place": "village"}}, {"type": "node", "id": 10857686826, "lat": 9.6180123, "lon": 76.8888306, "tags": {"name": "Yendayar", "name:ml": "\u0d0f\u0d28\u0d4d\u0d24\u0d2f\u0d3e\u0d7c", "place": "village"}}, {"type": "node", "id": 10857686828, "lat": 9.634068, "lon": 76.8955539, "tags": {"name": "Elamkadu", "name:ml": "\u0d07\u0d33\u0d02\u0d15\u0d3e\u0d1f\u0d4d", "place": "village"}}, {"type": "node", "id": 10860238069, "lat": 9.4186756, "lon": 76.8604196, "tags": {"name": "Mannadisala", "name:ml": "\u0d2e\u0d23\u0d4d\u0d23\u0d1f\u0d3f\u0d36\u0d3e\u0d32", "place": "village"}}, {"type": "node", "id": 10860338462, "lat": 9.3680121, "lon": 76.8504863, "tags": {"name": "Ranni Perunadu", "name:ml": "\u0d31\u0d3e\u0d28\u0d4d\u0d28\u0d3f \u0d2a\u0d46\u0d30\u0d41\u0d28\u0d3e\u0d1f\u0d4d", "place": "village"}}, {"type": "node", "id": 11108964675, "lat": 9.6431988, "lon": 76.7550135}, {"type": "node", "id": 11169822298, "lat": 9.6283377, "lon": 76.6738441, "tags": {"name": "Poovathilappu", "name:en": "Poovathilappu", "name:ml": "\u0d2a\u0d42\u0d35\u0d24\u0d3f\u0d33\u0d2a\u0d4d\u0d2a\u0d4d", "place": "village"}}, {"type": "node", "id": 11169822299, "lat": 9.6218502, "lon": 76.6787172, "tags": {"name": "Mundankunnu", "name:en": "Mundankunnu", "name:ml": "\u0d2e\u0d41\u0d23\u0d4d\u0d1f\u0d7b\u0d15\u0d41\u0d28\u0d4d\u0d28\u0d4d", "place": "village"}}, {"type": "node", "id": 11169822307, "lat": 9.4392712, "lon": 76.5657178, "tags": {"name": "Thrikkodithanam", "name:en": "Thrikkodithanam", "name:ml": "\u0d24\u0d43\u0d15\u0d4d\u0d15\u0d4a\u0d1f\u0d3f\u0d24\u0d4d\u0d24\u0d3e\u0d28\u0d02", "place": "village", "wikidata": "Q7798160", "wikipedia": "en:Thrikkodithanam"}}, {"type": "node", "id": 11460220190, "lat": 9.6366824, "lon": 76.6564451, "tags": {"name": "Karimpani", "place": "village"}}, {"type": "node", "id": 11460220192, "lat": 9.6362901, "lon": 76.6285944, "tags": {"name": "Mannoor", "place": "village"}}, {"type": "node", "id": 11463481894, "lat": 9.617036, "lon": 76.6439549, "tags": {"name": "Lakkattoor", "place": "village"}}, {"type": "node", "id": 11463481895, "lat": 9.6044876, "lon": 76.6536936, "tags": {"name": "Eratthupuzha", "place": "village"}}, {"type": "node", "id": 11463481896, "lat": 9.6329601, "lon": 76.619866, "tags": {"name": "Chennamattam", "place": "village"}}, {"type": "node", "id": 11475890344, "lat": 9.6172357, "lon": 76.6168967, "tags": {"name": "Poothirikkal", "place": "village"}}, {"type": "node", "id": 11782243393, "lat": 9.2897167, "lon": 76.6715272, "tags": {"name": "Elimukku", "name:ml": "\u0d0e\u0d33\u0d3f\u0d2e\u0d41\u0d15\u0d4d\u0d15\u0d4d", "place": "village"}}, {"type": "node", "id": 11782361827, "lat": 9.3547885, "lon": 76.7666782, "tags": {"name": "Peroorchal", "name:ml": "\u0d2a\u0d47\u0d30\u0d42\u0d7c\u0d1a\u0d4d\u0d1a\u0d3e\u0d7d", "place": "village"}}, {"type": "node", "id": 11784913211, "lat": 9.5490453, "lon": 76.8402639, "tags": {"name": "Edakkunnam", "place": "village", "wikidata": "Q5335667"}}, {"type": "node", "id": 11813224374, "lat": 9.2945936, "lon": 76.6023272, "tags": {"name": "Ala", "name:ml": "\u0d06\u0d32\u0d3e", "place": "village"}}, {"type": "node", "id": 11834278021, "lat": 9.3432746, "lon": 76.5788008, "tags": {"name": "Thiruvanvandoor", "name:ml": "\u0d24\u0d3f\u0d30\u0d41\u0d35\u0d28\u0d4d\u200d\u0d35\u0d23\u0d4d\u0d1f\u0d42\u0d30\u0d4d\u200d", "place": "village", "wikidata": "Q7785521"}}, {"type": "node", "id": 11911142706, "lat": 9.3450128, "lon": 76.7593142, "tags": {"name": "Puthamon", "name:ml": "\u0d2a\u0d41\u0d24\u0d2e\u0d7a", "place": "village"}}, {"type": "way", "id": 447111657, "nodes": [4443049059, 4551013093, 4443049060, 4443049061, 4443049062, 4475199143, 4443049063, 4443049064, 4443049065, 4443049066, 4498743270, 4443049067, 4443049068, 4443049069, 4443049070, 4443049071, 4443049072, 4443049073, 4443049074, 4443049075, 4443049076, 4443049077, 4443049078, 4443049079, 4443049080, 4443049081, 4443049082, 4443049083, 4443049084, 4525779525, 4443049085, 4443049086, 4443049087, 4443049088, 4443049059], "tags": {"name": "Chirakkadavu", "name:ml": "\u0d1a\u0d3f\u0d31\u0d15\u0d4d\u0d15\u0d1f\u0d35\u0d4d", "place": "village"}}, {"type": "way", "id": 674415029, "nodes": [3007236909, 6315947361, 9280264575, 9280264576, 9280022059, 6315947362, 11108964675, 6315947363, 6315947364, 6315947365, 6315947366, 6315947367, 6315947368, 9315053180, 6315947369, 3007236909], "tags": {"name": "Mallikashery", "place": "village"}}, {"type": "way", "id": 889150086, "nodes": [8266260704, 8266260705, 8266260706, 8266260707, 8266260708, 8266260709, 8266260710, 8266260711, 8266260712, 8266260713, 8266260714, 8266260715, 8266260716, 8266291517, 8266291518, 8266291519, 8266291520, 8266291521, 8266291522, 8266291523, 8266291524, 8266291525, 8266291526, 8266291527, 8349473520, 8266291528, 8266291529, 8349425001, 8266291530, 8349424985, 8266291531, 8349444338, 8266291532, 8266291533, 8266291534, 8266291535, 8266291536, 8266291537, 8266291538, 8266291539, 8266291540, 8266291541, 8266291542, 8266291543, 8266291544, 8266291545, 8266291546, 8266291547, 8266291548, 8266291549, 8266291550, 8266291551, 8266291552, 8266291553, 8266291554, 8266291555, 8266291556, 8266291557, 8266291558, 8266291559, 8266291560, 8266291561, 8266291562, 8266291563, 8266291564, 8266291565, 8266291566, 8266291567, 8266291568, 8266291569, 8266291570, 8266291571, 8266291572, 8266291573, 8266291574, 8266291575, 8266291576, 8266291577, 8266291578, 8266291579, 8266291580, 8266291581, 8266291582, 8266291583, 8266291584, 8266291585, 8266291586, 8266291587, 8266291588, 8266291589, 8266291590, 8266291591, 8266291592, 8266291593, 8266291594, 8266291595, 8266291596, 8266291597, 8266291598, 8266291599, 8266291600, 8266291601, 8266291602, 8266291603, 8266291604, 8266291605, 8266291606, 8266291607, 8266291608, 8266291609, 8266291610, 8266291611, 8266291612, 8266291613, 8266291614, 8266291615, 8266291616, 8266291617, 8266291618, 8266291619, 8266291620, 8266291621, 8266291622, 8266291623, 8266291624, 8266291625, 8266291626, 8266291627, 8266291628, 8266291629, 8266291630, 8266291631, 8266291632, 8266291633, 8266291634, 8266291635, 8266291636, 8266291637, 8266291638, 8266291639, 8266291640, 8266291641, 8266291642, 8266291643, 8266291644, 8266291645, 8266291646, 8266291647, 8266291648, 8266291649, 8266260704], "tags": {"name": "cheriyanad", "place": "village", "wikidata": "Q5091994", "wikimedia_commons": "Category:Cheriyanad", "wikipedia": "en:Cheriyanad"}}]}