{"version": 0.6, "generator": "Overpass API 0.7.62.1 084b4234", "osm3s": {"timestamp_osm_base": "2024-11-07T07:12:16Z", "copyright": "The data included in this document is from www.openstreetmap.org. The data is made available under ODbL."}, "elements": [{"type": "node", "id": 360376686, "lat": 8.5308458, "lon": 77.1257907, "tags": {"name": "Kallikkad", "name:en": "Kallikkad", "name:ml": "\u0d15\u0d33\u0d4d\u0d33\u0d3f\u0d15\u0d4d\u0d15\u0d3e\u0d1f\u0d4d", "name:ta": "\u0b95\u0bb3\u0bcd\u0bb3\u0bbf\u0b95\u0bcd\u0b95\u0bbe\u0b9f\u0bc1", "place": "village", "wikidata": "Q6353812", "wikipedia": "en:Kallikkad"}}, {"type": "node", "id": 360376693, "lat": 8.5063571, "lon": 77.0968663, "tags": {"name": "Muthiyavila", "name:en": "Muthiyavila", "name:ml": "\u0d2e\u0d41\u0d24\u0d3f\u0d2f\u0d35\u0d3f\u0d33", "place": "village"}}, {"type": "node", "id": 1499050613, "lat": 8.6440862, "lon": 77.0556409, "tags": {"name": "Tholicode", "name:en": "Tholicode", "name:ml": "\u0d24\u0d4a\u0d33\u0d3f\u0d15\u0d4d\u0d15\u0d4b\u0d1f\u0d4d", "place": "village"}}, {"type": "node", "id": 2156020226, "lat": 8.4699665, "lon": 77.0308281, "tags": {"name": "Machel", "name:en": "Machel", "name:ml": "\u0d2e\u0d1a\u0d4d\u0d1a\u0d47\u0d7d", "place": "village"}}, {"type": "node", "id": 2156134846, "lat": 8.5081293, "lon": 77.0261513, "tags": {"name": "Thachottukavu", "name:en": "Thachottukavu", "name:ml": "\u0d24\u0d1a\u0d4d\u0d1a\u0d4b\u0d1f\u0d4d\u0d1f\u0d41\u0d15\u0d3e\u0d35\u0d4d", "name:ta": "\u0ba4\u0b9a\u0bcd\u0b9a\u0bcb\u0b9f\u0bcd\u0b9f\u0bc1\u0b95\u0bbe\u0bb5\u0bcd", "place": "village"}}, {"type": "node", "id": 2828582754, "lat": 8.3554461, "lon": 77.0199866, "tags": {"name": "Adimalathura", "name:en": "Adimalathura", "name:ml": "\u0d05\u0d1f\u0d3f\u0d2e\u0d32\u0d24\u0d4d\u0d24\u0d41\u0d31", "name:ta": "\u0b85\u0b9f\u0bbf\u0bae\u0bb2\u0ba4\u0bcd\u0ba4\u0bc1\u0bb1\u0bc8", "place": "village", "wikidata": "Q4682855"}}, {"type": "node", "id": 2889454245, "lat": 8.7232574, "lon": 77.0283918, "tags": {"name": "Palode", "name:ml": "\u0d2a\u0d3e\u0d32\u0d4b\u0d1f\u0d4d", "place": "village"}}, {"type": "node", "id": 2899560809, "lat": 8.5509922, "lon": 77.066581, "tags": {"name": "Uriyacode", "name:en": "Uriyacode", "name:ml": "\u0d09\u0d31\u0d3f\u0d2f\u0d3e\u0d15\u0d4d\u0d15\u0d4b\u0d1f\u0d4d", "place": "village"}}, {"type": "node", "id": 3213963861, "lat": 8.5672093, "lon": 77.1014928, "tags": {"name": "Kuttichal", "name:en": "Kuttichal", "name:ml": "\u0d15\u0d41\u0d31\u0d4d\u0d31\u0d3f\u0d1a\u0d4d\u0d1a\u0d7d", "name:ta": "\u0b95\u0bc1\u0bb1\u0bcd\u0bb1\u0bbf\u0b9a\u0bcd\u0b9a\u0bb2\u0bcd", "place": "village"}}, {"type": "node", "id": 3590288133, "lat": 8.5795655, "lon": 77.0843942, "tags": {"name": "Aryanad", "name:en": "Aryanad", "name:ml": "\u0d06\u0d30\u0d4d\u0d2f\u0d28\u0d3e\u0d1f\u0d4d", "place": "village"}}, {"type": "node", "id": 3637841736, "lat": 8.7088425, "lon": 77.0011352, "tags": {"name": "Perayam", "name:ml": "\u0d2a\u0d47\u0d30\u0d2f\u0d02", "place": "village", "wikidata": "Q13113469", "wikipedia": "ml:\u0d2a\u0d47\u0d30\u0d2f\u0d02 \u0d17\u0d4d\u0d30\u0d3e\u0d2e\u0d2a\u0d1e\u0d4d\u0d1a\u0d3e\u0d2f\u0d24\u0d4d\u0d24\u0d4d"}}, {"type": "node", "id": 4434041503, "lat": 8.4248028, "lon": 77.0950396, "tags": {"name": "Aruvipuram", "name:en": "Aruvipuram", "name:ml": "\u0d05\u0d30\u0d41\u0d35\u0d3f\u0d2a\u0d4d\u0d2a\u0d41\u0d31\u0d02", "name:ta": "\u0b85\u0bb0\u0bc1\u0bb5\u0bbf\u0baa\u0bcd\u0baa\u0bc1\u0bb1\u0bae\u0bcd", "place": "village"}}, {"type": "node", "id": 4684828484, "lat": 8.5259747, "lon": 77.0406273, "tags": {"name": "Vilappilsala", "name:en": "Vilappilsala", "name:ml": "\u0d35\u0d3f\u0d33\u0d2a\u0d4d\u0d2a\u0d3f\u0d7d\u0d36\u0d3e\u0d32", "place": "village"}}, {"type": "node", "id": 5297003748, "lat": 8.6422703, "lon": 77.0206771, "tags": {"name": "Chullimanoor", "name:en": "chullimanoor", "name:ml": "\u0d1a\u0d41\u0d33\u0d4d\u0d33\u0d3f\u0d2e\u0d3e\u0d28\u0d42\u0d7c", "place": "village"}}, {"type": "node", "id": 5297003749, "lat": 8.6330743, "lon": 77.0110095, "tags": {"name": "Anad", "name:en": "Anad", "name:ml": "\u0d06\u0d28\u0d3e\u0d1f\u0d4d", "place": "village"}}, {"type": "node", "id": 5297003750, "lat": 8.5889345, "lon": 76.9959095, "tags": {"name": "Paththaam Kallu", "name:en": "Paththaam Kallu", "name:ml": "\u0d2a\u0d24\u0d4d\u0d24\u0d3e\u0d02 \u0d15\u0d32\u0d4d\u0d32\u0d4d", "place": "village"}}, {"type": "node", "id": 5297003751, "lat": 8.5625502, "lon": 76.9838718, "tags": {"name": "Karakulam", "name:en": "Karakulam", "name:ml": "\u0d15\u0d30\u0d15\u0d41\u0d33\u0d02", "place": "village"}}, {"type": "node", "id": 5308518352, "lat": 8.6777432, "lon": 77.1089876, "tags": {"name": "Shanthi Nagar", "name:en": "Shanthi Nagar", "name:ml": "\u0d36\u0d3e\u0d28\u0d4d\u0d24\u0d3f \u0d28\u0d17\u0d7c", "place": "village"}}, {"type": "node", "id": 5327212201, "lat": 8.3117286, "lon": 77.1059394, "tags": {"name": "Pazhaya Uchakkada", "name:en": "Pazhaya Uchakkada", "name:ml": "\u0d2a\u0d34\u0d2f \u0d09\u0d1a\u0d4d\u0d1a\u0d15\u0d4d\u0d15\u0d1f", "name:ta": "\u0baa\u0bb4\u0bc8\u0baf \u0b89\u0b9a\u0bcd\u0b9a\u0b95\u0bcd\u0b95\u0b9f\u0bc8", "place": "village"}}, {"type": "node", "id": 5328802535, "lat": 8.301634, "lon": 77.0917189, "tags": {"name": "Pozhiyoor", "name:en": "Pozhiyoor", "name:ml": "\u0d2a\u0d4a\u0d34\u0d3f\u0d2f\u0d42\u0d7c", "name:ta": "\u0baa\u0bca\u0bb4\u0bbf\u0baf\u0bc2\u0bb0\u0bcd", "place": "village", "wikidata": "Q7237026"}}, {"type": "node", "id": 5328841982, "lat": 8.3261997, "lon": 77.1359109, "tags": {"name": "Karode", "name:en": "Karode", "name:ml": "\u0d15\u0d3e\u0d30\u0d4b\u0d1f\u0d4d", "name:ta": "\u0b95\u0bbe\u0bb0\u0bcb\u0b9f\u0bc1", "place": "village"}}, {"type": "node", "id": 5328841989, "lat": 8.3160084, "lon": 77.0972335, "tags": {"name": "Uchakkada", "name:en": "Uchakkada", "name:ml": "\u0d09\u0d1a\u0d4d\u0d1a\u0d15\u0d4d\u0d15\u0d1f", "place": "village"}}, {"type": "node", "id": 6383331215, "lat": 8.6897414, "lon": 77.0604043, "tags": {"name": "Chettachal", "name:en": "Chettachal", "name:ml": "\u0d1a\u0d46\u0d31\u0d4d\u0d31\u0d1a\u0d4d\u0d1a\u0d7d", "place": "village"}}, {"type": "node", "id": 6482347254, "lat": 8.6529672, "lon": 77.0700652, "tags": {"name": "Thottumukku", "name:en": "Thottumukku", "name:ml": "\u0d24\u0d4b\u0d1f\u0d4d\u0d1f\u0d41\u0d2e\u0d41\u0d15\u0d4d\u0d15\u0d4d", "place": "village"}}, {"type": "node", "id": 7124366187, "lat": 8.44177, "lon": 77.1115347, "tags": {"name": "Perumkadavila", "name:en": "Perumkadavila", "name:ml": "\u0d2a\u0d46\u0d30\u0d41\u0d19\u0d4d\u0d15\u0d1f\u0d35\u0d3f\u0d33", "name:ta": "\u0baa\u0bc6\u0bb0\u0bc1\u0b99\u0bcd\u0b95\u0b9f\u0bb5\u0bbf\u0bb3\u0bc8", "place": "village", "website": "http://lsgkerala.in/perumkadavilablock/about/"}}, {"type": "node", "id": 7465787050, "lat": 8.6926871, "lon": 77.1062106, "tags": {"name": "Anappara", "name:en": "Anappara", "name:ml": "\u0d06\u0d28\u0d2a\u0d4d\u0d2a\u0d3e\u0d31", "place": "village"}}, {"type": "node", "id": 7832566539, "lat": 8.3796678, "lon": 77.1209053, "tags": {"name": "Udiyankulangara", "name:en": "Udiyankulangara", "name:ml": "\u0d09\u0d26\u0d3f\u0d2f\u0d7b\u0d15\u0d41\u0d33\u0d19\u0d4d\u0d19\u0d30", "name:ta": "\u0b89\u0ba4\u0bbf\u0baf\u0ba9\u0bcd\u0b95\u0bc1\u0bb3\u0b99\u0bcd\u0b95\u0bb0\u0bc8", "place": "village"}}, {"type": "node", "id": 7832566540, "lat": 8.3890907, "lon": 77.1036918, "tags": {"name": "Amaravila", "name:en": "Amaravila", "name:ml": "\u0d05\u0d2e\u0d30\u0d35\u0d3f\u0d33", "name:ta": "\u0b85\u0bae\u0bb0\u0bb5\u0bbf\u0bb3\u0bc8", "place": "village", "wikidata": "Q4740205"}}, {"type": "node", "id": 7832566541, "lat": 8.3840483, "lon": 77.1283036, "tags": {"name": "Dhanuvachapuram", "name:en": "Dhanuvachapuram", "name:ml": "\u0d27\u0d28\u0d41\u0d35\u0d1a\u0d4d\u0d1a\u0d2a\u0d41\u0d30\u0d02", "name:ta": "\u0ba4\u0ba9\u0bc1\u0bb5\u0b9a\u0bcd\u0b9a\u0baa\u0bc1\u0bb0\u0bae\u0bcd", "place": "village"}}, {"type": "node", "id": 8448466199, "lat": 8.4610067, "lon": 77.0416031, "tags": {"junction": "yes", "name": "Valiyarathala", "name:en": "Valiyarathala", "name:ml": "\u0d35\u0d32\u0d3f\u0d2f\u0d31\u0d24\u0d4d\u0d24\u0d32", "place": "village"}}, {"type": "node", "id": 8751988073, "lat": 8.3789469, "lon": 77.0463312, "tags": {"name": "Nellimoodu", "name:en": "Nellimoodu", "name:ml": "\u0d28\u0d46\u0d32\u0d4d\u0d32\u0d3f\u0d2e\u0d42\u0d1f\u0d4d", "name:ta": "\u0ba8\u0bc6\u0bb2\u0bcd\u0bb2\u0bbf\u0bae\u0bc2\u0b9f\u0bcd", "place": "village"}}, {"type": "node", "id": 9625858859, "lat": 8.4557164, "lon": 77.1953476, "tags": {"name": "Vellarada", "name:en": "Vellarada", "name:ml": "\u0d35\u0d46\u0d33\u0d4d\u0d33\u0d31\u0d1f", "name:ta": "\u0bb5\u0bc6\u0bb3\u0bcd\u0bb3\u0bb0\u0b9f\u0bc8", "place": "village", "wikidata": "Q7919144", "wikipedia": "en:Vellarada"}}, {"type": "node", "id": 10571235101, "lat": 8.5711019, "lon": 77.0158607, "tags": {"name": "Aruvikkara", "name:en": "Aruvikkara", "name:ml": "\u0d05\u0d30\u0d41\u0d35\u0d3f\u0d15\u0d4d\u0d15\u0d30", "place": "village"}}, {"type": "node", "id": 10689029065, "lat": 8.6990174, "lon": 77.0264619, "tags": {"name": "Nanniyode", "name:en": "Nandiyodu", "name:ml": "\u0d28\u0d28\u0d4d\u0d26\u0d3f\u0d2f\u0d4b\u0d1f\u0d4d", "place": "village"}}, {"type": "node", "id": 10689029066, "lat": 8.6701034, "lon": 77.0252014, "tags": {"name": "Elavattom", "name:en": "Elavattom", "name:ml": "\u0d07\u0d33\u0d35\u0d1f\u0d4d\u0d1f\u0d02", "place": "village"}}, {"type": "node", "id": 10866908652, "lat": 8.7273241, "lon": 77.0457074, "tags": {"name": "Peringamala", "place": "village"}}, {"type": "node", "id": 10867015984, "lat": 8.7070485, "lon": 77.0707992, "tags": {"name": "Thennoor", "name:ml": "\u0d24\u0d46\u0d28\u0d4d\u0d28\u0d42\u0d7c", "place": "village"}}, {"type": "node", "id": 10928106772, "lat": 8.3439381, "lon": 77.0364708, "tags": {"name": "Pulluvila", "name:en": "Pulluvila", "name:ml": "\u0d2a\u0d41\u0d32\u0d4d\u0d32\u0d41\u0d35\u0d3f\u0d33", "name:ta": "\u0baa\u0bc1\u0bb2\u0bcd\u0bb2\u0bc1\u0bb5\u0bbf\u0bb3\u0bc8", "place": "village"}}, {"type": "node", "id": 10928106773, "lat": 8.3601022, "lon": 77.0525935, "tags": {"name": "Kanjiramkulam", "name:en": "Kanjiramkulam", "name:ml": "\u0d15\u0d3e\u0d1e\u0d4d\u0d1e\u0d3f\u0d30\u0d02\u0d15\u0d41\u0d33\u0d02", "name:ta": "\u0b95\u0bbe\u0b9e\u0bcd\u0b9a\u0bbf\u0bb0\u0bae\u0bcd\u0b95\u0bc1\u0bb3\u0bae\u0bcd", "place": "village"}}, {"type": "node", "id": 10928106780, "lat": 8.3620049, "lon": 77.0796865, "tags": {"name": "Thirupuram", "name:en": "Thirupuram", "name:ml": "\u0d24\u0d3f\u0d30\u0d41\u0d2a\u0d41\u0d31\u0d02", "name:ta": "\u0ba4\u0bbf\u0bb0\u0bc1\u0baa\u0bc1\u0bb1\u0bae\u0bcd", "place": "village"}}, {"type": "node", "id": 10928780752, "lat": 8.3556041, "lon": 77.1430993, "tags": {"name": "idichakkaplamoodu", "name:en": "idichakkaplamoodu", "name:ml": "\u0d07\u0d1f\u0d3f\u0d1a\u0d4d\u0d1a\u0d15\u0d4d\u0d15\u0d2a\u0d4d\u0d32\u0d3e\u0d2e\u0d42\u0d1f\u0d4d", "name:ta": "\u0b87\u0b9f\u0bbf\u0b9a\u0bcd\u0b9a\u0b95\u0bcd\u0b95\u0baa\u0bbf\u0bb3\u0bbe\u0bae\u0bc2\u0b9f\u0bcd", "place": "village"}}, {"type": "node", "id": 11444308103, "lat": 8.3885859, "lon": 77.1710927, "tags": {"name": "Karakonam", "name:ml": "\u0d15\u0d3e\u0d30\u0d15\u0d4d\u0d15\u0d4b\u0d23\u0d02", "name:ta": "\u0b95\u0bbe\u0bb0\u0b95\u0bcd\u0b95\u0bcb\u0ba3\u0bae\u0bcd", "place": "village", "wikidata": "Q6368133", "wikipedia": "en:Karakonam"}}, {"type": "node", "id": 11444308104, "lat": 8.4054395, "lon": 77.1827782, "tags": {"name": "Nilamamoodu", "name:ml": "\u0d28\u0d3f\u0d32\u0d2e\u0d3e\u0d2e\u0d4d\u0d2e\u0d42\u0d1f\u0d4d", "name:ta": "\u0ba8\u0bbf\u0bb2\u0bae\u0bbe\u0bae\u0bc2\u0b9f\u0bc1", "place": "village"}}, {"type": "node", "id": 11444308105, "lat": 8.4196223, "lon": 77.1965414, "tags": {"name": "Puliyoorshala", "name:ml": "\u0d2a\u0d41\u0d32\u0d3f\u0d2f\u0d42\u0d7c\u0d36\u0d3e\u0d32", "name:ta": "\u0baa\u0bc1\u0bb2\u0bbf\u0baf\u0bc2\u0bb0\u0bcd\u0b9a\u0bbe\u0bb2\u0bc8", "place": "village"}}, {"type": "node", "id": 11444308106, "lat": 8.4278802, "lon": 77.1955104, "tags": {"name": "Panachamoodu", "name:ml": "\u0d2a\u0d28\u0d1a\u0d4d\u0d1a\u0d2e\u0d42\u0d1f\u0d4d", "name:ta": "\u0baa\u0ba9\u0b9a\u0bcd\u0b9a\u0bae\u0bc2\u0b9f\u0bc1", "place": "village"}}, {"type": "node", "id": 11444308107, "lat": 8.3913403, "lon": 77.1992556, "tags": {"name": "Kuttaicode", "name:ml": "\u0d15\u0d41\u0d1f\u0d4d\u0d1f\u0d15\u0d4d\u0d15\u0d4b\u0d1f\u0d4d", "name:ta": "\u0b95\u0bc1\u0b9f\u0bcd\u0b9f\u0bc8\u0b95\u0bcd\u0b95\u0bcb\u0b9f\u0bc1", "place": "village"}}, {"type": "node", "id": 11676930338, "lat": 8.3102753, "lon": 77.1228356, "tags": {"name": "Urambu", "name:ml": "\u0d09\u0d30\u0d2e\u0d4d\u0d2a\u0d4d", "name:ta": "\u0b89\u0bb0\u0bae\u0bcd\u0baa\u0bc1", "place": "village"}}, {"type": "node", "id": 11676930339, "lat": 8.3118808, "lon": 77.1269989, "tags": {"name": "Choozhal", "name:ml": "\u0d1a\u0d42\u0d34\u0d3e\u0d7d", "name:ta": "\u0b9a\u0bc2\u0bb4\u0bbe\u0bb2\u0bcd", "place": "village"}}, {"type": "node", "id": 11676930343, "lat": 8.4834196, "lon": 77.2144697, "tags": {"name": "Arukani", "name:ml": "\u0d05\u0d30\u0d41\u0d15\u0d23\u0d3f", "name:ta": "\u0b85\u0bb0\u0bc1\u0b95\u0ba3\u0bbf", "place": "village"}}, {"type": "node", "id": 11676930344, "lat": 8.5016585, "lon": 77.1910541, "tags": {"name": "Amboori", "name:ml": "\u0d05\u0d2e\u0d4d\u0d2a\u0d42\u0d30\u0d3f", "name:ta": "\u0b85\u0bae\u0bcd\u0baa\u0bc2\u0bb0\u0bbf", "place": "village"}}, {"type": "node", "id": 11676930345, "lat": 8.477424, "lon": 77.1873089, "tags": {"name": "Kudappanamoodu", "name:ml": "\u0d15\u0d41\u0d1f\u0d2a\u0d4d\u0d2a\u0d28\u0d2e\u0d42\u0d1f\u0d4d", "name:ta": "\u0b95\u0bc1\u0b9f\u0baa\u0bcd\u0baa\u0ba9\u0bae\u0bc2\u0b9f\u0bc1", "place": "village"}}, {"type": "node", "id": 11684694384, "lat": 8.460619, "lon": 77.1140241, "tags": {"name": "Keezharoor", "name:ml": "\u0d15\u0d40\u0d34\u0d3e\u0d31\u0d42\u0d7c", "name:ta": "\u0b95\u0bc0\u0bb4\u0bbe\u0bb0\u0bc2\u0bb0\u0bcd", "place": "village"}}, {"type": "node", "id": 11820485919, "lat": 8.6452548, "lon": 77.055084, "tags": {"alt_name": "Tholikkod", "name": "Tholicode", "name:ml": "\u0d24\u0d4a\u0d33\u0d3f\u0d15\u0d4d\u0d15\u0d4b\u0d1f\u0d4d", "place": "village", "wikidata": "Q7786686"}}, {"type": "node", "id": 11822543972, "lat": 8.4188385, "lon": 77.2067252, "tags": {"name": "Mancode", "name:ml": "\u0d2e\u0d3e\u0d19\u0d4d\u0d15\u0d4b\u0d1f\u0d4d", "name:ta": "\u0bae\u0bbe\u0b99\u0bcd\u0b95\u0bcb\u0b9f\u0bc1", "place": "village"}}, {"type": "node", "id": 11822543973, "lat": 8.3812303, "lon": 77.1977768, "tags": {"name": "Melpalai", "name:ml": "\u0d2e\u0d47\u0d7d\u0d2a\u0d4d\u0d2a\u0d3e\u0d32", "name:ta": "\u0bae\u0bc7\u0bb2\u0bcd\u0baa\u0bbe\u0bb2\u0bc8", "place": "village"}}, {"type": "node", "id": 11822543974, "lat": 8.3676083, "lon": 77.1986518, "tags": {"name": "Edaicode", "name:ml": "\u0d07\u0d1f\u0d2f\u0d4d\u0d15\u0d4d\u0d15\u0d4b\u0d1f\u0d4d", "name:ta": "\u0b87\u0b9f\u0bc8\u0b95\u0bcd\u0b95\u0bcb\u0b9f\u0bc1", "place": "village"}}, {"type": "node", "id": 11822543975, "lat": 8.3656058, "lon": 77.1670456, "tags": {"name": "Palukal", "name:ml": "\u0d2a\u0d33\u0d41\u0d15\u0d7d", "name:ta": "\u0baa\u0bb3\u0bc1\u0b95\u0bb2\u0bcd", "place": "village"}}]}