{"version": 0.6, "generator": "Overpass API 0.7.62.1 084b4234", "osm3s": {"timestamp_osm_base": "2024-11-07T07:09:11Z", "copyright": "The data included in this document is from www.openstreetmap.org. The data is made available under ODbL."}, "elements": [{"type": "node", "id": 299448214, "lat": 27.4844597, "lon": 94.9019447, "tags": {"alt_name:ar": "\u062f\u064a\u0628\u0631\u0648\u062c\u0627\u0631\u0647", "name": "Dibrugarh", "name:ar": "\u062f\u0628\u0631\u0648\u063a\u0627\u0631\u0647", "name:as": "\u09a1\u09bf\u09ac\u09cd\u09f0\u09c1\u0997\u09a1\u09bc", "name:bn": "\u09a1\u09bf\u09ac\u09cd\u09b0\u09c1\u0997\u09a1\u09bc", "name:en": "Dibrugarh", "name:hi": "\u0921\u093f\u092c\u094d\u0930\u0942\u0917\u0922", "name:ja": "\u30c7\u30a3\u30d6\u30eb\u30ac\u30eb", "name:kn": "\u0ca1\u0cbf\u0cac\u0ccd\u0cb0\u0cc1\u0c97\u0ca1", "name:ml": "\u0d26\u0d3f\u0d2c\u0d4d\u0d30\u0d41\u0d17\u0d21\u0d4d", "name:ru": "\u0414\u0438\u0431\u0440\u0443\u0433\u0430\u0440\u0445", "name:ta": "\u0ba4\u0bbf\u0baa\u0bcd\u0bb0\u0bc1\u0b95\u0bbe\u0bb0\u0bcd", "name:ur": "\u0688\u0628\u0631\u0648\u06af\u0691\u06be", "name:zh-Hans-CN": "\u8fea\u5e03\u9c81\u683c\u5c14", "place": "city", "population": "140000", "postal_code": "786001", "wikidata": "Q1266637", "wikipedia": "en:Dibrugarh"}}]}