{"version": 0.6, "generator": "Overpass API 0.7.62.1 084b4234", "osm3s": {"timestamp_osm_base": "2024-11-07T07:13:19Z", "copyright": "The data included in this document is from www.openstreetmap.org. The data is made available under ODbL."}, "elements": [{"type": "node", "id": 245589432, "lat": 11.1157344, "lon": 76.748318, "tags": {"name": "Anaikatti", "name:ml": "\u0d06\u0d28\u0d15\u0d4d\u0d15\u0d1f\u0d4d\u0d1f\u0d3f", "name:ta": "\u0b86\u0ba9\u0bc8\u0b95\u0b9f\u0bcd\u0b9f\u0bbf", "place": "village"}}, {"type": "node", "id": 245589479, "lat": 11.1057095, "lon": 76.6547629, "tags": {"alt_name:en": "Agaly", "name": "Agali", "name:ml": "\u0d05\u0d17\u0d33\u0d3f", "place": "village", "wikidata": "Q15616217"}}, {"type": "node", "id": 278931486, "lat": 11.3428052, "lon": 76.6380227, "tags": {"name": "Ithalar", "place": "village"}}, {"type": "node", "id": 303055235, "lat": 11.2973653, "lon": 76.6390569, "tags": {"created_by": "Potlatch 0.10f", "name": "Edakadu", "place": "village"}}, {"type": "node", "id": 910344193, "lat": 11.3205218, "lon": 76.6247071, "tags": {"name": "Emerald", "place": "village"}}, {"type": "node", "id": 1423907851, "lat": 11.1327697, "lon": 76.7449511, "tags": {"name": "Pudur", "name:ml": "\u0d2a\u0d41\u0d24\u0d42\u0d7c", "name:ta": "\u0baa\u0bc1\u0ba4\u0bc2\u0bb0\u0bcd", "place": "village", "postal_code": "678741"}}, {"type": "node", "id": 1672344943, "lat": 11.2716051, "lon": 76.6452966, "tags": {"name": "Manjur", "name:en": "Manjur", "name:ta": "\u0bae\u0b9e\u0bcd\u0b9a\u0bc2\u0bb0\u0bcd \u0bb9\u0bbe\u0b9f\u0bcd\u0b9f\u0bbf", "place": "village"}}, {"type": "node", "id": 1672352052, "lat": 11.214608, "lon": 76.7305954, "tags": {"name": "Mulli", "name:ml": "\u0d2e\u0d41\u0d33\u0d4d\u0d33\u0d3f", "name:ta": "\u0bae\u0bc1\u0bb3\u0bcd\u0bb3\u0bbf", "place": "village"}}, {"type": "node", "id": 1681022649, "lat": 11.0871239, "lon": 76.5934147, "tags": {"name": "Thavalam", "place": "village"}}, {"type": "node", "id": 3784383503, "lat": 11.2733539, "lon": 76.6565168, "tags": {"alt_name": "Mattakandi", "int_name": "Mattakandy", "name": "Mattakandy", "place": "village"}}, {"type": "node", "id": 4402371199, "lat": 11.0092518, "lon": 76.8484612, "tags": {"name": "Dhaliyur", "name:ml": "\u0d27\u0d33\u0d3f\u0d2f\u0d42\u0d7c", "name:ta": "\u0ba4\u0bb3\u0bbf\u0baf\u0bc2\u0bb0\u0bcd", "place": "village", "wikidata": "Q1261552"}}, {"type": "node", "id": 4402461089, "lat": 10.9960026, "lon": 76.8465356, "tags": {"name": "Kulathupalayam", "name:ml": "\u0d15\u0d41\u0d33\u0d24\u0d4d\u0d24\u0d41\u0d2a\u0d4d\u0d2a\u0d3e\u0d33\u0d2f\u0d02", "name:ta": "\u0b95\u0bc1\u0bb3\u0ba4\u0bcd\u0ba4\u0bc1\u0baa\u0bcd\u0baa\u0bbe\u0bb3\u0bc8\u0baf\u0bae\u0bcd", "place": "village"}}, {"type": "node", "id": 7131556237, "lat": 11.2819631, "lon": 76.6905267, "tags": {"name": "Manjacombai", "name:ta": "\u0bae\u0b9e\u0bcd\u0b9a\u0b95\u0bbe\u0bae\u0bcd\u0baa\u0bc8", "place": "village"}}, {"type": "node", "id": 7131556478, "lat": 11.2888527, "lon": 76.6779969, "tags": {"name": "Bengal hatty", "name:ta": "\u0baa\u0bc7\u0ba9\u0bcd\u0b95\u0bb3\u0bcd \u0bb9\u0bbe\u0b9f\u0bcd\u0b9f\u0bbf", "place": "village"}}, {"type": "node", "id": 7131556495, "lat": 11.2847353, "lon": 76.6777076, "tags": {"name": "M.Mynala Hatty", "place": "village"}}, {"type": "node", "id": 7131556496, "lat": 11.2868609, "lon": 76.6802265, "tags": {"name": "Maasikandi hatty", "name:ta": "\u0bae\u0bbe\u0b9a\u0bbf\u0b95\u0ba3\u0bcd\u0b9f\u0bbf \u0bb9\u0bbe\u0b9f\u0bcd\u0b9f\u0bbf", "place": "village"}}, {"type": "node", "id": 7131556508, "lat": 11.2850239, "lon": 76.6719855, "tags": {"name": "Denadu hatty", "name:ta": "\u0ba4\u0bc7\u0ba9\u0bbe\u0b9f\u0bc1 \u0bb9\u0bbe\u0b9f\u0bcd\u0b9f\u0bbf", "place": "village"}}, {"type": "node", "id": 7131556548, "lat": 11.222806, "lon": 76.6648794, "tags": {"name": "Kinnakorai", "name:en": "Kinnakorai", "name:ta": "\u0b95\u0bbf\u0ba3\u0bcd\u0ba3\u0b95\u0bcd\u0b95\u0bca\u0bb0\u0bc8 \u0bb9\u0bbe\u0b9f\u0bcd\u0b9f\u0bbf", "place": "village"}}, {"type": "node", "id": 7131556549, "lat": 11.2307159, "lon": 76.6810048, "tags": {"name": "Hiriyaseegai", "name:en": "Hiriyaseegai", "name:ml": "\u0d39\u0d3f\u0d30\u0d3f\u0d2f\u0d38\u0d40\u0d17", "name:ta": "\u0bb9\u0bbf\u0bb0\u0bbf\u0baf\u0b9a\u0bc0\u0b95\u0bc8 \u0bb9\u0bbe\u0b9f\u0bcd\u0b9f\u0bbf", "place": "village"}}, {"type": "node", "id": 7131556550, "lat": 11.2266824, "lon": 76.6139658, "tags": {"name": "Melkundah", "name:ml": "\u0d2e\u0d47\u0d7d\u0d15\u0d41\u0d28\u0d4d\u0d26", "name:ta": "\u0bae\u0bc7\u0bb2\u0bcd\u0b95\u0bc1\u0ba8\u0bcd\u0ba4\u0bbe", "place": "village"}}, {"type": "node", "id": 7131556551, "lat": 11.2338707, "lon": 76.6225033, "tags": {"name": "ThaiSholai", "place": "village"}}, {"type": "node", "id": 7131556552, "lat": 11.2497722, "lon": 76.6314317, "tags": {"name": "Bikketti Hatty", "name:en": "Bikketti Hatty", "name:ta": "\u0baa\u0bbf\u0b95\u0bcd\u0b95\u0bc6\u0b9f\u0bcd\u0b9f\u0bbf \u0bb9\u0bbe\u0b9f\u0bcd\u0b9f\u0bbf", "place": "village"}}, {"type": "node", "id": 7131556553, "lat": 11.2556104, "lon": 76.6243687, "tags": {"name": "Doddakombai", "name:ta": "\u0ba4\u0bcb\u0b9f\u0b9f\u0b95\u0bca\u0bae\u0bcd\u0baa\u0bc8", "place": "village"}}, {"type": "node", "id": 7131556554, "lat": 11.265683, "lon": 76.6244916, "tags": {"name": "Kerapadu", "name:ta": "\u0b95\u0bc7\u0bb0\u0bcd\u0baa\u0bcd\u0baa\u0b9f\u0bc1", "place": "village"}}, {"type": "node", "id": 7131556555, "lat": 11.2631928, "lon": 76.6332857, "tags": {"name": "Kechigatty", "name:ta": "\u0b95\u0bc7\u0b9a\u0bcd\u0b9a\u0bbf\u0b95\u0bcd\u0b95\u0b9f\u0bcd\u0b9f\u0bbf", "place": "village"}}, {"type": "node", "id": 7131556556, "lat": 11.26228, "lon": 76.6423828, "tags": {"name": "Kil Kundah", "name:ta": "\u0b95\u0bc0\u0bb4\u0bcd \u0b95\u0bc1\u0ba8\u0bcd\u0ba4\u0baf\u0bc8", "place": "village"}}, {"type": "node", "id": 7131556557, "lat": 11.2647415, "lon": 76.6437743, "tags": {"name": "Kariyamalai", "name:ta": "\u0b95\u0bbe\u0bb0\u0bbf\u0baf\u0bae\u0bb2\u0bc8", "place": "village"}}, {"type": "node", "id": 7131556627, "lat": 11.2710355, "lon": 76.6531675, "tags": {"name": "Kundah Thuneri", "name:ta": "\u0b95\u0bc1\u0ba8\u0bcd\u0ba4\u0bbe \u0ba4\u0bc1\u0ba9\u0bc7\u0bb0\u0bbf", "place": "village"}}, {"type": "node", "id": 10578825858, "lat": 11.1328798, "lon": 76.6856117, "tags": {"name": "Kottathara", "name:ml": "\u0d15\u0d4b\u0d1f\u0d4d\u0d1f\u0d24\u0d4d\u0d24\u0d31", "place": "village"}}, {"type": "node", "id": 11396808654, "lat": 11.0613606, "lon": 76.7002035, "tags": {"name": "Sholayur", "name:ml": "\u0d37\u0d4b\u0d33\u0d2f\u0d42\u0d7c", "place": "village"}}]}